GeolocCode,Latitude,Longitude,Name,InstallationTypeCode,CountryStateCode,CountryStateShortName,CountryStateLongName,Icao,PrimeGeolocCode,ProvinceCode,ProvinceName,LogisticPlanningCode,RecordOwnerUic,GsaStateCode,GsaCityCode,GsaCountyCode
EXAN,41.058613,-94.361115,CRESTON,CTY,19,IA,IOWA,,EXAN,,,3V,FFWTK0,,,
MJNV,42.2,-121.78333,KLAMATH FALLS,CTY,41,OR,OREGON,,MJNV,,,3T,FFWTK0,,,
FAQZ,40.15,-87.61667,DANVILLE,CTY,17,IL,ILLINOIS,,FAQZ,,,3W,FFWTK0,,,
YZJU,33.269165,-111.81111,CHANDLER MUNI,MAP,04,AZ,ARIZONA,KCHD,YZJU,,,3R,DMABAA,,,
RQMN,29.993334,-90.25916,LOUIS ARMSTRONG N,IAP,22,LA,LOUISIANA,KMSY,RQMN,,,3N,DMABAA,,,
LKTC,36.587223,-115.67333,CREECH AFB,MAP,32,NV,NEVADA,KINS,LKTC,,,3S,DMABAA,,,
TSKU,32.45,-86.46667,PRATTVILLE,CTY,01,AL,ALABAMA,,TSKU,,,3M,W0ZUFF,,,
MNWA,29.633333,-95.05,LA PORTE,AGS,48,TX,TEXAS,,MNWA,,,3P,FFWTK0,,,
RQNA,29.827223,-90.026665,NEW ORLEANS NAS J,MAP,22,LA,LOUISIANA,KNBG,RQNA,,,3N,DMABAA,,,
PSXE,35.81111,-83.99416,MC GHEE TYSON,JAP,47,TN,TENNESSEE,KTYS,PSXE,,,3M,DMABAA,,,
RQNB,29.833334,-90.01667,NEW ORLEANS NAV S,CTY,22,LA,LOUISIANA,,RQNB,,,3N,DKAACA,,,
RQNM,30,-90.05,NEW ORLEANS   NSA,STG,22,LA,LOUISIANA,,RQNM,,,3N,N00011,,,
YEAF,40.266666,-74.8,W TRENTON,CTY,34,NJ,NEW JERSEY,,YEAF,,,3H,FFWTK0,,,
RQNK,29.95,-90.01667,NEW ORLEANS,PRT,22,LA,LOUISIANA,,RQNK,,,3N,N00011,,,
RQNJ,29.95,-90.066666,NEW ORLEANS SHYD,DEP,22,LA,LOUISIANA,,RQNJ,,,3N,N00011,,,
JADW,43.3,-73.666664,GLENS FALLS,CTY,36,NY,NEW YORK,,JADW,,,3H,FFWTK0,,,
LGJZ,38.060833,-97.92944,HUTCHINSON,CTY,20,KS,KANSAS,,KSRV,,,3V,FFWTK0,,,
TJYZ,42.735554,-94.66889,POCAHONTAS,CTY,19,IA,IOWA,,TJYZ,,,3V,W0ZUFF,,,
RQMA,29.966667,-90.11667,NEW ORLEANS,CTY,22,LA,LOUISIANA,,RQMA,,,3N,FFWTK0,,,
UZVD,42.1,-90.11667,SAVANNA DEPOT,AIN,17,IL,ILLINOIS,,UZVD,,,3W,W0ZUFF,,,
NEAC,29.831667,-90.01833,NEW ORLEANS,CLN,22,LA,LOUISIANA,,NEAC,,,3N,N00011,,,
VHRJ,34.166668,-118.46667,SEPULVEDA,AGS,06,CA,CALIFORNIA,,VHRJ,,,3R,FFWTK0,,,
NVED,37.416668,-79.166664,LYNCHBURG,CTY,51,VA,VIRGINIA,,NVED,,,3K,FFWTK0,,,
TWUT,37.1,-80.65,RADFORD ARSENAL,AIN,51,VA,VIRGINIA,,TWUT,,,3K,W0ZUFF,,,
HLCC,32.566666,-83.88333,FT VALLEY,STG,13,GA,GEORGIA,,HLCC,,,3L,FFWTK0,,,
XFHH,21.366667,-157.88333,TRIPLER GENERAL,HSP,15,HI,HAWAII,,XFHH,,,5N,W0ZUFF,,,
YMSM,41.558056,-73.05194,WATERBURY,CTY,09,CT,CONNECTICUT,,YMSM,,,3G,FFWTK0,,,
PBXH,40.783333,-82.53333,MANSFIELD,CTY,39,OH,OHIO,,PBXH,,,3W,FFWTK0,,,
VUKL,44.883335,-93.2,SNELLING,AFS,27,MN,MINNESOTA,,VUKL,,,3W,W0ZUFF,,,
MSBK,40.016666,-74.316666,LAKEHURST,CTY,34,NJ,NEW JERSEY,,MSBK,,,3H,FFWTK0,,,
BFHX,48.792778,-122.5375,BELLINGHAM INTL,IAP,53,WA,WASHINGTON,KBLI,BFHX,,,3T,DMABAA,,,
PBXP,40.82139,-82.51667,MANSFIELD LAHM RG,JAP,39,OH,OHIO,KMFD,PBXP,,,3W,DMABAA,,,
HPKT,29.666666,-82.333336,GAINESVILLE,CTY,12,FL,FLORIDA,,HPKT,,,3L,FFWTK0,,,
KHSH,38.545,-118.6325,HAWTHORNE INDUSTR,APT,32,NV,NEVADA,KHTH,KHSH,,,3S,N00011,,,
TWVH,34.983334,-79.23333,RAEFORD,CTY,37,NC,NORTH CAROLINA,,TWVH,,,3L,W0ZUFF,,,
AKUU,38.983334,-76.48333,ANNAPOLIS,PRT,24,MD,MARYLAND,,AKUU,,,3J,N00011,,,
HCRL,31.8,-106.416664,FT BLISS,AIN,48,TX,TEXAS,,HCRL,,,3P,W0ZUFF,,,
AKUS,38.983334,-76.5,ANNAPOLIS,CTY,24,MD,MARYLAND,,AKUS,,,3J,FFWTK0,,,
VYTD,44.5,-103.88333,SPEARFISH,CTY,46,SD,SOUTH DAKOTA,,VYTD,,,3Q,FFWTK0,,,
KHST,38.55,-118.63333,HAWTHORNE AAP,AMO,32,NV,NEVADA,,KHST,,,3S,N00011,,,
UZYJ,32.127224,-81.19945,HUNTER 02,AGS,13,GA,GEORGIA,,UZYJ,,,3L,FFWTK0,,,
FNLD,-29.966667,30.966667,DURBAN,PRT,ZA,SOAFR,SOUTH AFRICA,,FNLD,,,7B,DLAAAA,,,
UEND,37.916668,-122.36667,RICHMOND,PRT,06,CA,CALIFORNIA,,UEND,,,3S,N00011,,,
BWKR,35.964443,-89.943886,ARKANSAS INTL,MAP,05,AR,ARKANSAS,KBYH,BWKR,,,3N,DMABAA,,,
STQT,21.4,-158.1,PALEHUA,CTY,15,HI,HAWAII,,STQT,,,5N,FFWTK0,,,
GMGG,40.6,-73.75,FAR ROCKAWAY,CTY,36,NY,NEW YORK,,GMGG,,,3H,FFWTK0,,,
JAFZ,42.090557,-87.82,CHICAGO CGAS,MAP,17,IL,ILLINOIS,,JAFZ,,,3W,DMABAA,,,
VYRR,34.933334,-81.95,SPARTANBURG,CTY,45,SC,SOUTH CAROLINA,,VYRR,,,3L,FFWTK0,,,
AKWB,33.616665,-85.98333,ANNISTON,STG,01,AL,ALABAMA,,AKWB,,,3M,1A1AAA,,,
UZXM,32.066666,-81.11667,SAVANNAH,AGS,13,GA,GEORGIA,,UZXM,,,3L,FFWTK0,,,
UZXF,32.066666,-81.11667,SAVANNAH,CTY,13,GA,GEORGIA,,UZXF,,,3L,FFWTK0,,,
STRM,38.12611,13.368889,PALERMO,PRT,IT,ITALY,ITALY,,STRM,,,4P,DLAAAA,,,
STRL,38.175835,13.091111,PALERMO,CAP,IT,ITALY,ITALY,LICJ,STRL,,,4P,DMABAA,,,
EXCN,30.816668,-86.55,CRESTVIEW,CTY,12,FL,FLORIDA,,EXCN,,,3L,FFWTK0,,,
KLZU,34.649723,-98.40222,HENRY POST AAF,MAP,40,OK,OKLAHOMA,KFSI,KLZU,,,3P,DMABAA,,,
UZXJ,32.083332,-81.11667,SAVANNAH,PRT,13,GA,GEORGIA,,UZXJ,,,3L,N00011,,,
HLED,64.833336,-147.58333,FT WAINWRIGHT,COM,02,AK,ALASKA,,HLED,,,35,FFWTK0,,,
HLEC,40.583332,-74.05,FT WADSWORTH,AIN,36,NY,NEW YORK,,HLEC,,,3H,W0ZUFF,,,
MSDK,28.033333,-81.95,LAKELAND,CTY,12,FL,FLORIDA,,MSDK,,,3L,FFWTK0,,,
DPYZ,42.183334,-72.61667,CHICOPEE,CTY,25,MA,MASSACHUSETTS,,DPYZ,,,3G,FFWTK0,,,
HTUX,42.946945,-87.89694,GENERAL MITCHELL,JAP,55,WI,WISCONSIN,KMKE,HTUX,,,3W,DMABAA,,,
HTUV,42.95028,-87.897224,GEN B MITCHELL,AGS,55,WI,WISCONSIN,,HTUX,,,3W,FFWTK0,,,
HCTG,39.45,-123.816666,FT BRAGG,CTY,06,CA,CALIFORNIA,,HCTG,,,3S,W0ZUFF,,,
WXPV,28.616667,-80.833336,TITUSVILLE,CTY,12,FL,FLORIDA,,WXPV,,,3L,FFWTK0,,,
HCTL,35.133335,-78.98333,FT BRAGG,AIN,37,NC,NORTH CAROLINA,,HCTL,,,3L,W0ZUFF,,,
HPMW,34.3,-84.583336,GAINESVILLE,CTY,13,GA,GEORGIA,,HPMW,,,3L,FFWTK0,,,
AXQD,42.158054,-72.715836,WESTFIELD BARNES,JAP,25,MA,MASSACHUSETTS,KBAF,AXQD,,,3G,DMABAA,,,
LPAS,33.83,-118.086945,LONG BEACH,HSP,06,CA,CALIFORNIA,,LPAS,,,3R,N00011,,,
HCTM,35.133335,-79,FT BRAGG,STG,37,NC,NORTH CAROLINA,,HCTM,,,3L,1A1AAA,,,
AKWU,33.633335,-85.86667,ANNISTON,CTY,01,AL,ALABAMA,,AKWU,,,3M,FFWTK0,,,
EGDZ,33.883335,-118.3,COMPTON,CTY,06,CA,CALIFORNIA,,EGDZ,,,3R,FFWTK0,,,
AKWS,33.633335,-85.86667,ANNISTON ARMY DEP,AMO,01,AL,ALABAMA,,AKWS,,,3M,W0ZUFF,,,
AKWQ,33.633335,-85.86667,ANNISTON ARMY DEP,AIN,01,AL,ALABAMA,,AKWQ,,,3M,W0ZUFF,,,
BWKV,35.933334,-89.916664,BLYTHEVILLE,CTY,05,AR,ARKANSAS,,BWKV,,,3N,FFWTK0,,,
GUYP,21.366667,-157.96666,FORD ISLAND,AIN,15,HI,HAWAII,,GUYP,,,5N,W0ZUFF,,,
BSEM,46.772778,-100.745834,BISMARCK MUNI,JAP,38,ND,NORTH DAKOTA,KBIS,BSEM,,,3Q,DMABAA,,,
YVEW,21.481667,-158.03694,WHEELER AAF,MAP,15,HI,HAWAII,PHHI,YVEW,,,5N,DMABAA,,,
WKVB,40.843613,-72.63167,FRANCIS S GABRESK,JAP,36,NY,NEW YORK,KFOK,WKVB,,,3H,DMABAA,,,
GUYU,21.366667,-157.96666,JBPH-H FORD ISLAN,NYI,15,HI,HAWAII,,GUYU,,,5N,N00011,,,
BSEH,46.833332,-100.8,BISMARCK,CTY,38,ND,NORTH DAKOTA,,BSEH,,,3Q,FFWTK0,,,
UNAP,51.883335,4.45,ROTTERDAM,PRT,NL,NETHE,NETHERLANDS,,UNAP,,,4K,FFWTK0,,,
TWWH,37.916668,-80.816666,RAINELLE,AIN,54,WV,WEST VIRGINIA,,TWWH,,,3J,W0ZUFF,,,
UAKE,40.083332,-74.35,RED BANK,CTY,34,NJ,NEW JERSEY,,UAKE,,,3H,FFWTK0,,,
QNPW,34.783333,126.38333,MOKPO,PRT,KR,SKORE,"KOREA, REP OF",,QNPW,,,5H,DLAAAA,,,
CMXJ,40.711945,-73.969444,BROOKLYN,NYI,36,NY,NEW YORK,,CMXJ,,,3H,N00072,,,
FRYQ,33.783333,-81.933334,EDGEFIELD,CTY,45,SC,SOUTH CAROLINA,,FRYQ,,,3L,W0ZUFF,,,
FFAJ,41.600555,-93.60889,DES MOINES,CTY,19,IA,IOWA,,FFAJ,,,3V,FFWTK0,,,
SLFU,41.05,-73.95,ORANGEBURG,CTY,36,NY,NEW YORK,,SLFU,,,3H,FFWTK0,,,
FFAR,41.53389,-93.663055,DES MOINES INTL,JAP,19,IA,IOWA,KDSM,FFAR,,,3V,FFWTK0,,,
FAXN,49.853333,8.5847225,DARMSTADT AAF,APT,DE,GERMA,GERMANY,,FAXN,,,4K,DMABAA,,,
TSRD,37.8,-122.451385,PRESIDIO OF SFRAN,AIN,06,CA,CALIFORNIA,,TSRD,,,3S,W0ZUFF,,,
TWZR,35.75,-78.65,RALEIGH,CTY,37,NC,NORTH CAROLINA,,TWZR,,,3L,FFWTK0,,,
SCTF,39.83389,-99.89111,NORTON,CTY,20,KS,KANSAS,,SCTF,,,3V,FFWTK0,,,
WPAU,-33.966667,151.2,SYDNEY,PRT,AU,ATRAL,AUSTRALIA,,WPAU,,,5E,DLAAAA,,,
00XT,40,6,WESTERN MED,SEA,8W,WMEDS,MEDITERREAN W,,00XT,,,4N,N00011,,,
NEFW,40.95,-76.88333,LEWISTOWN,CTY,42,PA,PENNSYLVANIA,,NEFW,,,3J,FFWTK0,,,
YVGQ,44.055557,-75.72,WHEELER SACK AAF,MAP,36,NY,NEW YORK,KGTB,YVGQ,,,3H,DMABAA,,,
MSET,52.409443,0.5611111,LAKENHEATH,MAP,GB,UK,UNITED KINGDOM,EGUL,MSET,,,4L,DMABAA,,,
BFMV,21.366112,-157.71945,BELLOWS AFS,AFS,15,HI,HAWAII,,BFMV,,,5N,FFWTK0,,,
WTJG,5.633333,0.016666668,TEMA,PRT,GH,GHANA,GHANA,,WTJG,,,7A,DLAAAA,,,
ACJP,34,-118.25,LOS ANGELES,AFS,06,CA,CALIFORNIA,,ACJP,,,3R,FFWTK0,,,
EXGM,38.05,-122.21667,CROCKETT,PRT,06,CA,CALIFORNIA,,EXGM,,,3S,N00011,,,
FNQD,36,-78.9,DURHAM,CTY,37,NC,NORTH CAROLINA,,FNQD,,,3L,W0ZUFF,,,
CZQZ,34.3825,-103.3225,CANNON AFB,MAP,35,NM,NEW MEXICO,KCVS,CZQZ,,,3P,DMABAA,,,
CMZJ,41.4,-81.816666,BROOKPARK,CTY,39,OH,OHIO,,CMZJ,,,3W,W0ZUFF,,,
CAAY,28.4675,-80.566666,CAPE CANAVERAL AF,AFB,12,FL,FLORIDA,KXMR,CAAY,,,3L,DMABAA,,,
NRCH,46.950554,-67.88583,LORING INTL,CAP,23,ME,MAINE,ME16,NRCH,,,3G,DMABAA,,,
SHA5,39.368332,-94.91472,SHERMAN AAF,MAP,20,KS,KANSAS,KFLV,SHA5,,,3V,DMABAA,,,
CAAP,33.301388,-117.35528,CAMP PENDLETON MC,MAP,06,CA,CALIFORNIA,KNFG,CAAP,,,3R,DMABAA,,,
VURP,41.683334,-86.25,SO BEND,CTY,18,IN,INDIANA,,VURP,,,3W,FFWTK0,,,
XSHL,38.1,-122.316666,VALLEJO SHYD,DEP,06,CA,CALIFORNIA,,XSHL,,,3S,N00011,,,
STYW,26.7,-80.03333,PALM BEACH,PRT,12,FL,FLORIDA,,STYW,,,3L,N00011,,,
QJKL,44.881943,-93.221664,MINNEAPOLIS ST PA,JAP,27,MN,MINNESOTA,KMSP,QJKL,,,3W,DMABAA,,,
ATNZ,35.166668,-79.03333,BADIN,CTY,37,NC,NORTH CAROLINA,,ATNZ,,,3L,FFWTK0,,,
VQHV,32.416668,-93.73333,SHREVEPORT,CTY,22,LA,LOUISIANA,,VQHV,,,3N,FFWTK0,,,
ATNV,35.166668,-79.03333,BADIN,COM,37,NC,NORTH CAROLINA,,ATNV,,,3L,FFWTK0,,,
VQHP,32.5,-93.76667,SHREVEPORT,RTC,22,LA,LOUISIANA,,VQHP,,,3N,FFWTK0,,,
CVLK,36.133335,-78.76667,BUTNER,CTY,37,NC,NORTH CAROLINA,,CVLK,,,3L,W0ZUFF,,,
WCJX,39.75,-94.85,ST JOSEPH,CTY,29,MO,MISSOURI,,WCJX,,,3V,FFWTK0,,,
APFD,34.316666,10.15,AS SUKHAYRAH,PRT,TN,TUNSA,TUNISIA,,APFD,,,7S,DLAAAA,,,
UNFA,42.716667,-70.879166,ROWLEY,RPA,25,MA,MASSACHUSETTS,,UNFA,,,3G,FFWTK0,,,
CVLD,40.85,-79.9,BUTLER,CTY,42,PA,PENNSYLVANIA,,CVLD,,,3J,FFWTK0,,,
CABM,34.72278,-77.36472,CP LEJUENE,HSP,37,NC,NORTH CAROLINA,,CABM,,,3L,N00011,,,
BBGP,34.716667,-76.666664,BEAUFORT,PRT,37,NC,NORTH CAROLINA,,BBGP,,,3L,N00011,,,
STXG,26.683056,-80.09556,PALM BEACH INTL,IAP,12,FL,FLORIDA,KPBI,STXG,,,3L,DMABAA,,,
LGSL,41.65,-70.26667,HYANNIS,CTY,25,MA,MASSACHUSETTS,,LGSL,,,3G,FFWTK0,,,
YMXT,42.49278,-92.34278,WATERLOO,CTY,19,IA,IOWA,,YMXT,,,3V,FFWTK0,,,
FNSH,53.916668,-166.6,DUTCH HARBOR,PRT,02,AK,ALASKA,,FNSH,,,35,FFWTK0,,,
DLUL,36.016666,-86.51667,CHATTANOOGA,CTY,47,TN,TENNESSEE,,DLUL,,,3M,FFWTK0,,,
YMXZ,42.556946,-92.400276,WATERLOO RGNL,JAP,19,IA,IOWA,KALO,YMXZ,,,3V,DMABAA,,,
DUHW,45.416668,-122.583336,CLACKAMAS,CTY,41,OR,OREGON,,DUHW,,,3T,W0ZUFF,,,
APGW,29.35,47.916668,ASH SHUWAIKH COMM,PRT,KW,KUWAT,KUWAIT,,APGW,,,1X,DLAAAA,,,
FJMK,31.321112,-85.44945,DOTHAN RGNL,CAP,01,AL,ALABAMA,KDHN,FJMK,,,3M,DMABAA,,,
MWRJ,36.166668,-115.166664,LAS VEGAS,CTY,32,NV,NEVADA,,MWRJ,,,3S,FFWTK0,,,
RQXF,37.133335,-80.59167,NEW RIVER,CTY,51,VA,VIRGINIA,,RQXF,,,3K,FFWTK0,,,
CEKT,41.939167,-72.683334,BRADLEY INTL,JAP,09,CT,CONNECTICUT,KBDL,CEKT,,,3G,DMABAA,,,
NELF,38.1,-84.5,LEXINGTON,CTY,21,KY,KENTUCKY,,NELF,,,3M,FFWTK0,,,
ZLVW,23.963888,38.202778,YANBU AL SINAIYAH,PRT,SA,SAUDI,SAUDI ARABIA,,ZLVW,,,1X,DLAAAA,,,
FNVH,36.033333,-89.35,DYERSBURG,CTY,47,TN,TENNESSEE,,FNVH,,,3M,FFWTK0,,,
MJYV,35.966667,-83.95,KNOXVILLE,CTY,47,TN,TENNESSEE,,MJYV,,,3M,FFWTK0,,,
SHAR,37.836666,-121.27333,SHARPE AAF,MAP,06,CA,CALIFORNIA,,SHAR,,,3S,DMABAA,,,
FWEV,40.816666,-115.78333,ELKO,CTY,32,NV,NEVADA,,FWEV,,,3S,FFWTK0,,,
QJKS,44.95,-93.25,MINN ST PAUL,SVC,27,MN,MINNESOTA,,QJKS,,,3W,FFWTK0,,,
URPB,44.933334,-123.01667,SALEM,CTY,41,OR,OREGON,,URPB,,,3T,FFWTK0,,,
JNHL,32.683334,-87.566666,GREENSBORO,CTY,01,AL,ALABAMA,,JNHL,,,3M,W0ZUFF,,,
XSHO,38.11139,-122.28389,VALLEJO,NYI,06,CA,CALIFORNIA,,XSHO,,,3S,N00072,,,
AGWF,35.219444,-101.70583,RICK HUSBAND AMAR,CAP,48,TX,TEXAS,KAMA,AGWF,,,3P,DMABAA,,,
TKDW,36.05,129.36667,POHANG,PRT,KR,SKORE,"KOREA, REP OF",,TKDW,,,5H,DLAAAA,,,
JNHQ,36.05,-79.833336,GREENSBORO,CTY,37,NC,NORTH CAROLINA,,JNHQ,,,3L,FFWTK0,,,
XBGX,40.496666,-3.4458334,TORREJON,MAP,ES,SPAIN,SPAIN,LETO,XBGX,,,4N,W0ZUFF,,,
LCMM,29.75,-95.36667,HOUSTON,CTY,48,TX,TEXAS,,LCMM,,,3P,FFWTK0,,,
SYCM,38.28639,-76.41,PATUXENT RIVER NA,MAP,24,MD,MARYLAND,KNHK,SYCM,,,3J,DMABAA,,,
WXVE,41.183334,-75.416664,TOBYHANNA DEPOT,AIN,42,PA,PENNSYLVANIA,,WXVE,,,3J,W0ZUFF,,,
NEKS,38.083332,-84.5,LEXINGTON BLGR AD,AIN,21,KY,KENTUCKY,,NEKS,,,3M,W0ZUFF,,,
LCMT,29.75,-95.416664,HOUSTON,PRT,48,TX,TEXAS,,LCMT,,,3P,N00011,,,
RQWP,34.708332,-77.43972,NEW RIVER MCAS,MAP,37,NC,NORTH CAROLINA,KNCA,RQWP,,,3L,DMABAA,,,
WXVK,41.216667,-75.46667,TOBYHANNA,CTY,42,PA,PENNSYLVANIA,,WXVK,,,3J,FFWTK0,,,
FJMG,31.183332,-85.35,DOTHAN,CTY,01,AL,ALABAMA,,FJMG,,,3M,W0ZUFF,,,
SHDV,35.404167,-97.37778,OKLAHOMA CITY,NYI,40,OK,OKLAHOMA,,SHDV,,,3P,N00072,,,
ATQZ,40.97861,-85.195274,FORT WAYNE INTL,IAP,18,IN,INDIANA,KFWA,ATQZ,,,3W,DMABAA,,,
FWHZ,39.216667,-76.8,ELLICOTT CITY,CTY,24,MD,MARYLAND,,FWHZ,,,3J,FFWTK0,,,
SHDT,35.466667,-97.53333,OKLAHOMA CITY,CTY,40,OK,OKLAHOMA,,SHCZ,,,3P,FFWTK0,,,
UJBZ,43.166668,-77.61667,ROCHESTER,PRT,36,NY,NEW YORK,,UJBZ,,,3H,FFWTK0,,,
FNWZ,32.418335,-99.85667,DYESS AFB,MAP,48,TX,TEXAS,KDYS,FNWZ,,,3P,DMABAA,,,
ZQAJ,37.233334,-76.53333,YORKTOWN NWS,NYI,51,VA,VIRGINIA,,ZQAJ,,,3K,N00011,,,
ETFA,34.666668,-77.333336,CAMP LEJEUNE,STG,37,NC,NORTH CAROLINA,,ETFA,,,3L,1A1AAA,,,
ETFB,34.666668,-77.333336,CP LEJEUNE,MGI,37,NC,NORTH CAROLINA,,ETFB,,,3L,M54000,,,
FSAD,40.25,-76.95,EDGEMONT,CTY,42,PA,PENNSYLVANIA,,FSAD,,,3J,FFWTK0,,,
DLZC,37.25,-76.666664,CHEATHAM ANX  NSC,STG,51,VA,VIRGINIA,,DLZC,,,3K,N00011,,,
NENL,42.466667,-71.23333,LEXINGTON,CTY,25,MA,MASSACHUSETTS,,NENL,,,3G,FFWTK0,,,
BBJS,32.43667,-80.668335,BEAUFORT NAVY,HSP,45,SC,SOUTH CAROLINA,,BBJS,,,3L,FFWTK0,,,
DHRF,33.583332,-84.36667,CHAMBLEE,CTY,13,GA,GEORGIA,,DHRF,,,3L,FFWTK0,,,
GVDN,41.866665,-87.8,FOREST PARK,NYI,17,IL,ILLINOIS,,GVDN,,,3W,N00011,,,
LTRC,33.783333,-87.25,JASPER,CTY,01,AL,ALABAMA,,LTRC,,,3M,FFWTK0,,,
BBJM,32.4775,-80.72305,BEAUFORT MCAS,MAP,45,SC,SOUTH CAROLINA,KNBC,BBJM,,,3L,DMABAA,,,
HHFD,29.364721,-81.967224,FT MCCOY,CTY,12,FL,FLORIDA,,HHFD,,,3L,FFWTK0,,,
JVZQ,48.031944,-122.75694,HADLOCK,CTY,53,WA,WASHINGTON,,JVZQ,,,3T,FFWTK0,,,
UEXL,37.566666,-77.433334,RICHMOND,CTY,51,VA,VIRGINIA,,UEXL,,,3K,FFWTK0,,,
WCNN,43.416668,-84.6,ST LOUIS,CTY,26,MI,MICHIGAN,,WCNN,,,3W,FFWTK0,,,
HLLL,41.130554,-85.12889,FT WAYNE,CTY,18,IN,INDIANA,,HLLL,,,3W,FFWTK0,,,
PKRY,40.35,-94.86667,MARYVILLE,CTY,29,MO,MISSOURI,,PKRY,,,3V,FFWTK0,,,
RZJQ,38.266666,-121.933334,NO HIGHLANDS,COM,06,CA,CALIFORNIA,,RZJQ,,,3S,FFWTK0,,,
SHCZ,35.416668,-97.38333,OKLAHOMA CITY,AFS,40,OK,OKLAHOMA,,SHCZ,,,3P,FFWTK0,,,
QNVA,35.75778,10.753889,HABIB BOURGUIBA I,IAP,TN,TUNSA,TUNISIA,DTMB,QNVA,,,7S,DMABAA,,,
UEXP,37.566666,-77.45,RICHMOND,STG,51,VA,VIRGINIA,,UEXP,,,3K,FFWTK0,,,
ZQAE,37.233334,-76.53333,YORKTOWN,CTY,51,VA,VIRGINIA,,ZQAE,,,3K,FFWTK0,,,
MFRN,30.833334,-81.53333,KINGS BAY,PRT,13,GA,GEORGIA,,MFRN,,,3L,N00011,,,
MBJJ,36.833332,11.1,KELIBIA,PRT,TN,TUNSA,TUNISIA,,MBJJ,,,7S,DLAAAA,,,
SHDD,35.466667,-97.51667,OKLAHOMA CITY 02,FHG,40,OK,OKLAHOMA,,SHDD,,,3P,FFWTK0,,,
ZQAH,37.233334,-76.53333,YORKTOWN NWS,PRT,51,VA,VIRGINIA,,ZQAH,,,3K,N00011,,,
DHQB,39.95,-77.666664,CHAMBERSBURG,CTY,42,PA,PENNSYLVANIA,,DHQB,,,3J,FFWTK0,,,
CVPF,38.678333,-104.75667,BUTTS AAF,MAP,08,CO,COLORADO,KFCS,CVPF,,,3Q,DMABAA,,,
ZQAF,37.233334,-76.53333,YORKTOWN      NWS,AMO,51,VA,VIRGINIA,,ZQAF,,,3K,N00011,,,
QJNT,44.95,-93.25,MINNEAPOLIS,CTY,27,MN,MINNESOTA,,QJNT,,,3W,FFWTK0,,,
REAG,32.30611,10.381945,REMADA,APT,TN,TUNSA,TUNISIA,DTTD,REAG,,,7S,DMABAA,,,
RZMK,32.698612,-117.21333,NORTH ISLAND NAS,AMO,06,CA,CALIFORNIA,,RZMK,,,3R,N00011,,,
TXCE,35.877777,-78.7875,RALEIGH DURHAM IN,JAP,37,NC,NORTH CAROLINA,KRDU,TXCE,,,3L,DMABAA,,,
EGNN,37.933334,-121.933334,CONCORD,PRT,06,CA,CALIFORNIA,,EGNN,,,3S,N00011,,,
RZMJ,32.7,-117.2,NORTH ISLAND,NYI,06,CA,CALIFORNIA,,RZMJ,,,3R,N00011,,,
TGAQ,34.183334,-92,PINE BLUFF,CTY,05,AR,ARKANSAS,,TGAQ,,,3N,FFWTK0,,,
GVEZ,33.633335,-84.333336,FOREST PARK,CTY,13,GA,GEORGIA,,GVEZ,,,3L,FFWTK0,,,
TGAW,34.316666,-92.083336,PINE BLUFF ARSNL,AIN,05,AR,ARKANSAS,,TGAW,,,3N,W0ZUFF,,,
FSCD,39.383335,-76.28333,EDGEWOOD ARSENAL,AIN,24,MD,MARYLAND,,FSCD,,,3J,W0ZUFF,,,
PKVP,35.183334,128.56667,MASAN,PRT,KR,SKORE,"KOREA, REP OF",,PKVP,,,5H,DLAAAA,,,
PCFG,9.363334,-79.88361,MANZANILLO,PRT,PA,PANMA,PANAMA,,PCFG,,,6A,FFWTK0,,,
APKH,33.25,-85.833336,ASHLAND,CTY,01,AL,ALABAMA,,APKH,,,3M,W0ZUFF,,,
MWWC,42.733334,-73.8,LATHAM,CTY,36,NY,NEW YORK,,MWWC,,,3H,W0ZUFF,,,
XFUA,31.783333,-85.96667,TROY,CTY,01,AL,ALABAMA,,XFUA,,,3M,FFWTK0,,,
BFTZ,42.516666,-89.01667,BELOIT,CTY,55,WI,WISCONSIN,,BFTZ,,,3W,FFWTK0,,,
PCFC,19.033333,-104.316666,MANZANILLO,PRT,MX,MEXIC,MEXICO,,PCFC,,,3F,DLAAAA,,,
MBMV,42.30639,-85.25,W K KELLOGG,JAP,26,MI,MICHIGAN,KBTL,MBMV,,,3W,DMABAA,,,
HHHC,39.670834,-76.76,FT MEADE,STG,24,MD,MARYLAND,,HHHC,,,3J,1A1AAA,,,
FFJF,42.333332,-83,DETROIT,CTY,26,MI,MICHIGAN,,FFJF,,,3W,FFWTK0,,,
FFJG,42.6,-82.833336,DETROIT,ADM,26,MI,MICHIGAN,,FFJG,,,3W,FFWTK0,,,
HHHD,27.716667,-81.816666,FT MEADE,CTY,12,FL,FLORIDA,,HHHD,,,3L,FFWTK0,,,
VZAS,38.662224,-90.65195,SPIRIT OF ST LOUI,CAP,29,MO,MISSOURI,KSUS,VZAS,,,3V,DMABAA,,,
MFSZ,39.3,-84.23333,KINGS MILLS,CTY,39,OH,OHIO,,MFSZ,,,3W,FFWTK0,,,
FJPP,31.35,-109.5,DOUGLAS,CTY,04,AZ,ARIZONA,,FJPP,,,3R,FFWTK0,,,
WCPR,38.666668,-90.25,ST LOUIS,CTY,29,MO,MISSOURI,,WCPR,,,3V,FFWTK0,,,
WCPS,38.65,-90.26667,STLOUIS A T A S F,AIN,29,MO,MISSOURI,,WCPS,,,3V,W0ZUFF,,,
PTFM,40.015556,-74.59055,MCGUIRE AFB,ADM,34,NJ,NEW JERSEY,,PTFM,,,3H,1A1AAA,,,
FWJH,29.607222,-95.15889,ELLINGTON,JAP,48,TX,TEXAS,KEFD,FWJH,,,3P,DMABAA,,,
MFTE,39.3,-84.23333,KINGS MILL ORD PL,AIN,39,OH,OHIO,,MFTE,,,3W,W0ZUFF,,,
PTFL,40.015556,-74.59167,MC GUIRE FLD,MAP,34,NJ,NEW JERSEY,KWRI,PTFL,,,3H,DMABAA,,,
PTFY,40.016666,-74.6,MCGUIRE,NAV,34,NJ,NEW JERSEY,,PTFY,,,3H,FFWTK0,,,
CNBC,29.34639,-98.431946,BROOKS CITY BASE,AFS,48,TX,TEXAS,,CNBC,,,3P,FFWTK0,,,
EGNA,37.983334,-122.05,CONCORD,AMO,06,CA,CALIFORNIA,,EGNA,,,3S,W0ZUFF,,,
URTH,38.84028,-97.611115,SALINA,CTY,20,KS,KANSAS,,URTH,,,3V,FFWTK0,,,
EGND,37.983334,-122.05,CONCORD,CTY,06,CA,CALIFORNIA,,EGND,,,3S,FFWTK0,,,
MBLS,44.3,-91.98333,KELLOG,CTY,27,MN,MINNESOTA,,MBLS,,,3W,DKAACA,,,
SHFM,35.6,-95.96667,OKMULGEE,CTY,40,OK,OKLAHOMA,,SHFM,,,3P,FFWTK0,,,
EGNF,37.983334,-122.05,CONCORD       NWS,AMO,06,CA,CALIFORNIA,,EGNF,,,3S,N00011,,,
WPJC,43.05,-76.166664,SYRACUSE,CTY,36,NY,NEW YORK,,WPJC,,,3H,FFWTK0,,,
YVPG,48.351944,-122.65583,WHIDBEY ISLAND NA,MAP,53,WA,WASHINGTON,KNUW,YVPG,,,3T,DMABAA,,,
ZHTP,39.825554,-84.05,WR PATT SYS ONLY,DEP,39,OH,OHIO,,ZHTP,,,3W,FFWTK0,,,
ALEX,32.75,-99.916664,ANSON,CTY,48,TX,TEXAS,,ALEX,,,3P,FFWTK0,,,
GVGZ,41.866665,-87.8,FOREST PARK,CTY,17,IL,ILLINOIS,,GVDN,,,3W,FFWTK0,,,
MWXP,37.816666,-121.26667,LATHROP,CTY,06,CA,CALIFORNIA,,MWXP,,,3S,FFWTK0,,,
UAUW,33.416668,-94.26667,RED RIVER DEPOT,AIN,48,TX,TEXAS,,UAUW,,,3P,W0ZUFF,,,
UAUU,33.416668,-94.26667,RED RIVER DEPOT,AMO,48,TX,TEXAS,,UAUU,,,3P,W0ZUFF,,,
MFWM,42.156113,-121.73333,KLAMATH FALLS,IAP,41,OR,OREGON,KLMT,MFWM,,,3T,DMABAA,,,
ZDLG,36.083332,-80.3,WINSTON SALEM,CTY,37,NC,NORTH CAROLINA,,ZDLG,,,3L,FFWTK0,,,
VZCD,47.666668,-117.416664,SPOKANE,CTY,53,WA,WASHINGTON,,VZCD,,,3T,FFWTK0,,,
DYWP,32.336945,-90.329445,CLINTON,CTY,28,MS,MISSISSIPPI,,DYWP,,,3M,W0ZUFF,,,
LTUY,38.666668,-90.25,JEFFERSON BRK,AGS,29,MO,MISSOURI,,LTUY,,,3V,FFWTK0,,,
URWP,38.35,-75.61667,SALISBURY,CTY,24,MD,MARYLAND,,URWP,,,3J,FFWTK0,,,
VDYD,38.545277,-89.83528,SCOTT AFB MIDAMER,JAP,17,IL,ILLINOIS,KBLV,VDYD,,,3W,DMABAA,,,
MSQB,38.74861,-90.37,LAMBERT ST LOUIS,JAP,29,MO,MISSOURI,KSTL,MSQB,,,3V,DMABAA,,,
ZHUE,39.826668,-84.04833,WRIGHT PATTERSON,STG,39,OH,OHIO,,ZHUE,,,3W,1A1AAA,,,
BBNV,30.083334,-94.083336,BEAUMONT,PRT,48,TX,TEXAS,,BBNV,,,3P,N00011,,,
ZHTV,39.82611,-84.04833,WRIGHT PATTERSON,MAP,39,OH,OHIO,KFFO,ZHTV,,,3W,DMABAA,,,
VZCR,47.619167,-117.53528,SPOKANE INTL,JAP,53,WA,WASHINGTON,KGEG,VZCR,,,3T,DMABAA,,,
YEQW,31.612223,-97.23028,WACO RGNL,CAP,48,TX,TEXAS,KACT,YEQW,,,3P,DMABAA,,,
BBNR,30.083334,-94.11667,BEAUMONT,CTY,48,TX,TEXAS,,BBNR,,,3P,FFWTK0,,,
BBNQ,30.083334,-94.083336,BEAUMONT T2,PRT,48,TX,TEXAS,,BBNQ,,,,,,,
LPNH,33.67,-117.82333,IRVINE,ADM,06,CA,CALIFORNIA,,LPNH,,,3R,W0ZUFF,,,
LTVK,36.43111,-81.47305,JEFFERSON,CTY,37,NC,NORTH CAROLINA,,LTVK,,,3L,W0ZUFF,,,
LTVJ,38.508057,-90.281944,JEFFERSON BARRACK,AIN,29,MO,MISSOURI,,LTVJ,,,3V,W0ZUFF,,,
WPKZ,36.95,8.75,TABARQAH,PRT,TN,TUNSA,TUNISIA,,WPKZ,,,7S,DLAAAA,,,
FJRP,35.21361,-80.949165,CHARLOTTE DOUGLAS,JAP,37,NC,NORTH CAROLINA,KCLT,FJRP,,,3L,DMABAA,,,
EKWU,43.383335,-124.2,COOS BAY,PRT,41,OR,OREGON,,EKWU,,,3T,N00011,,,
EKWW,42.166668,-124.166664,COOS HEAD,CTY,41,OR,OREGON,,EKWW,,,3T,FFWTK0,,,
WPKY,36.966667,8.766666,TABARQA,CTY,TN,TUNSA,TUNISIA,,WPKY,,,7S,FFWTK0,,,
DYVS,42.416668,-71.683334,CLINTON,CTY,25,MA,MASSACHUSETTS,,DYVS,,,3G,FFWTK0,,,
ZQEL,41.261665,-80.680275,YOUNGSTOWN WARREN,JAP,39,OH,OHIO,KYNG,ZQEL,,,3W,DMABAA,,,
APNG,40.883335,-82.28333,ASHLAND,CTY,39,OH,OHIO,,APNG,,,3W,FFWTK0,,,
ZQEA,41.25611,-80.66972,YOUNGSTOWN,RTC,39,OH,OHIO,,ZQEA,,,3W,FFWTK0,,,
NEQR,39.183334,-93.86667,LEXINGTON,CTY,29,MO,MISSOURI,,NEQR,,,3V,FFWTK0,,,
FFKG,42.383335,-83.083336,DETROIT MET,STG,26,MI,MICHIGAN,,FFKG,,,3W,FFWTK0,,,
VZBT,47.616665,-117.537224,SPOKANE ANG,ANX,53,WA,WASHINGTON,,VZBT,,,3T,FFWTK0,,,
LTUJ,42.015278,-94.37722,JEFFERSON,CTY,19,IA,IOWA,,LTUJ,,,3V,FFWTK0,,,
NVUS,34.216667,-90.53472,LYON,CTY,28,MS,MISSISSIPPI,,NVUS,,,3M,FFWTK0,,,
YRLZ,42.466667,-71.28333,WELLESLEY,AGS,25,MA,MASSACHUSETTS,,YRLZ,,,3G,FFWTK0,,,
BSRR,37.24472,9.792778,SIDI AHMED AIR BA,IAP,TN,TUNSA,TUNISIA,DTTB,BSRR,,,7S,DMABAA,,,
GRBE,41.398888,-72.08806,GROTON,HSP,09,CT,CONNECTICUT,,GRBE,,,3G,N00011,,,
BSRL,37.283333,9.9,BIZERTE,PRT,TN,TUNSA,TUNISIA,,BSRL,,,7S,DLAAAA,,,
BSRK,36.85,10.233334,BIZERTE,CTY,TN,TUNSA,TUNISIA,,BSRK,,,7S,FFWTK0,,,
UNQU,36,10,UNKN TUNISIA,RPA,TN,TUNSA,TUNISIA,,UNQU,,,7S,DJJ010,,,
LYAP,23.016666,70.21667,KANDLA,PRT,IN,INDIA,INDIA,,LYAP,,,54,DLAAAA,,,
YNEF,44.9,-97.11667,WATERTOWN,CTY,46,SD,SOUTH DAKOTA,,YNEF,,,3Q,FFWTK0,,,
MKAG,34.666668,135.2,KOBE,PRT,JP,JAPAN,JAPAN,,MKAG,,,5H,DLAAAA,,,
FBDH,41.523613,-90.5775,DAVENPORT,CTY,19,IA,IOWA,,FBDH,,,3V,FFWTK0,,,
ATYC,38.816666,-77.13333,BAILEYS CROSS RDS,CTY,51,VA,VIRGINIA,,ATYC,,,3K,FFWTK0,,,
MBPB,29.384167,-98.58111,JBSA KELLY AFB,MAP,48,TX,TEXAS,KSKF,MBPB,,,3P,DMABAA,,,
CAMK,42.366665,-71,BOSTON,NYI,25,MA,MASSACHUSETTS,,CAMK,,,3G,N00011,,,
HHJL,33.7,-85.76667,FT MCCLELLAN,AIN,01,AL,ALABAMA,,HHJL,,,3M,W0ZUFF,,,
PPBC,34.167778,-119.195274,PORT HUENEME,CLN,06,CA,CALIFORNIA,,PPBC,,,3R,N00011,,,
DDPK,32.783333,-97.433334,CARSWELL,AMO,48,TX,TEXAS,,DDPK,,,3P,FFWTK0,,,
HDBL,36.666668,-87.48333,FT CAMPBELL,AIN,21,KY,KENTUCKY,,HDBL,,,3M,W0ZUFF,,,
LLFQ,39.768333,-86.15806,INDIANAPOLIS,CTY,18,IN,INDIANA,,LLFQ,,,3W,FFWTK0,,,
DDPF,32.769165,-97.441666,FORT WORTH NAS JR,MAP,48,TX,TEXAS,KNFW,DDPF,,,3P,DMABAA,,,
RZPW,34.766666,-92.26667,NO LITTLE ROCK,CTY,05,AR,ARKANSAS,,RZPW,,,3N,FFWTK0,,,
CAMD,42.35,-71.066666,BOSTON,CTY,25,MA,MASSACHUSETTS,,CAMD,,,3G,FFWTK0,,,
LLFN,39.717224,-86.29472,INDIANAPOLIS INTL,JAP,18,IN,INDIANA,KIND,LLFN,,,3W,DMABAA,,,
VZDE,47.635277,-117.65,SPOKANE,ADM,53,WA,WASHINGTON,,VZDE,,,3T,1A1AAA,,,
MBPD,42.181946,-74.6,KELLY CORNERS,CTY,36,NY,NEW YORK,,MBPD,,,3H,FFWTK0,,,
DYXQ,35,-78.316666,CLINTON,CTY,37,NC,NORTH CAROLINA,,DYXQ,,,3L,W0ZUFF,,,
ACWE,21.383333,-157.93333,AIEA,RPA,15,HI,HAWAII,,ACWE,,,5N,FFWTK0,,,
JNPY,40.283333,-79.566666,GREENSBURG,CTY,42,PA,PENNSYLVANIA,,JNPY,,,3J,FFWTK0,,,
WTVR,39.466667,-87.41389,TERRE HAUTE,CTY,18,IN,INDIANA,,WTVR,,,3W,FFWTK0,,,
XBPC,42.083332,-104.183334,TORRINGTON,CTY,56,WY,WYOMING,,XBPC,,,3Q,FFWTK0,,,
QSEU,30.967777,-83.193054,MOODY AFB,MAP,13,GA,GEORGIA,KVAD,QSEU,,,3L,DMABAA,,,
CVVM,37.50528,-77.319725,RICHMOND INTL,JAP,51,VA,VIRGINIA,KRIC,CVVM,,,3K,DMABAA,,,
ATXK,26.268055,50.636944,BAHRAIN INTL,IAP,BH,BAHRA,BAHRAIN,OBBI,ATXK,,,1T,DMABAA,,,
HHKD,44.416668,-103.46667,FT MEADE,CTY,46,SD,SOUTH DAKOTA,,HHKD,,,3Q,DKAAAA,,,
UJHQ,41.535557,-90.568886,ROCK ISLAND ARS,AIN,17,IL,ILLINOIS,,UJHQ,,,3W,W0ZUFF,,,
RZQH,32.699165,-117.21528,NORTH ISLAND NAS,IAP,06,CA,CALIFORNIA,KNZY,RZQH,,,3R,DMABAA,,,
LTWH,38.55,-92.166664,JEFFERSON CITY,CTY,29,MO,MISSOURI,,LTWH,,,3V,FFWTK0,,,
GRAQ,41.33,-72.04528,GROTON NEW LONDON,JAP,09,CT,CONNECTICUT,KGON,GRAQ,,,3G,DMABAA,,,
UWDG,33.706112,-117.827225,TUSTIN MCAF,MAP,06,CA,CALIFORNIA,KNTK,UWDG,,,3R,DMABAA,,,
UWDE,33.65,-117.933334,COSTA MESA,AGS,06,CA,CALIFORNIA,,UWDE,,,3R,FFWTK0,,,
QJWG,48.25778,-101.27805,MINOT INTL,CAP,38,ND,NORTH DAKOTA,KMOT,QJWG,,,3Q,DMABAA,,,
RVKQ,43.1075,-78.94583,NIAGARA FALLS INT,JAP,36,NY,NEW YORK,KIAG,RVKQ,,,3H,DMABAA,,,
WHAH,48.35,-122.65417,WHIDBEY ISL NAS,NYI,53,WA,WASHINGTON,,WHAH,,,3T,N00011,,,
WCXE,33.683334,-80.76667,ST MATTHEWS,CTY,45,SC,SOUTH CAROLINA,,WCXE,,,3L,FFWTK0,,,
UJKH,41.583332,-109.21667,ROCK SPRINGS,CTY,56,WY,WYOMING,,UJKH,,,3Q,FFWTK0,,,
NNGX,42.363056,-71.006386,GENERAL EDWARD LA,IAP,25,MA,MASSACHUSETTS,KBOS,NNGX,,,3G,DMABAA,,,
UFD1,37.419724,-77.45111,RICHMOND,DEP,51,VA,VIRGINIA,,UFD1,,,3K,1A1AAA,,,
WHAF,48.288334,-123.632774,WHIDBEY ISLAND,HSP,53,WA,WASHINGTON,,WHAF,,,3T,N00011,,,
HHNL,38.866665,-77.066666,FT MCNAIR,AIN,11,DC,DI OF COLUMBIA,,HHNL,,,3K,W0ZUFF,,,
JRZT,41.35,-72.07889,GROTON,CTY,09,CT,CONNECTICUT,,JRZT,,,3G,FFWTK0,,,
AYDK,34.9,-117,BARSTOW,MGI,06,CA,CALIFORNIA,,AYDK,,,3R,M54000,,,
JRZU,41.328335,-72.04667,GROTON,STG,09,CT,CONNECTICUT,,JRZU,,,3G,1A1AAA,,,
ETMB,44.1,-90.683334,FT MCCOY,AIN,55,WI,WISCONSIN,,ETMB,,,3W,W0ZUFF,,,
HDDL,38.683334,-104.76667,FT CARSON,AIN,08,CO,COLORADO,,HDDL,,,3Q,W0ZUFF,,,
AYDE,34.9,-117,BARSTOW       MSC,STG,06,CA,CALIFORNIA,,AYDE,,,3R,N00011,,,
LYAX,21.450556,-157.76805,KANEOHE BAY MCAF,MAP,15,HI,HAWAII,PHNG,LYAX,,,5N,DMABAA,,,
VMLV,34.75,-87.5,SHEFFIELD,CTY,01,AL,ALABAMA,,VMLV,,,3M,W0ZUFF,,,
UJJB,41.5,-90.583336,ROCK ISLAND,CTY,17,IL,ILLINOIS,,UJJB,,,3W,FFWTK0,,,
UJJA,41.466667,-90.13333,ROCK ISLAND,STG,17,IL,ILLINOIS,,UJJA,,,3W,1A1AAA,,,
QJVF,48.415833,-101.358055,MINOT AFB,MAP,38,ND,NORTH DAKOTA,KMIB,QJVF,,,3Q,DMABAA,,,
LYBD,21.483334,-157.76666,KANEOHE MCAS,AMO,15,HI,HAWAII,,LYBD,,,5N,W0ZUFF,,,
LYBC,21.45,-157.76666,KANEOHE,CTY,15,HI,HAWAII,,LYBC,,,5N,FFWTK0,,,
QFND,35.933334,-88.78333,MILAN AMMO PLANT,AIN,47,TN,TENNESSEE,,QFND,,,3M,W0ZUFF,,,
LYBH,38.373055,-81.593056,YEAGER,JAP,54,WV,WEST VIRGINIA,KCRW,LYBH,,,3J,DMABAA,,,
QFNM,45.218056,-96.61916,MILBANK,CTY,46,SD,SOUTH DAKOTA,,QFNM,,,3Q,W0ZUFF,,,
LTYB,29.950834,-94.020836,JACK BROOKS RGNL,CAP,48,TX,TEXAS,KBPT,LTYB,,,3P,DMABAA,,,
QJVZ,48.266666,-101.316666,MINOT,CTY,38,ND,NORTH DAKOTA,,QJVZ,,,3Q,FFWTK0,,,
APRJ,34.283333,11.4,ASHTART,PRT,TN,TUNSA,TUNISIA,,APRJ,,,7S,DLAAAA,,,
DDQW,32.733334,-97.433334,CARSWELL,NAV,48,TX,TEXAS,,DDQW,,,3P,FFWTK0,,,
RVKC,43.1,-79.066666,NIAGARA FALLS,CTY,36,NY,NEW YORK,,RVKC,,,3H,FFWTK0,,,
UWCY,33.7,-117.85,SANTA ANA,CTY,06,CA,CALIFORNIA,,UWCY,,,3R,FFWTK0,,,
SLWB,28.55,-81.35,ORLANDO,TNG,12,FL,FLORIDA,,SLWB,,,3L,DJ2000,,,
SLWA,28.516666,-81.36667,ORLANDO,CTY,12,FL,FLORIDA,,SLWA,,,3L,FFWTK0,,,
RELG,35.05,136.86667,NAGOYA,PRT,JP,JAPAN,JAPAN,,RELG,,,5H,DLAAAA,,,
QFQE,52.361946,0.4863889,MILDENHALL,MAP,GB,UK,UNITED KINGDOM,EGUN,QFQE,,,4L,DMABAA,,,
LLLB,40.366665,-76.63333,FT INDIANTOWN GAP,AIN,42,PA,PENNSYLVANIA,,LLLB,,,3J,W0ZUFF,,,
UNUW,40.783333,-73.71667,RUSSELL GARDENS,CTY,36,NY,NEW YORK,,UNUW,,,3H,FFWTK0,,,
ZQLL,42.233334,-83.61667,YPSILANTI,CTY,26,MI,MICHIGAN,,ZQLL,,,3W,FFWTK0,,,
FJXT,39.129444,-75.465836,DOVER AFB,MAP,10,DE,DELAWARE,KDOV,FJXT,,,3J,DMABAA,,,
WHAY,41.504166,-74.10472,STEWART INTL,JAP,36,NY,NEW YORK,KSWF,WHAY,,,3H,FFWTK0,,,
UFCV,37.416668,-77.433334,RICHMOND DEF SUP,ADM,51,VA,VIRGINIA,,UFCV,,,3K,W0ZUFF,,,
HDFL,35.3,-94.28333,FT CHAFFEE,AIN,05,AR,ARKANSAS,,HDFL,,,3N,W0ZUFF,,,
SHMZ,38.88139,-94.818886,OLATHE,CTY,20,KS,KANSAS,,SHMZ,,,3V,FFWTK0,,,
FSJA,44.004723,-88.870834,EDINGER FIELD,AFD,55,WI,WISCONSIN,,FSJA,,,3W,DMABAA,,,
UFCS,37.416668,-77.433334,RICHMOND QM DEPOT,AIN,51,VA,VIRGINIA,,UFCS,,,3K,W0ZUFF,,,
FJYB,39.158054,-75.52472,DOVER,CTY,10,DE,DELAWARE,,FJYB,,,3J,FFWTK0,,,
NEWR,31.588612,-110.344444,SIERRA VISTA MUNI,JAP,04,AZ,ARIZONA,KFHU,NEWR,,,3R,DMABAA,,,
UWES,34.416668,-119.65,SANTA BARBARA,CTY,06,CA,CALIFORNIA,,UWES,,,3R,FFWTK0,,,
AYER,54.366665,12.716666,BARTH,PRT,DE,GERMA,GERMANY,,AYER,,,4K,DLAAAA,,,
FFRS,45.016666,-69.26667,DEXTER,CTY,23,ME,MAINE,,FFRS,,,3G,W0ZUFF,,,
NVZR,27.849445,-82.52111,MACDILL AFB,MAP,12,FL,FLORIDA,KMCF,NVZR,,,3L,DMABAA,,,
UWGE,37.35,-121.96667,SANTA CLARA,CTY,06,CA,CALIFORNIA,,UWGE,,,3R,FFWTK0,,,
HYRF,37,-85.916664,GLASGOW,CTY,21,KY,KENTUCKY,,HYRF,,,3M,FFWTK0,,,
KEAQ,33.52639,-83.638054,KENNEDY INTRANATI,APT,13,GA,GEORGIA,2GA0,KEAQ,,,3L,DJJ010,,,
YAQF,43.939167,-90.25305,VOLK FLD,MAP,55,WI,WISCONSIN,KVOK,YAQF,,,3W,DMABAA,,,
NEYU,31.888334,-81.56167,WRIGHT AAF MIDCOA,MAP,13,GA,GEORGIA,KLHW,NEYU,,,3L,DMABAA,,,
YNJF,44.566666,-69.65,WATERVILLE,CTY,23,ME,MAINE,,YNJF,,,3G,FFWTK0,,,
HHQL,33.7,-84.416664,FT MCPHERSON,AIN,13,GA,GEORGIA,,HHQL,,,3L,W0ZUFF,,,
GAFH,34.166668,-118.46667,ENCINO,CTY,06,CA,CALIFORNIA,,GAFH,,,3R,FFWTK0,,,
FFSQ,36.783333,-89.95,DEXTER,CTY,29,MO,MISSOURI,,FFSQ,,,3V,W0ZUFF,,,
ETRB,47.116665,-122.566666,CP MURRAY,AIN,53,WA,WASHINGTON,,ETRB,,,3T,W0ZUFF,,,
FBMV,37.738888,-87.16695,OWENSBORO DAVIESS,CAP,21,KY,KENTUCKY,KOWB,FBMV,,,3M,DMABAA,,,
MXDP,29.359444,-100.77805,LAUGHLIN AFB,MAP,48,TX,TEXAS,KDLF,MXDP,,,3P,DMABAA,,,
XXDC,32.35,-90.85,VICKSBURG,CTY,28,MS,MISSISSIPPI,,XXDC,,,3M,FFWTK0,,,
TKVP,32.716667,-117.25,POINT LOMA,MSL,06,CA,CALIFORNIA,,TKVP,,,3R,FFWTK0,,,
JJRP,51.45,0.38333333,GRAVESEND,PRT,GB,UK,UNITED KINGDOM,,JJRP,,,4L,DLAAAA,,,
REPV,26.205278,127.67167,NAHA,PRT,JP,JAPAN,JAPAN,,REPV,,,5H,N00011,,,
EPKA,41.261944,-95.86083,COUNCIL BLUFFS,CTY,19,IA,IOWA,,EPKA,,,3V,FFWTK0,,,
WPVJ,47.25,-122.5,TACOMA,CTY,53,WA,WASHINGTON,,WPVJ,,,3T,FFWTK0,,,
NNLX,41.783333,-111.85,LOGAN,CTY,49,UT,UTAH,,NNLX,,,3Q,FFWTK0,,,
RRHU,40.716667,-74.03333,NEW YORK,PRT,36,NY,NEW YORK,,RRHU,,,3H,N00011,,,
NRTX,33.79,-118.05139,LOS ALAMITOS AAF,MAP,06,CA,CALIFORNIA,KSLI,NRTX,,,3R,DMABAA,,,
RRHQ,40.583332,-73.88333,NEW YORK,NYI,36,NY,NEW YORK,,RRHQ,,,3H,N00011,,,
TCEF,25.6,-80.35,PERRINE,CTY,12,FL,FLORIDA,,TCEF,,,3L,FFWTK0,,,
YRTK,-41.366665,174.85,WELLINGTON,PRT,NZ,NWZEA,NEW ZEALAND,,YRTK,,,5V,DLAAAA,,,
JWJY,32.8,35.033333,HAIFA,PRT,IL,ISRAL,ISRAEL,,JWJY,,,4W,DLAAAA,,,
QBLU,32.75,-96.666664,MESQUITE,CTY,48,TX,TEXAS,,QBLU,,,3P,W0ZUFF,,,
WPVT,47.266666,-122.5,TACOMA,PRT,53,WA,WASHINGTON,,WPVT,,,3T,N00011,,,
TPAL,33.939724,8.101111,NEFTA,IAP,TN,TUNSA,TUNISIA,DTTZ,TPAL,,,7S,DMABAA,,,
ALRF,51.266666,4.3333335,ANTWERP,PRT,BE,BELG,BELGIUM,,ALRF,,,4K,DLAAAA,,,
KZPH,22.233334,114.13333,HONG KONG ABERDEE,PRT,HK,HONGK,HONG KONG,,KZPH,,,5C,DLAAAA,,,
UWLL,35.683334,-105.95,SANTA FE,CTY,35,NM,NEW MEXICO,,UWLL,,,3P,FFWTK0,,,
ETVL,33.316666,-117.38333,CP PENDLETON NAVY,HSP,06,CA,CALIFORNIA,,ETVL,,,3R,FFWTK0,,,
TKXB,34.116665,-119.11667,POINT MUGU,NYI,06,CA,CALIFORNIA,,TKXB,,,3R,FFWTK0,,,
ETVM,37.730556,-121.90139,CP PARKS,AIN,06,CA,CALIFORNIA,,ETVM,,,3S,W0ZUFF,,,
KEFP,38.92361,-75.57806,HARRINGTON,CTY,10,DE,DELAWARE,,KEFP,,,3J,W0ZUFF,,,
TKXA,34.120277,-119.120834,POINT MUGU NAS,MAP,06,CA,CALIFORNIA,KNTD,TKXA,,,3R,DMABAA,,,
TPAR,39.04028,-95.67667,TOPEKA,STG,20,KS,KANSAS,,TPAR,,,3V,FFWTK0,,,
CRWU,39.701668,-104.75166,BUCKLEY AFB,MAP,08,CO,COLORADO,KBKF,CRWU,,,3Q,DMABAA,,,
USDV,40.75,-111.85,SALT LAKE CITY,CTY,49,UT,UTAH,,USDV,,,3Q,FFWTK0,,,
LUCN,38.2775,-85.73722,JEFFERSONVILLE,CTY,18,IN,INDIANA,,LUCN,,,3W,FFWTK0,,,
ZMJJ,22.6,114.26667,YANTIAN PORT FAC,PRT,CN,CHINA,CHINA,,ZMJJ,,,58,DLAAAA,,,
USEB,40.788334,-111.977776,SALT LAKE CITY IN,JAP,49,UT,UTAH,KSLC,USEB,,,3Q,DMABAA,,,
FBNV,32.16639,-110.88306,DAVIS MONTHAN AFB,MAP,04,AZ,ARIZONA,KDMA,FBNV,,,3R,DMABAA,,,
CWBG,44.233334,-85.36667,CADILLAC,CTY,26,MI,MICHIGAN,,CWBG,,,3W,FFWTK0,,,
RRJJ,40.816666,-73.9,NEW YORK,CTY,36,NY,NEW YORK,,RRJJ,,,3H,FFWTK0,,,
GEQZ,31.395,-92.29583,ESLER RGNL,CAP,22,LA,LOUISIANA,KESF,GEQZ,,,3N,DMABAA,,,
FSPM,34.918056,-117.879166,EDWARDS AFB,MAP,06,CA,CALIFORNIA,KEDW,FSPM,,,3R,DMABAA,,,
XGBX,39.019722,-80.763336,TROY,CTY,54,WV,WEST VIRGINIA,,XGBX,,,3J,FFWTK0,,,
ZDXA,44.416668,-89.833336,WISCONSIN RAPIDS,CTY,55,WI,WISCONSIN,,ZDXA,,,3W,FFWTK0,,,
CNRA,30.146944,-91.96139,BROUSSARD,CTY,22,LA,LOUISIANA,,CNRA,,,3N,FFWTK0,,,
CWCE,40.3,-81,CADIZ,CTY,39,OH,OHIO,,CWCE,,,3W,W0ZUFF,,,
VZQN,36.35,-104.61667,SPRINGER,CTY,35,NM,NEW MEXICO,,VZQN,,,3P,W0ZUFF,,,
NRZE,34.22111,-118.47639,LOS ANGELES Z12,CTY,06,CA,CALIFORNIA,,NRZE,,,3R,DKAACA,,,
GAMH,31.3275,-92.548615,ALEXANDRIA INTL,MAP,22,LA,LOUISIANA,KAEX,GAMH,,,3N,DMABAA,,,
EYBD,14.794444,120.271385,SUBIC BAY INTL,MAP,PH,PHILI,PHILIPPINES,RPLB,EYBD,,,5C,DMABAA,,,
XGFG,43.14,-89.3375,DANE CO RGNL,JAP,55,WI,WISCONSIN,KMSN,XGFG,,,3W,DMABAA,,,
YWBX,43.116665,-87.9,WHITEFISH BAY,CTY,55,WI,WISCONSIN,,YWBX,,,3W,FFWTK0,,,
USGB,34,-81.8,SALUDA,CTY,45,SC,SOUTH CAROLINA,,USGB,,,3L,FFWTK0,,,
HMAZ,32.75,-97.3,FT WORTH,CTY,48,TX,TEXAS,,HMAZ,,,3P,FFWTK0,,,
FBPW,32.166668,-110.88333,DAVIS MONTHAN,RRL,04,AZ,ARIZONA,,FBPW,,,3R,FFWTK0,,,
LYLC,39.114166,-94.62722,KANSAS CITY,CTY,20,KS,KANSAS,,LYLC,,,3V,FFWTK0,,,
CJJY,38.783333,-90.46667,BRIDGETON,CTY,29,MO,MISSOURI,,CJJY,,,3V,FFWTK0,,,
HUPR,44.416668,8.833333,GENOVA,PRT,IT,ITALY,ITALY,,HUPR,,,4P,DLAAAA,,,
WYKZ,35.666668,139.75,TOKYO,PRT,JP,JAPAN,JAPAN,,WYKZ,,,5H,DLAAAA,,,
CWCP,36.383335,-6.284167,CADIZ,PRT,ES,SPAIN,SPAIN,,CWCP,,,4N,DLAAAA,,,
QWZM,39.8,-80.71667,MOUNDSVILLE,CTY,54,WV,WEST VIRGINIA,,QWZM,,,3J,W0ZUFF,,,
SYZZ,21.333334,-157.96666,PEARL HARBOR NAD,PRT,15,HI,HAWAII,,SYZZ,,,5N,N00011,,,
SHYQ,40.193054,-76.7625,HARRISBURG INTL,JAP,42,PA,PENNSYLVANIA,KMDT,SHYQ,,,3J,DMABAA,,,
KZTR,21.316668,-157.95,HONOLULU,CTY,15,HI,HAWAII,,KZTR,,,5N,FFWTK0,,,
KZTV,21.31611,-157.92667,HONOLULU INTL,JAP,15,HI,HAWAII,PHNL,KZTV,,,5N,DMABAA,,,
KZTZ,21.333334,-157.95,HONOLULU,PRT,15,HI,HAWAII,,KZTZ,,,5N,N00011,,,
LYNH,39.033333,-94.71667,KANSAS CITY,CTY,29,MO,MISSOURI,,LYNH,,,3V,FFWTK0,,,
HMBA,32.75,-97.333336,FT WORTH,NAV,48,TX,TEXAS,,HMBA,,,3P,FFWTK0,,,
SYYT,21.4,-157.96666,PEARL CITY,CTY,15,HI,HAWAII,,SYYT,,,5N,FFWTK0,,,
LLTY,27.85,-97.23333,INGLESIDE,PRT,48,TX,TEXAS,,LLTY,,,3P,N00011,,,
SYZB,21.383333,-157.95,PEARL HARBOR SHYD,NYI,15,HI,HAWAII,,SYZB,,,5N,DJ5000,,,
LYNK,39.279446,-94.59111,KANSAS CITY,NAV,29,MO,MISSOURI,,LYNK,,,3V,FFWTK0,,,
TCKF,41.55,-83.65,PERRYSBURG,CTY,39,OH,OHIO,,TCKF,,,3W,FFWTK0,,,
LYNM,39.2975,-94.71389,KANSAS CITY INTL,IAP,29,MO,MISSOURI,KMCI,LYNM,,,3V,DMABAA,,,
SYZJ,21.366667,-158,PEARL HARBOR  NST,NYI,15,HI,HAWAII,,SYZJ,,,5N,DJ5000,,,
LYNS,39.083332,-94.60139,KANSAS CTY REC CT,AIN,29,MO,MISSOURI,,LYNS,,,3V,W0ZUFF,,,
HHYL,40.3,-74.05,FT MONMOUTH,AIN,34,NJ,NEW JERSEY,,HHYL,,,3H,W0ZUFF,,,
HMBP,32.788887,-97.36389,FT WORTH,STG,48,TX,TEXAS,,HMBP,,,3P,1A1AAA,,,
ETZB,33.316666,-117.38333,CP PENDLETON,MGI,06,CA,CALIFORNIA,,ETZB,,,3R,M54000,,,
ETZC,33.316666,-117.38333,CP PENDLETON,STG,06,CA,CALIFORNIA,,ETZC,,,3R,N00011,,,
SYZP,21.316668,-158,PEARL HARBOR  NSC,NYI,15,HI,HAWAII,,SYZP,,,5N,DJ5000,,,
PHAG,39.9,-75.23333,PHILADELPHIA,FHG,42,PA,PENNSYLVANIA,,PHAG,,,3J,W0ZUFF,,,
SYZN,21.366667,-158,JBPH-H PEARL HARB,NBA,15,HI,HAWAII,,SYZN,,,5N,N00011,,,
VRES,40.133335,-120.11667,SIERRA DEPOT,AIN,06,CA,CALIFORNIA,,VRES,,,3S,W0ZUFF,,,
WYPX,41.65,-83.53333,TOLEDO,PRT,39,OH,OHIO,,WYPX,,,3W,FFWTK0,,,
ADHB,41.083332,-81.5,AKRON,CTY,39,OH,OHIO,,ADHB,,,3W,FFWTK0,,,
LLXC,27.869167,-97.20194,INGLESIDE,CTY,48,TX,TEXAS,,LLXC,,,3P,FFWTK0,,,
PCZT,33.9,-117.25,MARCH,RTC,06,CA,CALIFORNIA,,PCZT,,,3R,FFWTK0,,,
VZUR,39.833332,-89.666664,SPRINGFIELD,CTY,17,IL,ILLINOIS,,VZUR,,,3W,FFWTK0,,,
KZVP,31.13861,-97.71445,HOOD AAF,MAP,48,TX,TEXAS,KHLR,KZVP,,,3P,DMABAA,,,
PCZP,33.880833,-117.259445,MARCH ARB,MAP,06,CA,CALIFORNIA,KRIV,PCZP,,,3R,FFWTK0,,,
NJNF,36.916668,-76.166664,LITTLE CREEK AMPH,PRT,51,VA,VIRGINIA,,NJNF,,,3K,N00011,,,
GRRY,39.733334,-104.833336,FITZSIMONS GENRL,HSP,08,CO,COLORADO,,GRRY,,,3Q,FFWTK0,,,
KEMJ,40.266666,-76.833336,HARRISBURG,CTY,42,PA,PENNSYLVANIA,,KEMJ,,,3J,FFWTK0,,,
NJNK,36.916668,-76.175,LITTLE CREEK,NYI,51,VA,VIRGINIA,,NJNK,,,3K,N00011,,,
RRRK,40.666668,-73.96667,NEW YORK PORT EMB,ADM,36,NY,NEW YORK,,RRRK,,,3H,W0ZUFF,,,
JWTD,33.6,130.4,HAKATA,PRT,JP,JAPAN,JAPAN,,JWTD,,,5H,DLAAAA,,,
HQLH,29.3,-94.8,GALVESTON,CTY,48,TX,TEXAS,,HQLH,,,3P,FFWTK0,,,
XTBT,34.20972,-118.49,VAN NUYS,JAP,06,CA,CALIFORNIA,KVNY,XTBT,,,3R,DMABAA,,,
RRPQ,40.6925,-74.16861,NEWARK LIBERTY IN,IAP,34,NJ,NEW JERSEY,KEWR,RRPQ,,,3H,DMABAA,,,
HQLL,29.283333,-94.8,GALVESTON,PRT,48,TX,TEXAS,,HQLL,,,3P,N00011,,,
WDEY,44.95,-93.083336,ST PAUL,CTY,27,MN,MINNESOTA,,WDEY,,,3W,FFWTK0,,,
PPSB,30.391388,-81.424446,MAYPORT NS,MAP,12,FL,FLORIDA,KNRB,PPSB,,,3L,DMABAA,,,
LHNZ,40.63972,-73.77889,JOHN F KENNEDY IN,CAP,36,NY,NEW YORK,KJFK,LHNZ,,,3H,DMABAA,,,
PPSH,30.4,-81.433334,MAYPORT NAVAL ST,PRT,12,FL,FLORIDA,,PPSH,,,3L,DJ2000,,,
UBHP,34.67861,-86.68472,REDSTONE AAF,MAP,01,AL,ALABAMA,KHUA,UBHP,,,3M,DMABAA,,,
PPSC,30.4,-81.433334,MAYPORT,NYI,12,FL,FLORIDA,,PPSC,,,3L,N00011,,,
HUUA,34.5975,-117.38306,SOUTHERN CALIFORN,MAP,06,CA,CALIFORNIA,KVCV,HUUA,,,3R,DMABAA,,,
CWGV,8.5,124.65,CAGAYAN DE ORO,PRT,PH,PHILI,PHILIPPINES,,CWGV,,,5C,DLAAAA,,,
RRQL,40.716667,-74.183334,PORT NEWARK,PRT,34,NJ,NEW JERSEY,,RRQL,,,3H,N00011,,,
VVMD,36.933334,-76.28333,SO NORFOLK,CTY,51,VA,VIRGINIA,,VVMD,,,3K,FFWTK0,,,
UBHS,34.616665,-86.666664,REDSTONE ARSENAL,AIN,01,AL,ALABAMA,,UBHS,,,3M,W0ZUFF,,,
YNWK,42.39722,-87.873055,WAUKEGAN,RTC,17,IL,ILLINOIS,,YNWK,,,3W,W0ZUFF,,,
HMGB,25.083334,56.3,FUJAIRAH,PRT,AE,UARAB,UNITED ARAB EMI,,HMGB,,,1S,DLAAAA,,,
NSAB,34.05,-118.28333,LOS ANGELES,CTY,06,CA,CALIFORNIA,,ACJP,,,3R,FFWTK0,,,
AYSX,30.69139,-88.242775,MOBILE RGNL,JAP,01,AL,ALABAMA,KMOB,AYSX,,,3M,DMABAA,,,
UFSC,39.29889,-96.83056,RILEY,CTY,20,KS,KANSAS,,UFSC,,,3V,FFWTK0,,,
BCDZ,40.75,-80.316666,BEAVER FALLS,CTY,42,PA,PENNSYLVANIA,,BCDZ,,,3J,FFWTK0,,,
NSAG,33.9425,-118.40806,LOS ANGELES INTL,JAP,06,CA,CALIFORNIA,KLAX,NSAG,,,3R,DMABAA,,,
BKTZ,36.124443,-86.67834,NASHVILLE INTL,JAP,47,TN,TENNESSEE,KBNA,BKTZ,,,3M,DMABAA,,,
MGMD,39.45,-79.71667,KINGWOOD,CTY,54,WV,WEST VIRGINIA,,MGMD,,,3J,W0ZUFF,,,
CFGM,32.266666,-89.98333,BRANDON,CTY,28,MS,MISSISSIPPI,,CFGM,,,3M,W0ZUFF,,,
NSAN,33.716667,-118.26667,LOS ANGELES,PRT,06,CA,CALIFORNIA,,NSAN,,,3R,N00011,,,
WUKK,33.416668,-94.05,TEXARKANA,CTY,48,TX,TEXAS,,WUKK,,,3P,FFWTK0,,,
AHQM,42.03472,-93.61972,AMES,CTY,19,IA,IOWA,,AHQM,,,3V,FFWTK0,,,
PYGY,34.5,-93.03333,HOT SPGS MEMORIAL,APT,05,AR,ARKANSAS,,PYGY,,,3N,FFWTK0,,,
TGWS,37.933334,23.633333,PARAIEVS,PRT,GR,GREEC,GREECE,,TGWS,,,4Q,DLAAAA,,,
JFSD,47.961113,-97.40111,GRAND FORKS AFB,MAP,38,ND,NORTH DAKOTA,KRDR,JFSD,,,3Q,DMABAA,,,
LYRW,21.35,-157.86667,KAPALAMA,AIN,15,HI,HAWAII,,LYRW,,,5N,DJ5000,,,
MTET,40.1225,-76.29444,LANCASTER,CAP,42,PA,PENNSYLVANIA,KLNS,MTET,,,3J,DMABAA,,,
LYRV,22.6,120.36667,KAOHSIUNG TSOYING,NYI,TW,TAIWN,TAIWAN,,LYRV,,,5C,N00011,,,
MTEU,40.033333,-76.316666,LANCASTER,CTY,42,PA,PENNSYLVANIA,,MTEU,,,3J,FFWTK0,,,
YWHG,38.730278,-93.547775,WHITEMAN AFB,MAP,29,MO,MISSOURI,KSZL,YWHG,,,3V,DMABAA,,,
KAFF,30.516666,-90.416664,HAMMOND,COM,22,LA,LOUISIANA,,KAFF,,,3N,FFWTK0,,,
NNWH,6.1666665,1.25,LOME,PRT,TG,TOGO,TOGO,,NNWH,,,7A,DLAAAA,,,
VZWF,42.1,-72.566666,SPRINGFIELD ARMRY,CTY,25,MA,MASSACHUSETTS,,VZWF,,,3G,W0ZUFF,,,
FXBM,44.145,-103.103615,ELLSWORTH AFB,MAP,46,SD,SOUTH DAKOTA,KRCA,FXBM,,,3Q,DMABAA,,,
TLAC,38.833332,-82.13333,POINT PLEASANT,CTY,54,WV,WEST VIRGINIA,,TLAC,,,3J,W0ZUFF,,,
CWKR,34.666668,-77.333336,CP LEJEUNE,STG,37,NC,NORTH CAROLINA,,CWKR,,,3L,N00011,,,
BTHP,37.083332,-77.95,BLACKSTONE,CTY,51,VA,VIRGINIA,,BTHP,,,3K,FFWTK0,,,
AQEN,34.8,-86.96667,ATHENS,AIN,01,AL,ALABAMA,,AQEN,,,3M,W0ZUFF,,,
YJQA,41.116665,-83.1,WALBRIDGE,CTY,39,OH,OHIO,,YJQA,,,3W,W0ZUFF,,,
YJQF,38.966667,-77.03333,WALTER REED AMC,HSP,11,DC,DI OF COLUMBIA,,YJQF,,,3K,FFWTK0,,,
VVRK,43.683334,-70.3,SO PORTLAND,AGS,23,ME,MAINE,,VVRK,,,3G,FFWTK0,,,
EUBC,41.533333,-83.025,CP PERRY,AGS,39,OH,OHIO,,EUBC,,,3W,FFWTK0,,,
GJFV,64.85,-147.71666,FAIRBANKS,CTY,02,AK,ALASKA,,GJFV,,,35,FFWTK0,,,
GJFZ,64.815,-147.85638,FAIRBANKS INTL,CAP,02,AK,ALASKA,PAFA,GJFZ,,,35,DMABAA,,,
DVGK,41.216667,-79.38333,CLARION,CTY,42,PA,PENNSYLVANIA,,DVGK,,,3J,FFWTK0,,,
XCFY,39.416668,-76.6,TOWSON,CTY,24,MD,MARYLAND,,XCFY,,,3J,FFWTK0,,,
ADKH,26.2,50.6,AL BAHRAYN MINA S,PRT,BH,BAHRA,BAHRAIN,,ADKH,,,1T,DLAAAA,,,
FGDB,-7.35,72.46667,DIEGO GARCIA EAST,PRT,DG,DIEGO,DIEGO GARCIA,,FGDB,,,5S,DLAAAA,,,
FKJG,39.106388,-75.50222,DOVER,FHG,10,DE,DELAWARE,,FKJG,,,3J,FFWTK0,,,
GNMJ,41.216667,-80.5,FARRELL,CTY,42,PA,PENNSYLVANIA,,GNMJ,,,3J,W0ZUFF,,,
LYTM,24.783333,66.98333,KARACHI,PRT,PK,PAKIS,PAKISTAN,,LYTM,,,1Y,DLAAAA,,,
VZYD,37.183334,-93.316666,SPRINGFIELD,CTY,29,MO,MISSOURI,,VZYD,,,3V,FFWTK0,,,
GATE,41.94278,-74.00611,KINGSTON G1,RTC,36,NY,NEW YORK,,GATE,,,3H,W0ZUFF,,,
VZXY,37.245556,-93.38861,SPRINGFIELD BRANS,CAP,29,MO,MISSOURI,KSGF,VZXY,,,3V,DMABAA,,,
ADLS,35.5,11.05,AL MAHDIYAH,PRT,TN,TUNSA,TUNISIA,,ADLS,,,7S,DLAAAA,,,
QKJA,32.868332,-117.14167,MIRAMAR MCAS,MAP,06,CA,CALIFORNIA,KNKX,QKJA,,,3R,DMABAA,,,
WYTD,41.586945,-83.80778,TOLEDO EXPRESS,JAP,39,OH,OHIO,KTOL,WYTD,,,3W,DMABAA,,,
AQEZ,33.95,-83.4,ATHENS,CTY,13,GA,GEORGIA,,AQEZ,,,3L,FFWTK0,,,
AHTM,40.666668,-73.36667,AMITYVILLE,CTY,36,NY,NEW YORK,,AHTM,,,3H,FFWTK0,,,
CWKW,30.116388,30.915556,CAIRO WEST,AFD,EG,EGYPT,EGYPT,HECW,CWKW,,,1W,DMABAA,,,
PYKG,35.131668,-89.976944,MEMPHIS,NYI,47,TN,TENNESSEE,,PYKG,,,3M,N00072,,,
ADNG,37.776943,-122.27,ALAMEDA,ADM,06,CA,CALIFORNIA,,ADNG,,,3S,1A1AAA,,,
ADNE,37.783333,-121.48333,ALAMEDA,NYI,06,CA,CALIFORNIA,,ADNE,,,3S,N00011,,,
PYKC,35.083332,-90,MEMPHIS,STG,47,TN,TENNESSEE,,PYKC,,,3M,1A1AAA,,,
ADNF,37.790554,-122.32445,ALAMEDA NAS,AMO,06,CA,CALIFORNIA,,ADNF,,,3S,N00011,,,
PYKB,35.133335,-90.05,MEMPHIS,RTC,47,TN,TENNESSEE,,PYKB,,,3M,FFWTK0,,,
ADNC,37.783333,-121.48333,ALAMEDA,MFC,06,CA,CALIFORNIA,,ADNC,,,3S,FFWTK0,,,
PYKE,35.116665,-90.083336,MEMPHIS,CTY,47,TN,TENNESSEE,,PYKB,,,3M,FFWTK0,,,
ADND,37.790554,-122.325554,ALAMEDA NAS,MAP,06,CA,CALIFORNIA,,ADND,,,3S,DMABAA,,,
CSEM,38.2,-85.63333,BUECHEL,CTY,21,KY,KENTUCKY,,CSEM,,,3M,W0ZUFF,,,
GWAW,37.741665,-92.14083,WAYNESVILLE ST RO,MAP,29,MO,MISSOURI,KTBN,GWAW,,,3V,DMABAA,,,
ADNA,39.70861,-105.013336,ALAMEDA,CTY,08,CO,COLORADO,,ADNA,,,3Q,FFWTK0,,,
ADNB,37.733334,-122.23333,ALAMEDA,CTY,06,CA,CALIFORNIA,,ADNB,,,3S,FFWTK0,,,
DEFW,37.166668,-94.333336,CARTHAGE,CTY,29,MO,MISSOURI,,DEFW,,,3V,FFWTK0,,,
EUDB,37.05,-77.933334,FT PICKETT,AIN,51,VA,VIRGINIA,,EUDB,,,3K,W0ZUFF,,,
BXRM,43.633335,-116.166664,BOISE,CTY,16,ID,IDAHO,,BXRM,,,3T,FFWTK0,,,
PYKL,35.0425,-89.97667,MEMPHIS INTL,JAP,47,TN,TENNESSEE,KMEM,PYKL,,,3M,DMABAA,,,
SZDT,43.078056,-70.82333,PORTSMOUTH INTL A,MAP,33,NH,NEW HAMPSHIRE,KPSM,SZDT,,,3G,DMABAA,,,
YFKW,21.5,-158.05,WAHIAWA,CTY,15,HI,HAWAII,,YFKW,,,5N,W0ZUFF,,,
PUCT,40.343887,-79.83222,MCKEESPORT,NYI,42,PA,PENNSYLVANIA,,PUCT,,,3J,N00072,,,
BXRH,43.564445,-116.22278,BOISE AIR TERMINA,JAP,16,ID,IDAHO,KBOI,BXRH,,,3T,DMABAA,,,
PYKS,35.35,-89.86667,MEMPHIS,NYI,47,TN,TENNESSEE,,PYKS,,,3M,N00011,,,
MPBP,31.980833,-106.59,LA TUNA,CTY,48,TX,TEXAS,,MPBP,,,3P,DKAAAA,,,
RJHC,38.866665,-77.066666,NAVY YARD,NYI,11,DC,DI OF COLUMBIA,,RJHC,,,3K,W0ZUFF,,,
USQP,29.53389,-98.46917,SAN ANTONIO INTL,CAP,48,TX,TEXAS,KSAT,USQP,,,3P,DMABAA,,,
USQL,29.466667,-98.51667,SAN ANTONIO,CTY,48,TX,TEXAS,,USQL,,,3P,FFWTK0,,,
FGDC,-7.3133335,72.41111,DIEGO GARCIA NSF,MAP,DG,DIEGO,DIEGO GARCIA,FJDG,FGDC,,,5S,DMABAA,,,
LUNH,40.733334,-74.066666,JERSEY CITY,CTY,34,NJ,NEW JERSEY,,LUNH,,,3H,FFWTK0,,,
FGDD,-7.2555556,72.405556,DIEGO GARCIA,PRT,DG,DIEGO,DIEGO GARCIA,,FGDD,,,5S,N00011,,,
FKLJ,40.883335,-74.566666,DOVER,CTY,34,NJ,NEW JERSEY,,FKLJ,,,3H,FFWTK0,,,
FKLK,40.883335,-74.55,DOVER,STG,34,NJ,NEW JERSEY,,FKLK,,,3H,1A1AAA,,,
VRJT,37.40167,14.922222,SIGONELLA,IAP,IT,ITALY,ITALY,LICZ,VRJT,,,4P,DMABAA,,,
KERD,36.266666,-93.15,HARRISON,AIN,05,AR,ARKANSAS,,KERD,,,3N,W0ZUFF,,,
PYJX,35.05,-89.96667,MEMPHIS       ANG,ANX,47,TN,TENNESSEE,,PYKL,,,3M,FFWTK0,,,
UBNS,33.59028,-102.03667,REESE AIRPARK,APT,48,TX,TEXAS,8XS8,UBNS,,,3P,FFWTK0,,,
PYJT,35.116665,-90.066666,MEMPHIS DEPOT,AIN,47,TN,TENNESSEE,,PYJT,,,3M,W0ZUFF,,,
ADNR,37.783333,-122.316666,ALAMEDA        BA,STG,06,CA,CALIFORNIA,,ADNR,,,3S,N00011,,,
MXRD,42.47,-71.28889,LAURENCE G HANSCO,CAP,25,MA,MASSACHUSETTS,KBED,MXRD,,,3G,DMABAA,,,
WUND,29.383333,-94.916664,TEXAS CITY,PRT,48,TX,TEXAS,,WUND,,,3P,N00011,,,
ADNK,37.783333,-122.26667,ALAMEDA PT MARAD,PRT,06,CA,CALIFORNIA,,ADNK,,,3S,N00011,,,
PUBW,32.68833,9.879444,OUED SIAH,APT,TN,TUNSA,TUNISIA,,PUBW,,,7S,DMABAA,,,
AHXM,38.866665,-76.98333,ANACOSTIA,NYI,11,DC,DI OF COLUMBIA,,AHXM,,,3K,N00011,,,
TTWZ,41.816666,-71.4,PROVIDENCE,PRT,44,RI,RHODE ISLAND,,TTWZ,,,3G,N00011,,,
WYYD,44,-90.566666,TOMAH,CTY,55,WI,WISCONSIN,,WYYD,,,3W,FFWTK0,,,
AYYY,30.45,-91.1,BATON ROUGE,PRT,22,LA,LOUISIANA,,AYYY,,,3N,N00011,,,
JSSN,13.580556,144.92778,GUAM PORT,RRL,GU,GUAM,GUAM,,JSSN,,,5G,FFWTK0,,,
TTWX,41.833332,-71.416664,PROVIDENCE,CTY,44,RI,RHODE ISLAND,,TTWX,,,3G,FFWTK0,,,
AYYX,30.416666,-91.05,BATON ROUGE,CTY,22,LA,LOUISIANA,,AYYX,,,3N,FFWTK0,,,
EUFG,44.1,-103.23333,CP RAPID,AIN,46,SD,SOUTH DAKOTA,,EUFG,,,3Q,W0ZUFF,,,
GWDD,30.353333,-87.318054,PENSACOLA NAS,MAP,12,FL,FLORIDA,KNPA,GWDD,,,3L,DMABAA,,,
ZRBF,32.656387,-114.605,YUMA MCAS,AMO,04,AZ,ARIZONA,,ZRBF,,,3R,N00011,,,
EUFM,46.116665,-123.96667,CP RILEA,AIN,41,OR,OREGON,,EUFM,,,3T,W0ZUFF,,,
EUFN,44.066666,-96.76667,CP RIPLEY,AIN,27,MN,MINNESOTA,,EUFN,,,3W,W0ZUFF,,,
TPPR,31.25,32.3,PORT SAID,PRT,EG,EGYPT,EGYPT,,TPPR,,,1W,DLAAAA,,,
XTLF,36.33917,-97.91639,VANCE AFB,MAP,40,OK,OKLAHOMA,KEND,XTLF,,,3P,DMABAA,,,
AHWQ,48.516666,-122.61667,ANACORTES,PRT,53,WA,WASHINGTON,,AHWQ,,,3T,N00011,,,
CBEF,47.766666,-122.2,BOTHELL,CTY,53,WA,WASHINGTON,,CBEF,,,3T,FFWTK0,,,
CSHW,42.866665,-78.86667,BUFFALO,ADM,36,NY,NEW YORK,,CSHW,,,3H,1A1AAA,,,
ADQM,32.84139,-105.98889,ALAMOGORDO WHITE,CAP,35,NM,NEW MEXICO,KALM,ADQM,,,3P,DMABAA,,,
UKAP,39.1,-77.166664,ROCKVILLE,CTY,24,MD,MARYLAND,,UKAP,,,3J,FFWTK0,,,
USQX,29.418888,-98.48361,SAN ANTONIO,RRL,48,TX,TEXAS,,USQX,,,3P,FFWTK0,,,
FKNN,44.8075,-68.82806,BANGOR INTL,JAP,23,ME,MAINE,KBGR,FKNN,,,3G,DMABAA,,,
AYZZ,42.316666,-85.183334,BATTLE CREEK,CTY,26,MI,MICHIGAN,,AYZZ,,,3W,FFWTK0,,,
BXUR,38.842777,-77.01611,BOLLING AFB HELI,MHP,11,DC,DI OF COLUMBIA,,BXUR,,,3K,FFWTK0,,,
NBDY,43.566666,10.3,LIVORNO,PRT,IT,ITALY,ITALY,,NBDY,,,4P,DLAAAA,,,
XKZB,34.216667,-116.03333,TWENTY NINE PALMS,STG,06,CA,CALIFORNIA,,XKZB,,,3R,1A1AAA,,,
XKZA,34.116665,-116.03333,TWENTYNINE PALMS,CTY,06,CA,CALIFORNIA,,XKZA,,,3R,FFWTK0,,,
MPCP,32.354168,-86.34805,MONTGOMERY,AGS,01,AL,ALABAMA,,MPCP,,,3M,FFWTK0,,,
ZABF,37.25,-76.666664,WILLIAMSBURG,NYI,51,VA,VIRGINIA,,ZABF,,,3K,N00011,,,
AMCQ,13.45,144.61667,APRA HARBOR,PRT,GU,GUAM,GUAM,,AMCQ,,,5G,N00011,,,
EHNP,40.016666,-79.583336,CONNELLSVILLE,CTY,42,PA,PENNSYLVANIA,,EHNP,,,3J,FFWTK0,,,
UKDP,35.933334,-77.8,ROCKY MOUNT,CTY,37,NC,NORTH CAROLINA,,UKDP,,,3L,FFWTK0,,,
EUHB,35.832222,-120.743614,CP ROBERTS,AIN,06,CA,CALIFORNIA,,EUHB,,,3R,W0ZUFF,,,
AMCG,44.25,-88.416664,APPLETON,CTY,55,WI,WISCONSIN,,AMCG,,,3W,FFWTK0,,,
ZABA,37.25,-76.666664,WILLIAMSBURG,CTY,51,VA,VIRGINIA,,ZABA,,,3K,FFWTK0,,,
USUL,37.616665,-122.4,SAN BRUNO,RTC,06,CA,CALIFORNIA,,USUL,,,3R,FFWTK0,,,
USUJ,37.616665,-122.4,SAN BRUNO,CTY,06,CA,CALIFORNIA,,USUJ,,,3R,W0ZUFF,,,
AUSJ,35.416668,-119,BAKERSFIELD,CTY,06,CA,CALIFORNIA,,AUSJ,,,3R,FFWTK0,,,
NBHN,41.166668,-75.833336,LEHIGH VALLEY,RTC,42,PA,PENNSYLVANIA,,NBHN,,,3J,N00011,,,
NBHO,40.666668,-75.46667,LEHIGH VALLEY,NYI,42,PA,PENNSYLVANIA,,NBHO,,,3J,N00072,,,
AQLZ,33.75,-84.36667,ATLANTA,ADM,13,GA,GEORGIA,,AQLZ,,,3L,FFWTK0,,,
AQLV,33.75,-84.7,ATLANTA,CTY,13,GA,GEORGIA,,AQLV,,,3L,FFWTK0,,,
AQLW,33.5,-84.46667,ATLANTA,NAV,13,GA,GEORGIA,,AQLW,,,3L,FFWTK0,,,
USTE,34.116665,-117.316666,SAN BERNARDINO,CTY,06,CA,CALIFORNIA,,USTE,,,3R,FFWTK0,,,
AQLM,33.636665,-84.42778,HARTSFIELD JACKSO,CAP,13,GA,GEORGIA,KATL,AQLM,,,3L,DMABAA,,,
ZRCE,32.656387,-114.605,YUMA INTL,CAP,04,AZ,ARIZONA,,ZRCE,,,3R,DMABAA,,,
DVLK,15.186111,120.56028,DIOSDADO MACAPAGA,APT,PH,PHILI,PHILIPPINES,RPLC,DVLK,,,5C,FFWTK0,,,
USTK,34.116665,-117.3,SAN BERNARDINO,STG,06,CA,CALIFORNIA,,USTK,,,3R,FFWTK0,,,
CSJF,45.166668,-93.833336,BUFFALO,CTY,27,MN,MINNESOTA,,CSJF,,,3W,W0ZUFF,,,
GJKZ,47.615,-117.65583,FAIRCHILD AFB,MAP,53,WA,WASHINGTON,KSKA,GJKZ,,,3T,DMABAA,,,
BCMV,37.733334,-81.28333,BECKLEY,CTY,54,WV,WEST VIRGINIA,,BCMV,,,3J,W0ZUFF,,,
PHMS,39.052776,-96.76444,MARSHALL AAF,MAP,20,KS,KANSAS,KFRI,PHMS,,,3V,DMABAA,,,
AMES,8.394167,-65.87222,ARACAY ABAJO,AFD,VE,VENEZ,VENEZUELA,,AMES,,,6B,DMABAA,,,
SEA1,34.283333,10.5,TUNISIASEABASE,PRT,TN,TUNSA,TUNISIA,,SEA1,,,,,,,
AQMV,33.583332,-84.35,FT GILLEM,AIN,13,GA,GEORGIA,,AQMV,,,3L,W0ZUFF,,,
CSKQ,42.883335,-78.88333,BUFFALO,CTY,36,NY,NEW YORK,,CSKQ,,,3H,FFWTK0,,,
NBJC,40.383335,-111.88333,LEHI,CTY,49,UT,UTAH,,NBJC,,,3Q,W0ZUFF,,,
PLXL,38.55528,-121.297226,SACRAMENTO MATHER,MAP,06,CA,CALIFORNIA,KMHR,PLXL,,,3S,DMABAA,,,
FTEP,30.648611,-86.52194,DUKE FLD,MAP,12,FL,FLORIDA,KEGI,FTEP,,,3L,DMABAA,,,
FTET,30.466667,-86.48333,EGLIN AFB,STG,12,FL,FLORIDA,,FTET,,,3L,1A1AAA,,,
FTEV,30.427778,-86.68916,HURLBURT FLD,MAP,12,FL,FLORIDA,KHRT,FTEV,,,3L,DMABAA,,,
ADUP,31.6,-84.083336,ALBANY        MSC,STG,13,GA,GEORGIA,,ADUP,,,3L,N00011,,,
ADUQ,31.616667,-84.166664,ALBANY,MGI,13,GA,GEORGIA,,ADUQ,,,3L,N00011,,,
TPRZ,27.85,-82.5,PORT TAMPA,PRT,12,FL,FLORIDA,,TPRZ,,,3L,FFWTK0,,,
LUTP,21.5,39.2,JEDDAH,PRT,SA,SAUDI,SAUDI ARABIA,,LUTP,,,1X,DLAAAA,,,
TPRW,3.0166667,101.35,PORT KELANG,PRT,MY,MALAY,MALAYSIA,,TPRW,,,5C,DLAAAA,,,
ADUK,31.616667,-84.166664,ALBANY,CTY,13,GA,GEORGIA,,ADUK,,,3L,FFWTK0,,,
LMDV,42.31889,-83.2675,INKSTER,CTY,26,MI,MICHIGAN,,LMDV,,,3W,W0ZUFF,,,
VVYR,44.983334,-93.13333,S ST PAUL,CTY,27,MN,MINNESOTA,,VVYR,,,3W,W0ZUFF,,,
TPSL,48.116665,-122.75,PORT TOWNSEND,PRT,53,WA,WASHINGTON,,TPSL,,,3T,N00011,,,
VVYX,38.55,-89.933334,ST LOUIS,STG,29,MO,MISSOURI,,VVYX,,,3V,FFWTK0,,,
JBUU,35.460556,-77.965,WAYNE EXECUTIVE J,APT,37,NC,NORTH CAROLINA,KGWW,JBUU,,,3L,DMABAA,,,
WMDB,33.9,-80.36667,SUMTER,CTY,45,SC,SOUTH CAROLINA,,WMDB,,,3L,FFWTK0,,,
KNJD,25.816668,-80.28333,HIALEAH,CTY,12,FL,FLORIDA,,KNJD,,,3L,FFWTK0,,,
ADVM,42.74917,-73.80194,ALBANY INTL,IAP,36,NY,NEW YORK,KALB,ADVM,,,3H,DMABAA,,,
ADVN,31.535555,-84.19444,SOUTHWEST GEORGIA,CAP,13,GA,GEORGIA,KABY,ADVN,,,3L,DMABAA,,,
ADVK,42.666668,-73.8,ALBANY,CTY,36,NY,NEW YORK,,ADVK,,,3H,FFWTK0,,,
EQDF,41.720833,-71.59889,COVENTRY,AGS,44,RI,RHODE ISLAND,,EQDF,,,3G,FFWTK0,,,
LUXC,43.581944,-96.74194,JOE FOSS FLD,JAP,46,SD,SOUTH DAKOTA,KFSD,LUXC,,,3Q,DMABAA,,,
YBKR,43.466667,-88.2,W BEND,CTY,55,WI,WISCONSIN,,YBKR,,,3W,W0ZUFF,,,
GNYJ,35.05,-79.88333,FAYETTEVILLE,COM,37,NC,NORTH CAROLINA,,GNYJ,,,3L,FFWTK0,,,
KNMD,21.31611,-157.92667,JBPH-H HICKAM FLD,MAP,15,HI,HAWAII,PHIK,KNMD,,,5N,FFWTK0,,,
SVDZ,30.166666,-85.666664,PANAMA CITY,CTY,12,FL,FLORIDA,,SVDZ,,,3L,FFWTK0,,,
QKTA,39.02778,-94.655556,MISSION,CTY,20,KS,KANSAS,,QKTA,,,3V,FFWTK0,,,
KRSM,41.12389,-111.97305,HILL AFB,MAP,49,UT,UTAH,KHIF,KRSM,,,3Q,DMABAA,,,
KRSQ,41.106388,-111.980835,HILL AFB,STG,49,UT,UTAH,,KRSQ,,,3Q,1A1AAA,,,
EUKB,34.833332,-92.3,CP ROBINSON,AIN,05,AR,ARKANSAS,,EUKB,,,3N,W0ZUFF,,,
FTFA,30.483334,-86.525276,EGLIN AFB,MAP,12,FL,FLORIDA,KVPS,FTFA,,,3L,DMABAA,,,
SVCN,8.95,-79.53333,PANAMA CITY,PRT,PA,PANMA,PANAMA,,SVCN,,,6A,DLAAAA,,,
QCDH,38.983055,-92.360275,COLUMBIA,RTC,29,MO,MISSOURI,,QCDH,,,3V,W0ZUFF,,,
USXL,33.433334,-117.61667,SAN CLEMENTE,CTY,06,CA,CALIFORNIA,,USXL,,,3R,FFWTK0,,,
TYFR,49.43611,7.606389,RAMSTEIN AB,MAP,DE,GERMA,GERMANY,ETAR,TYFQ,,,4K,DMABAA,,,
VRVB,32.766666,-108.316666,SILVER CITY,CTY,35,NM,NEW MEXICO,,VRVB,,,3P,FFWTK0,,,
PQEK,34.933334,-95.75,MCALESTER     AAP,AMO,40,OK,OKLAHOMA,,PQEK,,,3P,N00011,,,
MLDL,45.55,13.733334,KOPER,PRT,SI,SLOVE,SLOVENIA,,MLDL,,,4U,DLAAAA,,,
LDXF,39.45139,-87.3075,TERRE HAUTE INTL,JAP,18,IN,INDIANA,KHUF,LDXF,,,3W,DMABAA,,,
FPAA,21.365,-157.95972,FORD ISLAND NALF,APT,15,HI,HAWAII,PHNP,FPAA,,,5N,DMABAA,,,
PQEM,34.933334,-95.75,MCALESTER AAP,NYI,40,OK,OKLAHOMA,,PQEM,,,3P,N00011,,,
PQEL,34.933334,-95.75,MCALESTER,CTY,40,OK,OKLAHOMA,,PQEL,,,3P,FFWTK0,,,
MPLS,29.4,-98.6,JBSA LACKLAND AFB,ADM,48,TX,TEXAS,,MPLS,,,3P,FFWTK0,,,
UGCF,46.09111,-94.36056,RAY S MILLER AAF,MAP,27,MN,MINNESOTA,KRYM,UGCF,,,3W,DMABAA,,,
EDME,6.9333334,79.85,COLOMBO,PRT,LK,SRLNK,SRI LANKA,,EDME,,,54,DLAAAA,,,
CWWK,43.65,-116.666664,CALDWELL,CTY,16,ID,IDAHO,,CWWK,,,3T,FFWTK0,,,
LDXZ,35.8,-88.88333,HUMBOLDT,CTY,47,TN,TENNESSEE,,LDXZ,,,3M,W0ZUFF,,,
HEFA,21.283333,-157.85,FT DERUSSY,AIN,15,HI,HAWAII,,HEFA,,,5N,W0ZUFF,,,
FXQZ,61.233334,-149.9,ELMENDORF,CTY,02,AK,ALASKA,,FXQZ,,,35,FFWTK0,,,
NWXN,33.35,10.443611,MADANIYIN,AFD,TN,TUNSA,TUNISIA,DT70,NWXN,,,7S,DMABAA,,,
HEFE,41.583332,-93.583336,FT DES MOINES,AIN,19,IA,IOWA,,HEFE,,,3V,W0ZUFF,,,
XCQN,37.68889,-121.441666,TRACY MUNI,APT,06,CA,CALIFORNIA,KTCY,XCQN,,,3S,DMABAA,,,
KNMK,21.3375,-157.95416,DMA DPO HICKAM,DEP,15,HI,HAWAII,,KNMK,,,5N,DMAAAA,,,
QCEY,25.75,-80.25,MIAMI,CTY,12,FL,FLORIDA,,QCEY,,,3L,FFWTK0,,,
DERM,42.833332,-106.333336,CASPER,CTY,56,WY,WYOMING,,DERM,,,3Q,FFWTK0,,,
HEDM,31.983889,-86.56834,FT DEPOSIT,CTY,01,AL,ALABAMA,,HEDM,,,3M,FFWTK0,,,
QCFA,25.65,-80.183334,MIAMI,NYI,12,FL,FLORIDA,,QCFA,,,3L,N00072,,,
HEDR,31.966667,-86.6,FT DEPOSIT,AIN,01,AL,ALABAMA,,HEDR,,,3M,W0ZUFF,,,
ADYK,35.232777,-98.41111,ALBERT,CTY,40,OK,OKLAHOMA,,ADYK,,,3P,FFWTK0,,,
USZF,32.683334,-117.13333,SAN DIEGO,MGI,06,CA,CALIFORNIA,,USZF,,,3R,M54000,,,
USZE,32.683334,-117.13333,SAN DIEGO,CTY,06,CA,CALIFORNIA,,USZD,,,3R,FFWTK0,,,
XCQM,37.75,-121.433334,TRACY,CTY,06,CA,CALIFORNIA,,XCQM,,,3S,FFWTK0,,,
KJER,38.879166,-99.326385,HAYS,CTY,20,KS,KANSAS,,KJER,,,3V,FFWTK0,,,
USZD,32.716667,-117.083336,SAN DIEGO,COM,06,CA,CALIFORNIA,,USZD,,,3R,FFWTK0,,,
SEDH,48.366665,-122.666664,OAK HARBOR,CTY,53,WA,WASHINGTON,,SEDH,,,3T,FFWTK0,,,
QCFE,25.795279,-80.29,MIAMI INTL,IAP,12,FL,FLORIDA,KMIA,QCFE,,,3L,DMABAA,,,
QCFF,25.783333,-80.183334,MIAMI,PRT,12,FL,FLORIDA,,QCFF,,,3L,N00011,,,
THGC,40.283333,-80.01667,PITTSBURGH,CTY,42,PA,PENNSYLVANIA,,THGC,,,3J,FFWTK0,,,
USZV,32.75,-117.166664,SAN DIEGO,NYI,06,CA,CALIFORNIA,,USZV,,,3R,N00011,,,
ADXV,35.35,-80.35,ALBEMARLE,CTY,37,NC,NORTH CAROLINA,,ADXV,,,3L,W0ZUFF,,,
AQRC,39.36,-74.45611,ATLANTIC CITY MUN,CAP,34,NJ,NEW JERSEY,,AQRC,,,3H,DMABAA,,,
FXSB,61.25139,-149.8064,JB ELMENDORF-RICH,MAP,02,AK,ALASKA,PAED,FXSB,,,35,DMABAA,,,
NKAK,34.918335,-92.14306,LITTLE ROCK AFB,MAP,05,AR,ARKANSAS,KLRF,NKAK,,,3N,DMABAA,,,
YFWT,21.283333,-157.85,WAIKIKI,CTY,15,HI,HAWAII,,YFWT,,,5N,W0ZUFF,,,
NSQM,38.266666,-85.78333,LOUISVILLE,CTY,21,KY,KENTUCKY,,NSQM,,,3M,FFWTK0,,,
NSQN,38.266666,-85.78333,LOUISVILLE,NYI,21,KY,KENTUCKY,,NSQN,,,3M,N00011,,,
THJC,42.45,-73.25,PITTSFIELD,CTY,25,MA,MASSACHUSETTS,,THJC,,,3G,FFWTK0,,,
FXSK,61.25,-149.8,ELMENDORF,POL,02,AK,ALASKA,,FXSK,,,35,FFWTK0,,,
XLEW,45,-93.25,TWIN CITIES,MAP,27,MN,MINNESOTA,,XLEW,,,3W,FFWTK0,,,
PYVR,39.261944,-123.75389,LITTLE RIVER,APT,06,CA,CALIFORNIA,KLLR,PYVR,,,3S,DMABAA,,,
HEFL,39.433334,-77.35,FT DETRICK,AIN,24,MD,MARYLAND,,HEFL,,,3J,W0ZUFF,,,
UGCS,35.75,-89.55,RIPLEY,CTY,47,TN,TENNESSEE,,UGCS,,,3M,W0ZUFF,,,
RSDQ,41.5,-74,NEWBURGH,CTY,36,NY,NEW YORK,,RSDQ,,,3H,FFWTK0,,,
KJGR,37.666668,-122.083336,HAYWARD,CTY,06,CA,CALIFORNIA,,KJGR,,,3S,FFWTK0,,,
KJGW,37.65889,-122.121666,HAYWARD EXECUTIVE,JAP,06,CA,CALIFORNIA,KHWD,KJGW,,,3R,DMABAA,,,
FCHZ,39.75,-84.2,DAYTON,CTY,39,OH,OHIO,,FCHZ,,,3W,FFWTK0,,,
NSQG,38.183334,-84.73333,LOUISVILLE,APT,21,KY,KENTUCKY,,NSQG,,,3M,FFWTK0,,,
DESR,37.380554,-120.56834,CASTLE,APT,06,CA,CALIFORNIA,KMER,DESR,,,3R,DMABAA,,,
EURB,31.158333,-89.316666,CP SHELBY,AIN,28,MS,MISSISSIPPI,,EURB,,,3M,W0ZUFF,,,
RJVF,29.983334,-94,NEDERLAND,AGS,48,TX,TEXAS,,RJVF,,,3P,FFWTK0,,,
SMYU,37.090557,127.029724,OSAN AB,MAP,KR,SKORE,"KOREA, REP OF",RKSO,SMYU,,,5H,DMABAA,,,
JGGZ,39.06389,-108.55,GRAND JUNCTION,CTY,08,CO,COLORADO,,JGGZ,,,3Q,FFWTK0,,,
HAAZ,30.498056,-86.13611,FREEPORT,CTY,12,FL,FLORIDA,,HAAZ,,,3L,FFWTK0,,,
TYMX,29.528889,-98.27805,JBSA RANDOLPH AFB,MAP,48,TX,TEXAS,KRND,TYMX,,,3P,DMABAA,,,
FCLF,29.233334,-81.05,DAYTONA BEACH,CTY,12,FL,FLORIDA,,FCLF,,,3L,FFWTK0,,,
VWCR,42.133335,-70.933334,SO WEYMOUTH,NYI,25,MA,MASSACHUSETTS,,VWCR,,,3G,N00011,,,
HEHL,42.533333,-71.566666,FT DEVENS,AIN,25,MA,MASSACHUSETTS,,HEHL,,,3G,W0ZUFF,,,
XLFR,34.116665,-116.03333,TWENTYNINE PALMS,MGI,06,CA,CALIFORNIA,,XLFR,,,3R,M54000,,,
SEHB,36.033333,-84.2,OAK RIDGE,CTY,47,TN,TENNESSEE,,SEHB,,,3M,FFWTK0,,,
TLSH,34.05,-117.75,POMONA,CTY,06,CA,CALIFORNIA,,TLSH,,,3R,FFWTK0,,,
YFXQ,64.8375,-147.61444,LADD AAF,JAP,02,AK,ALASKA,PAFB,YFXQ,,,35,DMABAA,,,
SMXS,34.6475,135.4289,OSAKA,PRT,JP,JAPAN,JAPAN,,SMXS,,,5H,DLAAAA,,,
NKBV,34.683334,-92.25,LITTLE ROCK,CTY,05,AR,ARKANSAS,,NKBV,,,3N,FFWTK0,,,
FCKD,39.75,-84.166664,DAYTON DESC,DEP,39,OH,OHIO,,FCKD,,,3W,W0ZUFF,,,
SABZ,32.71528,-117.17194,SAN DIEGO 02,CTY,06,CA,CALIFORNIA,,USZE,,,3R,DJJ010,,,
HEKQ,40.033333,-74.63333,FT DIX,COM,34,NJ,NEW JERSEY,,HEKQ,,,3H,FFWTK0,,,
HEKP,40.016666,-74.86667,FT DIX,AIN,34,NJ,NEW JERSEY,,HEKP,,,3H,W0ZUFF,,,
XPRF,40,-100,UNKN LOCATION US,RPA,US,US,UNITED STATES,,XPRF,,,XX,FFWTK0,,,
SZTN,40.915,-72.79195,CALVERTON EXECUTI,MAP,36,NY,NEW YORK,K3C8,SZTN,,,3H,DMABAA,,,
UTBR,32.716667,-117.183334,SAN DIEGO NAVSTA,NYI,06,CA,CALIFORNIA,,UTBR,,,3R,N00011,,,
KFDS,41.76361,-72.685555,HARTFORD,CTY,09,CT,CONNECTICUT,,KFDS,,,3G,FFWTK0,,,
DVYP,39.266666,-80.35,CLARKSBURG,CTY,54,WV,WEST VIRGINIA,,DVYP,,,3J,FFWTK0,,,
SACB,32.869167,-117.14361,SAN DIEGO ANG,AGS,06,CA,CALIFORNIA,,SACB,,,3R,FFWTK0,,,
UTBL,32.733334,-117.166664,SAN DIEGO GEN DY,ADM,06,CA,CALIFORNIA,,UTBL,,,3R,FFWTK0,,,
ZNHL,29.3,-97.15,YOAKUM,CTY,48,TX,TEXAS,,ZNHL,,,3P,W0ZUFF,,,
JXKM,44.65,-63.583332,HALIFAX,PRT,CA,CANAD,CANADA,,JXKM,,,3D,DLAAAA,,,
MCYS,42.583332,-87.833336,KENOSHA,PRT,55,WI,WISCONSIN,,MCYS,,,3W,FFWTK0,,,
QPFW,33.783333,-83.71667,MONROE,CTY,13,GA,GEORGIA,,QPFW,,,3L,W0ZUFF,,,
UTBS,32.7,-117.2,SAN DIEGO NAVSUB,NYI,06,CA,CALIFORNIA,,UTBS,,,3R,N00011,,,
HREQ,37.97167,-100.87222,GARDEN CITY,CTY,20,KS,KANSAS,,HREQ,,,3V,FFWTK0,,,
XCYE,37.716667,-121.39611,TRACY DLA DISTRIB,DEP,06,CA,CALIFORNIA,,XCYE,,,3S,W0ZUFF,,,
BPRE,36.833332,-82.78333,BIG STONE GAP,CTY,51,VA,VIRGINIA,,BPRE,,,3K,W0ZUFF,,,
FGTS,33.833332,11,DJERBA,ADM,TN,TUNSA,TUNISIA,,FGTS,,,7S,FFWTK0,,,
SAAX,41.833332,-71.416664,N PROVIDENCE,RPA,44,RI,RHODE ISLAND,,SAAX,,,3G,FFWTK0,,,
HMZW,38.833332,-91.95,FULTON,CTY,29,MO,MISSOURI,,HMZW,,,3V,W0ZUFF,,,
FGTW,33.833332,10.833333,DJERBA,PRT,TN,TUNSA,TUNISIA,,FGTW,,,7S,DLAAAA,,,
UTAD,32.75,-117.166664,SAN DIEGO NAVY,DEP,06,CA,CALIFORNIA,,UTAD,,,3R,FFWTK0,,,
UTAC,32.75,-117.166664,SAN DIEGO,PRT,06,CA,CALIFORNIA,,UTAC,,,3R,N00011,,,
FGTZ,36.86222,9.931111,DJEDEIDA,AFD,TN,TUNSA,TUNISIA,,FGTZ,,,7S,DMABAA,,,
AZJH,43.6,-83.86667,BAY CITY,CTY,26,MI,MICHIGAN,,AZJH,,,3W,FFWTK0,,,
HABZ,42.3,-89.61667,FREEPORT,CTY,17,IL,ILLINOIS,,HABZ,,,3W,FFWTK0,,,
UTAV,32.75,-117.166664,SAN DIEGO  NSC,STG,06,CA,CALIFORNIA,,UTAV,,,3R,N00011,,,
UTAR,32.733334,-117.21667,SAN DIEGO FLETRAC,TNG,06,CA,CALIFORNIA,,UTAR,,,3R,FFWTK0,,,
TDEE,42.883335,-71.95,PETERBOROUGH,CTY,33,NH,NEW HAMPSHIRE,,TDEE,,,3G,W0ZUFF,,,
GFPP,44.05,-123.066666,EUGENE,CTY,41,OR,OREGON,,GFPP,,,3T,FFWTK0,,,
XYBW,41.233334,-80.666664,VIENNA,CTY,39,OH,OHIO,,XYBW,,,3W,FFWTK0,,,
HEMP,42.4975,-94.16778,FT DODGE,CTY,19,IA,IOWA,,HEMP,,,3V,FFWTK0,,,
EUVH,21.366667,-157.91667,CP SMITH      MCC,STG,15,HI,HAWAII,,EUVH,,,5N,DJ5000,,,
EUVJ,21.3,-157.88333,CP SMITH       BA,STG,15,HI,HAWAII,,EUVJ,,,5N,N00011,,,
HEMT,42.516666,-94.166664,FT DODGE,MSL,19,IA,IOWA,,HEMT,,,3V,FFWTK0,,,
EUVK,21.333334,-157.91417,CAMP H M SMITH,STG,15,HI,HAWAII,,EUVK,,,5N,1A1AAA,,,
LEAS,36.2625,-119.89,LEMOORE,HSP,06,CA,CALIFORNIA,,LEAS,,,3R,N00011,,,
DJCF,34.141666,-119.111115,CHANNEL ISLANDS A,AGS,06,CA,CALIFORNIA,,TKXA,,,3R,FFWTK0,,,
SVNY,33.435276,-112.01195,PAPAGO,AIN,04,AZ,ARIZONA,,SVNY,,,3R,FFWTK0,,,
EDUG,38.766666,-104.8,COLORADO SPRINGS,STG,08,CO,COLORADO,,EDUG,,,3Q,1A1AAA,,,
EDUJ,38.83389,-104.82083,COLORADO SPRINGS,CTY,08,CO,COLORADO,,EDUJ,,,3Q,FFWTK0,,,
SAEJ,41.733334,-71.433334,NO SMITHFIELD,AGS,44,RI,RHODE ISLAND,,SAEJ,,,3G,FFWTK0,,,
FTQW,64.66556,-147.1014,EIELSON AFB,IAP,02,AK,ALASKA,PAEI,FTQW,,,35,DMABAA,,,
AVBU,39.266666,-76.583336,BALTIMORE OUTPORT,PRT,24,MD,MARYLAND,,AVBU,,,3J,N00011,,,
AVBT,39.3,-76.61667,BALTIMORE,CTY,24,MD,MARYLAND,,AVBT,,,3J,FFWTK0,,,
TDHV,38.805832,-104.700836,CITY OF COLORADO,JAP,08,CO,COLORADO,KCOS,TDHV,,,3Q,DMABAA,,,
VNVP,33.988888,-98.49194,SHEPPARD AFB WICH,JAP,48,TX,TEXAS,KSPS,VNVP,,,3P,DMABAA,,,
TDHU,37.2,-77.4,PETERSBURG,CTY,51,VA,VIRGINIA,,TDHU,,,3K,FFWTK0,,,
DNJC,42.749443,-95.55139,CHEROKEE,CTY,19,IA,IOWA,,DNJC,,,3V,FFWTK0,,,
UTCS,32.7,-117.2,SAN DIEGO NAVAL,HSP,06,CA,CALIFORNIA,,UTCS,,,3R,FFWTK0,,,
QGVL,35.35,-89.9,MILLINGTON,CTY,47,TN,TENNESSEE,,QGVL,,,3M,FFWTK0,,,
AVDC,39.344444,-76.625,BALTIMORE HLNDS,CTY,24,MD,MARYLAND,,AVDC,,,3J,FFWTK0,,,
AEBS,35.083332,-106.65,ALBUQUERQUE,CTY,35,NM,NEW MEXICO,,AEBS,,,3P,FFWTK0,,,
FGWB,33.91528,-84.51639,DOBBINS ARB,MAP,13,GA,GEORGIA,KMGE,FGWB,,,3L,DMABAA,,,
FGWD,33.916668,-84.51667,DOBBINS       ANG,ANX,13,GA,GEORGIA,,FGWD,,,3L,FFWTK0,,,
BLMR,33.4,-86.76667,BESSEMER,CTY,01,AL,ALABAMA,,BLMR,,,3M,W0ZUFF,,,
JKSE,47.482777,-111.37055,GREAT FALLS INTL,IAP,30,MT,MONTANA,KGTF,JKSE,,,3Q,DMABAA,,,
JKSB,47.516666,-111.3,GREAT FALLS,CTY,30,MT,MONTANA,,JKSB,,,3Q,FFWTK0,,,
WMPT,33.983334,-77.933334,SOUTHPORT MILITAR,PRT,37,NC,NORTH CAROLINA,,WMPT,,,3L,N00011,,,
EUVB,21.366667,-157.91667,CP SMITH,MGI,15,HI,HAWAII,,EUVB,,,5N,M54000,,,
DRUG,35.133335,128.66667,CHINHAE,PRT,KR,SKORE,"KOREA, REP OF",,DRUG,,,5H,DLAAAA,,,
NXBY,47.233334,-122.433334,MADIGAN GENERAL,HSP,53,WA,WASHINGTON,,NXBY,,,3T,FFWTK0,,,
AECW,35.783333,-84,ALCOA,AGS,47,TN,TENNESSEE,,AECW,,,3M,FFWTK0,,,
EDWC,38.030556,-120.414444,COLUMBIA,APT,06,CA,CALIFORNIA,KO22,EDWC,,,3S,DMABAA,,,
WMSA,37.366665,-122.03333,SUNNYVALE,AIN,06,CA,CALIFORNIA,,WMSA,,,3R,W0ZUFF,,,
NXCC,34.09722,-96.780556,MADILL,CTY,40,OK,OKLAHOMA,,NXCC,,,3P,W0ZUFF,,,
UKUV,37.933334,-91.916664,ROLLA,CTY,29,MO,MISSOURI,,UKUV,,,3V,FFWTK0,,,
VFHU,33.75,-118.15,SEAL BEACH    NWS,AMO,06,CA,CALIFORNIA,,VFHU,,,3R,DLAAAA,,,
QCQQ,40.199444,-112.9375,MICHAEL AAF,MAP,49,UT,UTAH,KDPG,QCQQ,,,3Q,DMABAA,,,
YSYV,40.616665,-111.933334,W JORDAN,CTY,49,UT,UTAH,,YSYV,,,3Q,W0ZUFF,,,
TUJL,47.15,-122.48333,PUGET SOUND,NYI,53,WA,WASHINGTON,,TUJL,,,3T,N00011,,,
XHEA,32.11611,-110.94111,TUCSON INTL,JAP,04,AZ,ARIZONA,KTUS,XHEA,,,3R,DMABAA,,,
WQZM,4.883333,-1.75,TAKORADI,PRT,GH,GHANA,GHANA,,WQZM,,,7A,DLAAAA,,,
AEDY,52.3725,-0.21138889,ALCONBURY,IAP,GB,UK,UNITED KINGDOM,,AEDY,,,4L,DMABAA,,,
XHDU,32.25,-110.95,TUCSON,CTY,04,AZ,ARIZONA,,XHDU,,,3R,FFWTK0,,,
WEAS,38.174168,-85.73639,LOUISVILLE INTL S,JAP,21,KY,KENTUCKY,KSDF,WEAS,,,3M,DMABAA,,,
XHDV,32.166668,-110.88333,TUCSON,STG,04,AZ,ARIZONA,,XHDV,,,3R,1A1AAA,,,
LVDB,32.70111,-80.003334,CHARLESTON EXECUT,CAP,45,SC,SOUTH CAROLINA,KJZI,LVDB,,,3L,DMABAA,,,
BPWZ,31.849445,-106.38,BIGGS AAF,MAP,48,TX,TEXAS,KBIF,BPWZ,,,3P,DMABAA,,,
HAGC,29,-95.4,FREEPORT,PRT,48,TX,TEXAS,,HAGC,,,3P,N00011,,,
JGMH,43,-85.7,GRAND RAPIDS,CTY,26,MI,MICHIGAN,,JGMH,,,3W,FFWTK0,,,
EDVT,40.283333,-74.183334,COLTS NECK,CTY,34,NJ,NEW JERSEY,,EDVT,,,3H,FFWTK0,,,
ZRVL,39.916668,-82.03333,ZANESVILLE,AGS,39,OH,OHIO,,ZRVL,,,3W,FFWTK0,,,
JCGU,31.431667,-100.40389,GOODFELLOW AFB,AFD,48,TX,TEXAS,,JCGU,,,3P,DMABAA,,,
TUMM,18.5,-65,PUERTO RICO OPARE,OPA,1X,CRBN,CARIBBEAN SEA,,TUMM,,,6G,N00011,,,
NGCS,40.816666,-96.683334,LINCOLN,CTY,31,NE,NEBRASKA,,NGCS,,,3V,FFWTK0,,,
EDYN,38.966667,-92.333336,COLUMBIA,CTY,29,MO,MISSOURI,,EDYN,,,3V,FFWTK0,,,
QPMA,42.6,-89.65,MONROE,CTY,55,WI,WISCONSIN,,QPMA,,,3W,FFWTK0,,,
QTUP,34.65278,-76.675835,MOREHEAD CITY,PRT,37,NC,NORTH CAROLINA,,QTUP,,,3L,N00011,,,
HERT,37.15,-76.583336,FT EUSTIS,AIN,51,VA,VIRGINIA,,HERT,,,3K,W0ZUFF,,,
VWLB,52.127224,5.276111,SOESTERBERG,MAP,NL,NETHE,NETHERLANDS,EHSB,SPAU,,,4K,DMABAA,,,
LVGY,36.333332,-82.38333,JOHNSON CITY,CTY,47,TN,TENNESSEE,,LVGY,,,3M,FFWTK0,,,
ZNMC,35.45,139.65,YOKOHAMA COMMERCI,PRT,JP,JAPAN,JAPAN,,ZNMC,,,5H,DJ5000,,,
HEPT,40.766666,-111.833336,FT DOUGLAS,AIN,49,UT,UTAH,,HEPT,,,3Q,W0ZUFF,,,
TDKA,38.816666,-104.7,PETERSON AFB,ABS,08,CO,COLORADO,,TDHV,,,3Q,FFWTK0,,,
DNNH,34.9,-76.88333,CHERRY POINT,AFS,37,NC,NORTH CAROLINA,,DNNH,,,3L,FFWTK0,,,
DNNL,34.900833,-76.88084,CHERRY POINT MCAS,MAP,37,NC,NORTH CAROLINA,KNKT,DNNL,,,3L,DMABAA,,,
DNNM,34.9,-76.86667,MCAS CHERRY POINT,STG,37,NC,NORTH CAROLINA,,DNNM,,,3L,1A1AAA,,,
VFHY,33.716667,-118.083336,SEAL BEACH,NYI,06,CA,CALIFORNIA,,VFHY,,,3R,N00011,,,
VFHZ,33.65,-118.183334,SEAL BEACH NWS,PRT,06,CA,CALIFORNIA,,VFHZ,,,3R,N00011,,,
JXPJ,34.208332,-87.629166,HALL,AGS,01,AL,ALABAMA,,JXPJ,,,3M,FFWTK0,,,
TDKF,42.918056,-95.34361,PETERSON,CTY,19,IA,IOWA,,TDKF,,,3V,FFWTK0,,,
JKWE,42.3,-87.833336,GREAT LAKES,CTY,17,IL,ILLINOIS,,JKWE,,,3W,FFWTK0,,,
BYKF,36.916668,7.7833333,BONE AND SCHEMES,CTY,DZ,ALGER,ALGERIA,,BYKF,,,7R,FFWTK0,,,
BYKC,36.9,7.766667,BONE,PRT,DZ,ALGER,ALGERIA,,BYKC,,,7R,DLAAAA,,,
TDKP,42.916668,-95.35,PETERSON,AIN,19,IA,IOWA,,TDKP,,,3V,W0ZUFF,,,
JKWF,42.3,-87.833336,GREAT LAKES NAVY,HSP,17,IL,ILLINOIS,,JKWF,,,3W,FFWTK0,,,
BYKA,36.822224,7.8094444,RABAH BITAT,CAP,DZ,ALGER,ALGERIA,DABB,BYKA,,,7R,DMABAA,,,
JKWG,42.3,-87.833336,GREAT LAKES,NYI,17,IL,ILLINOIS,,JKWG,,,3W,N00011,,,
ZRUZ,39.944443,-81.89222,ZANESVILLE MUNI,CAP,39,OH,OHIO,KZZV,ZRUZ,,,3W,DMABAA,,,
AMVP,45.05,-93.15222,ARDEN HILLS,CTY,27,MN,MINNESOTA,,AMVP,,,3W,DKAAAA,,,
GFVP,40.816666,-124.166664,EUREKA,PRT,06,CA,CALIFORNIA,,GFVP,,,3S,FFWTK0,,,
JKWP,42.3,-87.833336,GREAT LAKES TNG,NYI,17,IL,ILLINOIS,,JKWP,,,3W,N00011,,,
NGCB,40.850834,-96.75916,LINCOLN,JAP,31,NE,NEBRASKA,KLNK,NGCB,,,3V,DMABAA,,,
THSW,41.674446,-72.85861,PLAINVILLE,CTY,09,CT,CONNECTICUT,,THSW,,,3G,FFWTK0,,,
DRYL,43.166668,-87.96667,CHIPPEWA FALLS,CTY,55,WI,WISCONSIN,,DRYL,,,3W,FFWTK0,,,
PQSY,36.08,-115.15222,MC CARRAN INTL,CAP,32,NV,NEVADA,KLAS,PQSY,,,3S,DMABAA,,,
PDZF,38.083332,-122.23333,MARE ISLAND   NSY,STG,06,CA,CALIFORNIA,,PDZF,,,3S,N00011,,,
THVB,30.283333,-91.23333,PLAQUEMINE,CTY,22,LA,LOUISIANA,,THVB,,,3N,W0ZUFF,,,
MLRV,61.166668,-149.98334,KULIS,AGS,02,AK,ALASKA,,MLRV,,,35,FFWTK0,,,
GWZP,43.4,4.866667,FOS,PRT,FR,FRANC,FRANCE,,GWZP,,,4M,DLAAAA,,,
TQGJ,43.666668,-70.25,PORTLAND,CTY,23,ME,MAINE,,TQGJ,,,3G,FFWTK0,,,
WMWC,46.716667,-92.083336,SUPERIOR,CTY,55,WI,WISCONSIN,,WMWC,,,3W,FFWTK0,,,
SESW,37.75,-122.2,OAKLAND NAVY,HSP,06,CA,CALIFORNIA,,SESW,,,3S,FFWTK0,,,
CKMQ,40.1,-74.86667,BRISTOL,PRT,42,PA,PENNSYLVANIA,,CKMQ,,,3J,FFWTK0,,,
ZAWN,40.199722,-75.148056,WILLOW GROVE NAS,MAP,42,PA,PENNSYLVANIA,KNXX,ZAWN,,,3J,DMABAA,,,
ZAWA,40.2,-75.15,WILLOW GROVE,RTC,42,PA,PENNSYLVANIA,,ZAWN,,,3J,FFWTK0,,,
THWA,44.650833,-73.468056,PLATTSBURGH INTL,MAP,36,NY,NEW YORK,KPBG,THWA,,,3H,DMABAA,,,
AMYJ,34.116665,-97.15,ARDMORE,CTY,40,OK,OKLAHOMA,,AMYJ,,,3P,FFWTK0,,,
SERB,37.716667,-122.2,OAKLAND,AIN,06,CA,CALIFORNIA,,SERB,,,3S,W0ZUFF,,,
YKLF,32.633335,-83.6,WARNER ROBINS,CTY,13,GA,GEORGIA,,YKLF,,,3L,FFWTK0,,,
KFKV,43.316666,-88.36667,HARTFORD,CTY,55,WI,WISCONSIN,,KFKV,,,3W,FFWTK0,,,
QTUR,34.9,-76.88333,MOREHEAD CITY,POL,37,NC,NORTH CAROLINA,,QTUR,,,3L,FFWTK0,,,
SERJ,37.726112,-122.2225,OAKLAND,NAV,06,CA,CALIFORNIA,,SERJ,,,3S,FFWTK0,,,
SERH,37.833332,-122.25,OAKLAND,CTY,06,CA,CALIFORNIA,,SERH,,,3S,FFWTK0,,,
MYKJ,38.97167,-95.235,LAWRENCE,CTY,20,KS,KANSAS,,MYKJ,,,3V,FFWTK0,,,
HRLU,40.7,-73.71667,GARDEN CITY,CTY,36,NY,NEW YORK,,HRLU,,,3H,FFWTK0,,,
SERU,37.816666,-122.333336,OAKLAND SEALAND T,PRT,06,CA,CALIFORNIA,,SERU,,,3S,N00011,,,
SERS,37.816666,-122.333336,OAKLAND,NYI,06,CA,CALIFORNIA,,SERS,,,3S,N00011,,,
XDAT,38.264446,-121.924164,TRAVIS AFB,MAP,06,CA,CALIFORNIA,KSUU,XDAT,,,3S,DMABAA,,,
PDZE,38.1,-122.26667,MARE ISLAND,NYI,06,CA,CALIFORNIA,,PDZE,,,3S,N00011,,,
UPBB,32.533333,-92.61667,RUSTON,CTY,22,LA,LOUISIANA,,UPBB,,,3N,FFWTK0,,,
UTLS,37.783333,-122.38333,SAN FRANCISCO,PRT,06,CA,CALIFORNIA,,UTLS,,,3S,N00011,,,
MDDS,47.366665,-122.25,KENT,CTY,53,WA,WASHINGTON,,MDDS,,,3T,FFWTK0,,,
UTLN,37.75,-122.36667,SAN FRANCISCO,NYI,06,CA,CALIFORNIA,,UTLN,,,3S,N00011,,,
THXR,44.7,-73.45,PLATTSBURGH,CTY,36,NY,NEW YORK,,THXR,,,3H,FFWTK0,,,
UTLY,37.816666,-122.416664,SAN FRANCISCO,ADM,06,CA,CALIFORNIA,,UTLY,,,3S,N00011,,,
ZNRE,35.74861,139.34862,YOKOTA AB,MAP,JP,JAPAN,JAPAN,RJTY,ZNRE,,,5H,DMABAA,,,
WAAR,39.84028,-83.84028,SPRINGFIELD BECKL,JAP,39,OH,OHIO,KSGH,WAAR,,,3W,DMABAA,,,
FCXN,34.583332,-87,DECATUR,CTY,01,AL,ALABAMA,,FCXN,,,3M,FFWTK0,,,
XYNK,38.216667,15.633333,VILLA SAN GIOVANN,PRT,IT,ITALY,ITALY,,XYNK,,,4P,DLAAAA,,,
EZHK,38.331112,-77.05139,DAHLGREN,CTY,51,VA,VIRGINIA,,EZHK,,,3K,FFWTK0,,,
XUEX,45.633335,-122.666664,VANCOUVER BRKS,AIN,53,WA,WASHINGTON,,XUEX,,,3T,W0ZUFF,,,
WMYX,41.95,-75.6,SUSQUEHANNA OD DP,AIN,42,PA,PENNSYLVANIA,,WMYX,,,3J,W0ZUFF,,,
TQJG,45.583332,-122.6,PORTLAND,RTC,41,OR,OREGON,,TQJG,,,3T,FFWTK0,,,
FTZH,31.703888,9.254167,EL BORMA,APT,TN,TUNSA,TUNISIA,DTTR,FTZH,,,7S,DMABAA,,,
TQJF,45.5,-122.61667,PORTLAND ANG,ANX,41,OR,OREGON,,TQJF,,,3T,FFWTK0,,,
UTKS,37.8,-122.416664,SAN FRANCISCO,CTY,06,CA,CALIFORNIA,,UTKS,,,3S,FFWTK0,,,
NXHE,43.083332,-89.36667,MADISON,CTY,55,WI,WISCONSIN,,NXHE,,,3W,FFWTK0,,,
XUDT,45.633335,-122.683334,VANCOUVER,PRT,53,WA,WASHINGTON,,XUDT,,,3T,N00011,,,
SETE,37.816666,-122.3,OAKLAND ARMY BASE,AIN,06,CA,CALIFORNIA,,SETE,,,3S,W0ZUFF,,,
XLSN,32.35,-95.3,TYLER,CTY,48,TX,TEXAS,,XLSN,,,3P,FFWTK0,,,
WMY2,35.816666,10.633333,SUSAH,PRT,TN,TUNSA,TUNISIA,,WMY2,,,7S,DLAAAA,,,
UTKY,37.61889,-122.375,SAN FRANCISCO INT,IAP,06,CA,CALIFORNIA,KSFO,UTKY,,,3R,DMABAA,,,
VBDZ,42.8525,-73.92861,SCHENECTADY CO,JAP,36,NY,NEW YORK,KSCH,VBDZ,,,3H,DMABAA,,,
FTXW,36.85,10.233334,EL AOUINA,CTY,TN,TUNSA,TUNISIA,,FTXW,,,7S,FFWTK0,,,
DNRV,39.833332,-75.38333,CHESTER,CTY,42,PA,PENNSYLVANIA,,DNRV,,,3J,FFWTK0,,,
XUDN,45.616665,-122.666664,VANCOUVER,CTY,53,WA,WASHINGTON,,XUDN,,,3T,FFWTK0,,,
VSFP,35.131943,-78.93611,SIMMONS AAF,MAP,37,NC,NORTH CAROLINA,KFBG,VSFP,,,3L,DMABAA,,,
MYMU,42.716667,-71.11667,LAWRENCE,CTY,25,MA,MASSACHUSETTS,,MYMU,,,3G,FFWTK0,,,
QTXL,33.91528,-117.111115,MORENO VALLEY,AFD,06,CA,CALIFORNIA,,QTXL,,,3R,DMABAA,,,
MYMW,42.717224,-71.12334,LAWRENCE MUNI,CAP,25,MA,MASSACHUSETTS,KLWM,MYMW,,,3G,DMABAA,,,
AZTG,40.683334,-74.1,BAYONNE,PRT,34,NJ,NEW JERSEY,,AZTG,,,3H,N00011,,,
HRNV,40.7,-73.71667,GARDEN CITY,ANX,36,NY,NEW YORK,,HRNV,,,3H,FFWTK0,,,
AZTE,40.65,-74.13333,BAYONNE,NYI,34,NJ,NEW JERSEY,,AZTE,,,3H,N00011,,,
EZGG,32.8,-85.76667,DADEVILLE,CTY,01,AL,ALABAMA,,EZGG,,,3M,W0ZUFF,,,
HVWA,38.69,-75.38583,GEORGETOWN,CTY,10,DE,DELAWARE,,HVWA,,,3J,FFWTK0,,,
WRDQ,30.433332,-84.3,TALLAHASSEE,CTY,12,FL,FLORIDA,,WRDQ,,,3L,FFWTK0,,,
KBHT,43.11111,-76.10639,SYRACUSE HANCOCK,JAP,36,NY,NEW YORK,KSYR,KBHT,,,3H,DMABAA,,,
LVMC,41.673054,-93.6975,JOHNSTON,CTY,19,IA,IOWA,,LVMC,,,3V,FFWTK0,,,
CTCN,38.758335,-104.30666,USAF ACADEMY BULL,APT,08,CO,COLORADO,CO90,CTCN,,,3Q,DMABAA,,,
PQWY,47.13778,-122.47639,JBLM MCCHORD FLD,MAP,53,WA,WASHINGTON,KTCM,PQWY,,,3T,DMABAA,,,
MUHJ,37.08278,-76.36056,JB LANGLEY-EUSTIS,MAP,51,VA,VIRGINIA,KLFI,MUHJ,,,3K,DMABAA,,,
UCMH,39.469444,-76.82972,REISTERSTOWN,CTY,24,MD,MARYLAND,,UCMH,,,3J,FFWTK0,,,
QYDL,42.6,-82.88333,MT CLEMENS,CTY,26,MI,MICHIGAN,,QYDL,,,3W,FFWTK0,,,
EQYH,38.116665,-77.25,FT A P HILL,AIN,51,VA,VIRGINIA,,EQYH,,,3K,W0ZUFF,,,
YXKB,37.65,-97.43305,WICHITA MID CONTI,CAP,20,KS,KANSAS,KICT,YXKB,,,3V,DMABAA,,,
MHMV,35.04028,-106.60917,KIRTLAND AFB,ABS,35,NM,NEW MEXICO,,MHMV,,,3P,FFWTK0,,,
WAAZ,42.422222,-87.867775,WAUKEGAN RGNL,CAP,17,IL,ILLINOIS,KUGN,WAAZ,,,3W,DMABAA,,,
TQJX,45.5,-122.61667,PORTLAND,CTY,41,OR,OREGON,,TQJX,,,3T,FFWTK0,,,
MLVK,21.466667,-158.06667,KUNIA,CTY,15,HI,HAWAII,,MLVK,,,5N,W0ZUFF,,,
TQKD,45.58861,-122.59695,PORTLAND INTL,JAP,41,OR,OREGON,KPDX,TQKD,,,3T,DMABAA,,,
AELU,31.183332,29.9,ALEXANDRIA,PRT,EG,EGYPT,EGYPT,,AELU,,,1W,DLAAAA,,,
AVND,44.8,-68.7,BANGOR,CTY,23,ME,MAINE,,AVND,,,3G,FFWTK0,,,
LEKF,32.009724,-81.14611,HUNTER,WAE,13,GA,GEORGIA,,LEKF,,,3L,FFWTK0,,,
AELJ,32.95,-86,ALEXANDER CITY,CTY,01,AL,ALABAMA,,AELJ,,,3M,W0ZUFF,,,
KWRD,32.852222,-106.10917,HOLLOMAN AFB,MAP,35,NM,NEW MEXICO,KHMN,KWRD,,,3P,DMABAA,,,
TQKG,45.583332,-122.6,PORTLAND,PRT,41,OR,OREGON,,TQKG,,,3T,N00011,,,
NTEA,35.03528,-85.20361,LOVELL FLD,CAP,47,TN,TENNESSEE,KCHA,NTEA,,,3M,FFWTK0,,,
FLMT,40.533333,-111.85,DRAPER,CTY,49,UT,UTAH,,FLMT,,,3Q,FFWTK0,,,
HJCQ,38.916668,-77.166664,FT MYER,AIN,51,VA,VIRGINIA,,HJCQ,,,3K,W0ZUFF,,,
EEBS,34,-81,COLUMBIA,CTY,45,SC,SOUTH CAROLINA,,EEBS,,,3L,FFWTK0,,,
SNKA,44,-90.5,OSHKOSH,CTY,55,WI,WISCONSIN,,SNKA,,,3W,FFWTK0,,,
HEZW,39.1,-76.71667,FT GEORGE MEADE,AIN,24,MD,MARYLAND,,HEZW,,,3J,W0ZUFF,,,
PEBH,33.316944,-117.38361,PENDLETON,CTY,06,CA,CALIFORNIA,,PEBH,,,3R,DKAACA,,,
PEBG,21.352222,-157.93666,PEARL HARBOR,CLN,15,HI,HAWAII,,PEBG,,,5N,DJ5000,,,
ULAB,34.016666,-85.03333,ROME,CTY,13,GA,GEORGIA,,ULAB,,,3L,FFWTK0,,,
MLWY,35.983334,126.71667,KUNSAN,PRT,KR,SKORE,"KOREA, REP OF",,MLWY,,,5H,DLAAAA,,,
AVPV,47.8,-122.6,BANGOR,NYI,53,WA,WASHINGTON,,AVPV,,,3T,N00011,,,
HVZP,33.383335,-79.3,GEORGETOWN,CTY,45,SC,SOUTH CAROLINA,,HVZP,,,3L,FFWTK0,,,
AVPR,47.8,-122.6,BANGOR POMFPAL,STG,53,WA,WASHINGTON,,AVPR,,,3T,FFWTK0,,,
AVPN,47.683334,-122.75,BANGOR NAVAL SUBM,NBA,53,WA,WASHINGTON,,AVPN,,,3T,N00011,,,
NCBW,36.333057,-119.952225,LEMOORE NAS,MAP,06,CA,CALIFORNIA,KNLC,NCBW,,,3R,DMABAA,,,
AAFR,31.533333,-85.26667,ABBEVILLE,CTY,01,AL,ALABAMA,,AAFR,,,3M,W0ZUFF,,,
WADJ,42.3,-85.25,SPRINGFIELD,CTY,26,MI,MICHIGAN,,WADJ,,,3W,W0ZUFF,,,
YKRS,41.733334,-71.28333,WARREN,CTY,44,RI,RHODE ISLAND,,YKRS,,,3G,W0ZUFF,,,
XLWU,30.069445,-85.575554,TYNDALL AFB,MAP,12,FL,FLORIDA,KPAM,XLWU,,,3L,DMABAA,,,
UTRY,37.266666,-121.916664,SAN JOSE,CTY,06,CA,CALIFORNIA,,UTRY,,,3R,FFWTK0,,,
RBXH,37.533333,129.1,MUKHOJIN NI,PRT,KR,SKORE,"KOREA, REP OF",,RBXH,,,5H,DLAAAA,,,
TQPB,37.166668,10.183333,PORTO FARINA,PRT,TN,TUNSA,TUNISIA,,TQPB,,,7S,DLAAAA,,,
VFTE,47.6,-122.316666,SEATTLE,CTY,53,WA,WASHINGTON,,VFTE,,,3T,W0ZUFF,,,
ZSAK,33.497223,11.121667,ZARZIS,PRT,TN,TUNSA,TUNISIA,,ZSAK,,,7S,DLAAAA,,,
VSMR,1.3605555,103.90945,PAYA LEBAR,IAP,SG,SINGA,SINGAPORE,WSAP,VSMR,,,5C,DMABAA,,,
LVQT,40.333332,-78.916664,JOHNSTOWN,CTY,42,PA,PENNSYLVANIA,,LVQT,,,3J,FFWTK0,,,
ANAD,38.988888,-76.49167,ANNAPOLIS,CLN,24,MD,MARYLAND,,ANAD,,,3J,N00011,,,
LVQX,40.315556,-78.834724,JOHN MURTHA JOHNS,CAP,42,PA,PENNSYLVANIA,KJST,LVQX,,,3J,DMABAA,,,
CTGC,40.648056,-86.15222,GRISSOM ARB,MAP,18,IN,INDIANA,KGUS,CTGC,,,3W,DMABAA,,,
CTGB,40.66,-86.14167,GRISSOM AFRES,RTC,18,IN,INDIANA,,CTGB,,,3W,FFWTK0,,,
MYTZ,40.283333,-74.73333,LAWRENCEVILLE,CTY,34,NJ,NEW JERSEY,,MYTZ,,,3H,FFWTK0,,,
UTSE,37.362778,-121.92917,NORMAN Y MINETA S,CAP,06,CA,CALIFORNIA,KSJC,UTSE,,,3R,DMABAA,,,
WVQD,30.833334,-83.98333,THOMASVILLE,CTY,13,GA,GEORGIA,,WVQD,,,3L,FFWTK0,,,
VSNF,1.35,103.916664,SINGAPORE,PRT,SG,SINGA,SINGAPORE,,VSNF,,,5C,DLAAAA,,,
GGAD,32.833332,-87.86667,EUTAW,CTY,01,AL,ALABAMA,,GGAD,,,3M,W0ZUFF,,,
JPJE,35.6,-77.38333,GREENVILLE,CTY,37,NC,NORTH CAROLINA,,JPJE,,,3L,FFWTK0,,,
VFTA,47.65,-122.333336,SEATTLE,ADM,53,WA,WASHINGTON,,VFTA,,,3T,FFWTK0,,,
AEPQ,38.816666,-77.15,ALEXANDRIA,CTY,51,VA,VIRGINIA,,AEMA,,,3K,FFWTK0,,,
EZMU,14.683333,-17.433332,DAKAR,PRT,SN,SENSG,SENEGAL,,EZMU,,,7A,DLAAAA,,,
AEPL,38.816666,-77.066666,ALEXANDRIA,ADM,51,VA,VIRGINIA,,AEPL,,,3K,FFWTK0,,,
VFVN,47.6,-122.333336,SEATTLE,PRT,53,WA,WASHINGTON,,VFVN,,,3T,N00011,,,
EMVX,32.7,-117.166664,CORONADO,NYI,06,CA,CALIFORNIA,,EMVX,,,3R,N00011,,,
EMVY,32.666668,-117.166664,CORONADO SD   NPB,NYI,06,CA,CALIFORNIA,,EMVY,,,3R,N00011,,,
TDXT,39.899723,-75.23333,PHILADELPHIA DPSC,ADM,42,PA,PENNSYLVANIA,,TDXT,,,3J,W0ZUFF,,,
XUMU,34.73722,-120.58444,VANDENBERG AFB,MAP,06,CA,CALIFORNIA,KVBG,XUMU,,,3R,DMABAA,,,
JTUW,30.35,-89.13333,GULFPORT,CTY,28,MS,MISSISSIPPI,,JTUW,,,3M,FFWTK0,,,
TDXQ,40.016666,-75.083336,PHILADELPHIA,NYI,42,PA,PENNSYLVANIA,,TDXQ,,,3J,N00011,,,
JTUX,30.367777,-89.09333,GULFPORT,NYI,28,MS,MISSISSIPPI,,JTUX,,,3M,N00072,,,
UTUL,37.333332,-121.916664,SAN JOSE,ADM,06,CA,CALIFORNIA,,UTUL,,,3R,1A1AAA,,,
GKLX,41.14111,-73.26417,FAIRFIELD,CTY,09,CT,CONNECTICUT,,GKLX,,,3G,FFWTK0,,,
ZBBU,39.745834,-75.54694,WILMINGTON,CTY,10,DE,DELAWARE,,ZBBU,,,3J,FFWTK0,,,
UCTE,39.533333,-119.8,RENO,CTY,32,NV,NEVADA,,UCTE,,,3S,FFWTK0,,,
JTVG,30.35,-89.083336,GULFPORT      CBC,STG,28,MS,MISSISSIPPI,,JTVG,,,3M,N00011,,,
AEQT,36.133335,-5.45,ALGECIRAS,PRT,ES,SPAIN,SPAIN,,AEQT,,,4N,DLAAAA,,,
JTVE,30.407223,-89.07,GULFPORT BILOXI I,JAP,28,MS,MISSISSIPPI,KGPT,JTVE,,,3M,DMABAA,,,
JTVH,30.35,-89.083336,GULFPORT,PRT,28,MS,MISSISSIPPI,,JTVH,,,3M,N00011,,,
XQDT,51.93667,-1.2491666,UPPER HEYFORD,IAP,GB,UK,UNITED KINGDOM,,XQDT,,,4L,DMABAA,,,
TDWK,40,-75.166664,PHILADELPHIA 04,CTY,42,PA,PENNSYLVANIA,,TDWK,,,3J,FFWTK0,,,
YKVG,41.433334,-81.49139,WARRENSVILLE HGTS,NAV,39,OH,OHIO,,YKVG,,,3W,FFWTK0,,,
WEPE,33.816666,-118,STANTON,CTY,06,CA,CALIFORNIA,,WEPE,,,3R,FFWTK0,,,
MQEJ,40.416668,-86.875,LAFAYETTE,CTY,18,IN,INDIANA,,MQEJ,,,3W,FFWTK0,,,
VFUL,47.65,-122.333336,SEATTLE AIR NAT G,AGS,53,WA,WASHINGTON,,VFUL,,,3T,FFWTK0,,,
CPBE,27.687778,-97.26639,CORPUS CHRISTI,HSP,48,TX,TEXAS,,CPBE,,,3P,N00011,,,
VFVD,47.666668,-122.25,SEATTLE,NYI,53,WA,WASHINGTON,,VFVD,,,3T,N00011,,,
UGZX,24.712778,46.725555,RIYADH AB,MAP,SA,SAUDI,SAUDI ARABIA,OERY,UGZX,,,1X,DMABAA,,,
TDXG,39.872223,-75.24084,PHILADELPHIA INTL,IAP,42,PA,PENNSYLVANIA,KPHL,TDXG,,,3J,DMABAA,,,
MQFA,30.183332,-92,LAFAYETTE,CTY,22,LA,LOUISIANA,,MQFA,,,3N,FFWTK0,,,
LVSH,40.199165,-75.06611,WARMINSTER NAWC,MAP,42,PA,PENNSYLVANIA,,LVSH,,,3J,DMABAA,,,
AVTB,37.283333,9.883333,BANZART,PRT,TN,TUNSA,TUNISIA,,AVTB,,,7S,DLAAAA,,,
TDXA,39.933334,-75.166664,PHILADELPHIA,CTY,42,PA,PENNSYLVANIA,,TDXA,,,3J,FFWTK0,,,
TQQL,43.076946,-70.71333,PORTSMOUTH,CTY,23,ME,MAINE,,TQQL,,,3G,DKAAAA,,,
KSRM,47.416668,-97.066666,HILLSBORO,CTY,38,ND,NORTH DAKOTA,,KSRM,,,3Q,DMABAA,,,
ULFR,39.35,-78.73333,ROMNEY,CTY,54,WV,WEST VIRGINIA,,ULFR,,,3J,FFWTK0,,,
SWBM,33.65,-95.55,PARIS,CTY,48,TX,TEXAS,,SWBM,,,3P,FFWTK0,,,
WRLQ,27.983334,-82.48333,TAMPA,CTY,12,FL,FLORIDA,,WRLQ,,,3L,FFWTK0,,,
MYXZ,32.331665,-84.98722,LAWSON AAF,MAP,13,GA,GEORGIA,KLSF,MYXZ,,,3L,DMABAA,,,
EEHR,32.466667,-84.98333,COLUMBUS,CTY,13,GA,GEORGIA,,EEHR,,,3L,FFWTK0,,,
VFXM,47.583332,-122.333336,SEATTLE NAVY PRT,NYI,53,WA,WASHINGTON,,VFXM,,,3T,N00011,,,
GGFX,37.974724,-87.55583,EVANSVILLE,CTY,18,IN,INDIANA,,GGFX,,,3W,FFWTK0,,,
VSRP,42.5,-96.4,SIOUX CITY,CTY,19,IA,IOWA,,VSRB,,,3V,FFWTK0,,,
LRNC,38.42389,27.129723,IZMIR,PRT,TR,TURKY,TURKEY,,LRNC,,,4Q,DLAAAA,,,
TQTV,36.831665,-76.30167,PORTSMOUTH NAVY,HSP,51,VA,VIRGINIA,,TQTV,,,3K,FFWTK0,,,
PRAY,28.579166,-81.3225,ORLANDO,HSP,12,FL,FLORIDA,,PRAY,,,3L,N00011,,,
JPNJ,34.866665,-82.416664,GREENVILLE,CTY,45,SC,SOUTH CAROLINA,,JPNJ,,,3L,FFWTK0,,,
UCTL,39.49917,-119.76806,RENO TAHOE INTL,JAP,32,NV,NEVADA,KRNO,UCTL,,,3S,DMABAA,,,
JPNN,34.848057,-82.35,GREENVILLE DOWNTO,CAP,45,SC,SOUTH CAROLINA,KGMU,JPNN,,,3L,DMABAA,,,
ARNW,33.37,-81.96445,AUGUSTA RGNL AT B,JAP,13,GA,GEORGIA,KAGS,ARNW,,,3L,DMABAA,,,
ZFKN,52.08972,1.4055556,WOODBRIDGE,CAP,GB,UK,UNITED KINGDOM,,ZFKN,,,4L,DMABAA,,,
FPZW,42.783333,-84.833336,E LANSING,CTY,26,MI,MICHIGAN,,FPZW,,,3W,FFWTK0,,,
LVTN,41.783333,-87.75,JOLIET,CTY,17,IL,ILLINOIS,,LVTN,,,3W,FFWTK0,,,
WERS,39.765278,-104.87945,STAPLETON INTL,IAP,08,CO,COLORADO,,WERS,,,3Q,DMABAA,,,
TQRU,43.083332,-70.75,PORTSMOUTH,PRT,33,NH,NEW HAMPSHIRE,,TQRU,,,3G,N00011,,,
ARNS,33.483334,-82,AUGUSTA,CTY,13,GA,GEORGIA,,ARNS,,,3L,FFWTK0,,,
MYWX,37.221943,-94.63583,LAWTON,CTY,20,KS,KANSAS,,MYWX,,,3V,FFWTK0,,,
TMKH,35.170834,-79.01444,POPE AAF,MAP,37,NC,NORTH CAROLINA,KPOB,TMKH,,,3L,DMABAA,,,
WRLK,27.975555,-82.53333,TAMPA INTL,CAP,12,FL,FLORIDA,KTPA,WRLK,,,3L,DMABAA,,,
VKAG,35.339443,-77.960556,SEYMOUR JOHNSON A,MAP,37,NC,NORTH CAROLINA,KGSB,VKAG,,,3L,DMABAA,,,
RKMF,36.23611,-115.034164,NELLIS AFB,MAP,32,NV,NEVADA,KLSV,RKMF,,,3S,DMABAA,,,
HAWS,36.783333,-119.833336,FRESNO,CTY,06,CA,CALIFORNIA,,HAWS,,,3R,FFWTK0,,,
HAWR,36.77639,-119.71861,FRESNO YOSEMITE I,JAP,06,CA,CALIFORNIA,KFAT,HAWR,,,3R,DMABAA,,,
YPAZ,44.966667,-89.63333,WAUSAU,CTY,55,WI,WISCONSIN,,YPAZ,,,3W,FFWTK0,,,
XDMT,38.266666,-121.933334,TRAVIS,NAV,06,CA,CALIFORNIA,,XDMT,,,3S,FFWTK0,,,
UTVT,18.516666,-67.15,SAN JUAN,PRT,PR,PUERT,PUERTO RICO,,UTVT,,,37,N00011,,,
TMKL,35.166668,-79.01667,POPE,COM,37,NC,NORTH CAROLINA,,TMKL,,,3L,FFWTK0,,,
FLUP,43.75,-111.083336,DRIGGS,CTY,16,ID,IDAHO,,FLUP,,,3T,W0ZUFF,,,
EZTC,32.283333,-96.78333,DALLAS,CTY,48,TX,TEXAS,,EZTC,,,3P,FFWTK0,,,
EZTH,32.734722,-96.9675,MILLENNIUM DALLAS,MAP,48,TX,TEXAS,,EZTH,,,3P,DMABAA,,,
PVKT,40.216667,-77.01667,MECHANICSBURG,NYI,42,PA,PENNSYLVANIA,,PVKT,,,3J,N00011,,,
VFZM,47.45,-122.31167,SEATTLE TACOMA IN,IAP,53,WA,WASHINGTON,KSEA,VFZM,,,3T,DMABAA,,,
QHMA,43.05,-87.933334,MILWAUKEE M 02,STG,55,WI,WISCONSIN,,QHMA,,,3W,FFWTK0,,,
ERDH,31.316668,-92.416664,CP BEAUREGARD,AIN,22,LA,LOUISIANA,,ERDH,,,3N,W0ZUFF,,,
VSTP,43.566666,-96.7,SIOUX FALLS,CTY,46,SD,SOUTH DAKOTA,,VSTP,,,3Q,FFWTK0,,,
PABH,38.275276,-76.44778,PATUXENT RIVER,HSP,24,MD,MARYLAND,,PABH,,,3J,N00011,,,
EZTV,32.783333,-96.8,DALLAS AFIT 02,SCH,48,TX,TEXAS,,EZTV,,,3P,FFWTK0,,,
EZTW,32.783333,-96.8,DALLAS AFIT 03,SCH,48,TX,TEXAS,,EZTW,,,3P,FFWTK0,,,
YPEA,36.083332,-87.8,WAVERLY,CTY,47,TN,TENNESSEE,,YPEA,,,3M,W0ZUFF,,,
ZFNU,45.15,-122.86667,WOODBURN,CTY,41,OR,OREGON,,ZFNU,,,3T,FFWTK0,,,
HNTK,33.733334,9.919167,MATMATA,APT,TN,TUNSA,TUNISIA,DTTG,HNTK,,,7S,DMABAA,,,
AAMP,39.491665,-76.13611,ABERDEEN PROV GND,AIN,24,MD,MARYLAND,,AAMP,,,3J,W0ZUFF,,,
HNTM,33.9,10.116667,GABES,CTY,TN,TUNSA,TUNISIA,,HNTM,,,7S,FFWTK0,,,
NTNB,39.716667,-104.9,LOWRY,TNG,08,CO,COLORADO,,NTNB,,,3Q,FFWTK0,,,
VSTN,43.416668,-96.73333,SIOUX FALLS,NYI,46,SD,SOUTH DAKOTA,,VSTN,,,3Q,N00072,,,
QUEG,39.633335,-79.95,MORGANTOWN,CTY,54,WV,WEST VIRGINIA,,QUEG,,,3J,FFWTK0,,,
BQKY,45.783333,-108.5,BILLINGS,CTY,30,MT,MONTANA,,BQKY,,,3Q,FFWTK0,,,
JPPK,34.895557,-82.21889,GREENVILLE SPARTA,CAP,45,SC,SOUTH CAROLINA,KGSP,JPPK,,,3L,DMABAA,,,
HNRN,34.234165,-95.61916,ANTLERS,RTC,40,OK,OKLAHOMA,,HNRN,,,3P,W0ZUFF,,,
SAXL,33.95,-117.55,NORCO,CTY,06,CA,CALIFORNIA,,SAXL,,,3R,FFWTK0,,,
VSSB,42.4025,-96.384445,SIOUX GATEWAY COL,JAP,19,IA,IOWA,KSUX,VSSB,,,3V,DMABAA,,,
ARPZ,44.333332,-69.75,AUGUSTA,CTY,23,ME,MAINE,,ARPZ,,,3G,FFWTK0,,,
EZSE,32.896946,-97.038055,DALLAS FORT WORTH,CAP,48,TX,TEXAS,KDFW,EZSE,,,3P,DMABAA,,,
AVXW,21.3,-158.06667,BARBERS POINT NAS,AMO,15,HI,HAWAII,,AVXW,,,5N,N00011,,,
TQUD,36.783333,-76.333336,PORTSMOUTH,CTY,51,VA,VIRGINIA,,TQUD,,,3K,FFWTK0,,,
AVXU,21.3,-158.06667,KAPOLEI,CTY,15,HI,HAWAII,,AVXU,,,5N,DJ5000,,,
AVXV,21.307222,-158.07028,KALAELOA,JAP,15,HI,HAWAII,PHJR,AVXV,,,5N,DMABAA,,,
AVXS,21.300556,-158.1,BARBERS POINT CGA,CGI,15,HI,HAWAII,,AVXS,,,5N,DJ5000,,,
XHWN,35.366665,-86.2,TULLAHOMA,CTY,47,TN,TENNESSEE,,XHWN,,,3M,FFWTK0,,,
ARPM,37.68667,-97.97639,AUGUSTA,CTY,20,KS,KANSAS,,ARPM,,,3V,W0ZUFF,,,
HAYS,-25.474167,28.289722,FREEWAY,APT,ZA,SOAFR,SOUTH AFRICA,FAFW,HAYS,,,7B,DMABAA,,,
ERCH,39.35,-86.03333,CP ATTERBURY,AIN,18,IN,INDIANA,,ERCH,,,3W,W0ZUFF,,,
TQUK,36.816666,-76.3,PORTSMOUTH,NYI,51,VA,VIRGINIA,,TQUK,,,3K,N00011,,,
BDQZ,34.65,-106.78333,BELEN,CTY,35,NM,NEW MEXICO,,BDQZ,,,3P,FFWTK0,,,
QHLE,43.033333,-87.916664,MILWAUKEE,CTY,55,WI,WISCONSIN,,QHLE,,,3W,FFWTK0,,,
HAYW,36.77111,-119.71361,FRESNO IAP,ATM,06,CA,CALIFORNIA,,HAYW,,,3R,DMABAA,,,
TQUH,36.816666,-76.3,PORTSMOUTH,PRT,51,VA,VIRGINIA,,TQUH,,,3K,N00011,,,
ZBEN,34.233334,-77.916664,WILMINGTON,CTY,37,NC,NORTH CAROLINA,,ZBEN,,,3L,FFWTK0,,,
ZBES,34.233334,-77.95,WILMINGTON,PRT,37,NC,NORTH CAROLINA,,ZBES,,,3L,N00011,,,
XQKZ,40.116665,-88.2,URBANA,CTY,17,IL,ILLINOIS,,XQKZ,,,3W,FFWTK0,,,
ULKB,40.816666,-73.11667,RONKONKOMA,CTY,36,NY,NEW YORK,,ULKB,,,3H,FFWTK0,,,
AVYX,41.35,2.1666667,BARCELONA,PRT,ES,SPAIN,SPAIN,,AVYX,,,4N,DLAAAA,,,
LEXG,32.01,-81.14611,HUNTER AAF,MAP,13,GA,GEORGIA,KSVN,LEXG,,,3L,DMABAA,,,
AJAM,61.166668,-149.98334,ANCHORAGE,CTY,02,AK,ALASKA,,AJAM,,,35,FFWTK0,,,
LEXN,36,-121.23333,FT HUNTER LIGGETT,AIN,06,CA,CALIFORNIA,,LEXN,,,3R,W0ZUFF,,,
UHBY,37.283333,-79.95,ROANOKE,CTY,51,VA,VIRGINIA,,UHBY,,,3K,FFWTK0,,,
UHCE,37.325554,-79.975555,ROANOKE REGIONAL,CAP,51,VA,VIRGINIA,KROA,UHCE,,,3K,DMABAA,,,
FDHB,41.233334,-111.75,DEF DEPOT OGDEN,AIN,49,UT,UTAH,,FDHB,,,3Q,W0ZUFF,,,
ZSJC,30.583334,121.1,ZHAPU,PRT,CN,CHINA,CHINA,,ZSJC,,,58,DLAAAA,,,
KKGA,46.920555,-96.815834,HECTOR INTL,IAP,38,ND,NORTH DAKOTA,KFAR,KKGA,,,3Q,FFWTK0,,,
WJAE,27.181667,-80.22139,WITHAM FLD,CAP,12,FL,FLORIDA,KSUA,WJAE,,,3L,DMABAA,,,
ERDY,30,-81.98333,CP BLANDING,AIN,12,FL,FLORIDA,,ERDY,,,3L,W0ZUFF,,,
HNTS,33.85,10.116667,GABES,PRT,TN,TUNSA,TUNISIA,,HNTS,,,7S,DLAAAA,,,
AJBQ,61.174168,-149.99834,TED STEVENS ANCHO,IAP,02,AK,ALASKA,PANC,AJBQ,,,35,DMABAA,,,
AJBR,61.216667,-149.9,ANCHORAGE,PRT,02,AK,ALASKA,,AJBR,,,35,N00011,,,
LVXY,35.816666,-90.7,JONESBORO,CTY,05,AR,ARKANSAS,,LVXY,,,3N,FFWTK0,,,
TZHY,44.1,-103.23333,RAPID CITY,CTY,46,SD,SOUTH DAKOTA,,TZHY,,,3Q,FFWTK0,,,
XHZG,36.198334,-95.888054,TULSA INTL,JAP,40,OK,OKLAHOMA,KTUL,XHZG,,,3P,DMABAA,,,
HFDZ,33.416668,-82.13333,FT GORDON,AIN,13,GA,GEORGIA,,HFDZ,,,3L,W0ZUFF,,,
ZJXD,44.451668,-83.394165,OSCODA WURTSMITH,MAP,26,MI,MICHIGAN,KOSC,ZJXD,,,3W,DMABAA,,,
AAPV,5.25,-4.016667,ABIDJAN,PRT,CI,IVYCO,IVORY COAST,,AAPV,,,7A,DLAAAA,,,
HJMC,36.658333,-121.808334,FT ORD,AIN,06,CA,CALIFORNIA,,HJMC,,,3R,W0ZUFF,,,
XDQU,32.1275,-81.202225,SAVANNAH HILTON H,JAP,13,GA,GEORGIA,KSAV,XDQU,,,3L,DMABAA,,,
UTZU,35.266666,-120.666664,SAN LUIS OBISPO,AIN,06,CA,CALIFORNIA,,UTZU,,,3R,W0ZUFF,,,
XHZA,36.183334,-95.88333,TULSA,CTY,40,OK,OKLAHOMA,,XHZA,,,3P,FFWTK0,,,
BUWC,40.483334,-88.98333,BLOOMINGTON,CTY,17,IL,ILLINOIS,,BUWC,,,3W,FFWTK0,,,
TZL4,28.1,48.633335,RAS AL MISHAB,PRT,SA,SAUDI,SAUDI ARABIA,,TZL4,,,1X,DLAAAA,,,
CLAG,64.45333,-147.56361,CLEAR CREEK,APT,02,AK,ALASKA,2AK2,CLAG,,,35,DMABAA,,,
SWHZ,39.266666,-81.53333,PARKERSBURG,CTY,54,WV,WEST VIRGINIA,,SWHZ,,,3J,FFWTK0,,,
EZXV,36.833332,-76,DAM NECK,TNG,51,VA,VIRGINIA,,EZXV,,,3K,N00011,,,
RGJW,40.833332,14.266666,NAPLES,PRT,IT,ITALY,ITALY,,RGJW,,,4P,N00011,,,
PADV,42.966667,-71.46667,MANCHESTER,CTY,33,NH,NEW HAMPSHIRE,,PADV,,,3G,FFWTK0,,,
XDSV,37.783333,-122.316666,TREASURE IS   NST,STG,06,CA,CALIFORNIA,,XDSV,,,3S,N00011,,,
QHPF,24.516666,54.366665,MINA ZAYED,PRT,AE,UARAB,UNITED ARAB EMI,,QHPF,,,1S,DLAAAA,,,
ARTZ,39.729443,-104.83139,AURORA,CTY,08,CO,COLORADO,,ARTZ,,,3Q,FFWTK0,,,
WJAP,37.933334,-121.3,STOCKTON,CTY,06,CA,CALIFORNIA,,WJAP,,,3S,FFWTK0,,,
EEMW,32.516388,-84.93889,COLUMBUS,CAP,13,GA,GEORGIA,KCSG,EEMW,,,3L,DMABAA,,,
MUUU,42.75,-84.583336,LANSING,CTY,26,MI,MICHIGAN,,MUUU,,,3W,W0ZUFF,,,
QHPB,24.983334,55.05,JEBEL ALI,PRT,AE,UARAB,UNITED ARAB EMI,,QHPB,,,1S,DLAAAA,,,
BMGM,39.001667,-77.09278,WRNM MEDICAL CTR,HSP,24,MD,MARYLAND,,BMGM,,,3J,FFWTK0,,,
QHPD,25.966667,56.05,MINA SAQR,PRT,AE,UARAB,UNITED ARAB EMI,,QHPD,,,1S,DLAAAA,,,
YTPM,42.19389,-72.53472,WESTOVER ARB METR,ARB,25,MA,MASSACHUSETTS,KCEF,YTPM,,,3G,DMABAA,,,
GCCW,47.316666,-119.55,EPHRATA,AIN,53,WA,WASHINGTON,,GCCW,,,3T,W0ZUFF,,,
MQNA,38.761944,-27.090834,LAJES,IAP,PT,PORTU,PORTUGAL,LPLA,MQNA,,,4C,DMABAA,,,
CPJF,40.016666,-79.9,BROWNSVILLE,CTY,42,PA,PENNSYLVANIA,,CPJF,,,3J,FFWTK0,,,
ULLT,18.245277,-65.64333,JOSE APONTE DE LA,MAP,PR,PUERT,PUERTO RICO,TJRV,ULLT,,,37,DMABAA,,,
AARV,32.41139,-99.681946,ABILENE RGNL,CAP,48,TX,TEXAS,KABI,AARV,,,3P,DMABAA,,,
NGWV,32.733334,-117.18972,SAN DIEGO INTL,JAP,06,CA,CALIFORNIA,KSAN,NGWV,,,3R,DMABAA,,,
AART,32.45,-99.73333,ABILENE,CTY,48,TX,TEXAS,,AART,,,3P,FFWTK0,,,
TECV,40.0625,-75.92778,DMA DPO PHILADEL,DEP,42,PA,PENNSYLVANIA,,TECV,,,3J,DMAAAA,,,
ZFTU,41.516666,-70.666664,WOODS HOLE,CTY,25,MA,MASSACHUSETTS,,ZFTU,,,3G,FFWTK0,,,
ARUZ,41.75,-88.316666,AURORA,CTY,17,IL,ILLINOIS,,ARUZ,,,3W,FFWTK0,,,
UPWJ,38.583332,-121.48333,SACRAMENTO DEPOT,AIN,06,CA,CALIFORNIA,,UPWJ,,,3S,W0ZUFF,,,
EEPZ,33.64528,-88.44583,COLUMBUS AFB,MAP,28,MS,MISSISSIPPI,KCBM,EEPZ,,,3M,DMABAA,,,
MDWT,24.569445,-81.734726,KEY WEST NAVY,HSP,12,FL,FLORIDA,,MDWT,,,3L,FFWTK0,,,
RGNP,29.95,-90.05,NEW ORLEANS NAVSA,NYI,22,LA,LOUISIANA,,RGNP,,,3N,N00011,,,
CLCH,42.1,-71.01667,BROCKTON,CTY,25,MA,MASSACHUSETTS,,CLCH,,,3G,FFWTK0,,,
JPXG,34.183334,-82.166664,GREENWOOD,CTY,45,SC,SOUTH CAROLINA,,JPXG,,,3L,FFWTK0,,,
MDWY,24.575834,-81.68889,KEY WEST NAS,MAP,12,FL,FLORIDA,KNQX,MDWY,,,3L,DMABAA,,,
UPWV,38.5,-121.5,SACRAMENTO,CTY,06,CA,CALIFORNIA,,UPWV,,,3S,FFWTK0,,,
UHGN,31.067223,-97.82889,ROBERT GRAY AAF,JAP,48,TX,TEXAS,KGRK,UHGN,,,3P,DMABAA,,,
LNLM,42.533333,-93.26667,IOWA AR AMMO PLT,AIN,19,IA,IOWA,,LNLM,,,3V,W0ZUFF,,,
MMGH,34.894444,127.64667,KWANGYANG,PRT,KR,SKORE,"KOREA, REP OF",,MMGH,,,5H,DJ9000,,,
TEBQ,39.916668,-75.083336,PHILADELPHIA NAV,HSP,42,PA,PENNSYLVANIA,,TEBQ,,,3J,N00011,,,
ERIE,42.135555,-80.0525,ERIE,RTC,42,PA,PENNSYLVANIA,,ERIE,,,3J,W0ZUFF,,,
MDVL,32.3325,-88.751945,KEY FLD,JAP,28,MS,MISSISSIPPI,KMEI,MDVL,,,3M,DMABAA,,,
SFHB,29.2,-82.15,OCALA,CTY,12,FL,FLORIDA,,SFHB,,,3L,FFWTK0,,,
VXBD,42.4,-71.11667,SOMERVILLE,CTY,25,MA,MASSACHUSETTS,,VXBD,,,3G,FFWTK0,,,
HFHZ,40.583332,-74.03333,FT HAMILTON,AIN,36,NY,NEW YORK,,HFHZ,,,3H,W0ZUFF,,,
GKVB,51.683334,-1.79,FAIRFORD,MAP,GB,UK,UNITED KINGDOM,EGVA,GKVB,,,4L,DMABAA,,,
LRUD,33.3,-83.96667,JACKSON,CTY,13,GA,GEORGIA,,LRUD,,,3L,W0ZUFF,,,
GGNF,47.983334,-122.2,EVERETT,CTY,53,WA,WASHINGTON,,GGNF,,,3T,FFWTK0,,,
DBMT,37.316666,-89.51667,CAPE GIRARDEAU,CTY,29,MO,MISSOURI,,DBMT,,,3V,FFWTK0,,,
GGNJ,48,-122.21667,EVERETT,PRT,53,WA,WASHINGTON,,GGNJ,,,3T,N00011,,,
CCTS,37,-86.45,BOWLING GREEN,CTY,21,KY,KENTUCKY,,CCTS,,,3M,FFWTK0,,,
MDYH,48.333332,-122.65,WHIDBEY IS     SB,STG,53,WA,WASHINGTON,,MDYH,,,3T,N00011,,,
UHHZ,32.640278,-83.59194,ROBINS AFB,MAP,13,GA,GEORGIA,KWRB,UHHZ,,,3L,DMABAA,,,
AJGX,43.616665,13.5,ANCONA,PRT,IT,ITALY,ITALY,,AJGX,,,4P,DLAAAA,,,
NPMM,33.418056,-94.41805,LONE STAR AMMO PL,AIN,48,TX,TEXAS,,NPMM,,,3P,W0ZUFF,,,
DKAD,35.3,-94.047226,CHARLESTON,CTY,05,AR,ARKANSAS,,DKAD,,,3N,W0ZUFF,,,
PNCZ,43.1,-76.15,MATTYDALE,CTY,36,NY,NEW YORK,,PNCZ,,,3H,W0ZUFF,,,
PAJP,46.816666,-100.9,MANDAN,CTY,38,ND,NORTH DAKOTA,,PAJP,,,3Q,FFWTK0,,,
HJTH,27.466667,-80.333336,FT PIERCE,CTY,12,FL,FLORIDA,,HJTH,,,3L,FFWTK0,,,
HJTL,27.466667,-80.333336,FORT PIERCE,PRT,12,FL,FLORIDA,,HJTL,,,3L,N00011,,,
LRXQ,32.31111,-90.075836,JACKSON EVERS INT,IAP,28,MS,MISSISSIPPI,KJAN,LRXQ,,,3M,DMABAA,,,
LWAT,37.066666,-94.51667,JOPLIN,CTY,29,MO,MISSOURI,,LWAT,,,3V,FFWTK0,,,
PEQA,33.916668,-84.51667,MARIETTA,COM,13,GA,GEORGIA,,PEQA,,,3L,FFWTK0,,,
MDXB,24.552778,-81.8,KEY WEST,PRT,12,FL,FLORIDA,,MDXB,,,3L,N00011,,,
ENCB,27.683332,-97.26667,CORPUS CHRISTI,STG,48,TX,TEXAS,,ENCB,,,3P,1A1AAA,,,
XQPZ,39,-104.88333,USAF ACADEMY,SCH,08,CO,COLORADO,,XQPZ,,,3Q,FFWTK0,,,
ENCF,27.8,-97.4,CORPUS CHRISTI,CTY,48,TX,TEXAS,,ENCF,,,3P,FFWTK0,,,
PEQE,33.95,-84.566666,MARIETTA,CTY,13,GA,GEORGIA,,PEQE,,,3L,FFWTK0,,,
SJRF,41.25,-96,OMAHA,COM,31,NE,NEBRASKA,,SJRF,,,3V,FFWTK0,,,
PEQF,33.9,-84.51667,MARIETTA      NAS,STG,13,GA,GEORGIA,,PEQF,,,3L,N00011,,,
ENCJ,27.690556,-97.289444,CORPUS CHRISTI,DEP,48,TX,TEXAS,,ENCJ,,,3P,W0ZUFF,,,
PVSB,40.22278,-76.985275,MECHANICSBURG,STG,42,PA,PENNSYLVANIA,,PVSB,,,3J,1A1AAA,,,
NTUC,21.416666,-158.16667,LUALUALEI NAVMAG,AMO,15,HI,HAWAII,,NTUC,,,5N,N00011,,,
ENCK,27.692778,-97.290276,CORPUS CHRISTI NA,MAP,48,TX,TEXAS,KNGP,ENCK,,,3P,DMABAA,,,
JUBJ,33.97361,-86.086945,MAXWELL GUNTER AF,AFS,01,AL,ALABAMA,,JUBJ,,,3M,FFWTK0,,,
PVSD,40.216667,-77.01667,MECHANICSBURG,STG,42,PA,PENNSYLVANIA,,PVSD,,,3J,FFWTK0,,,
NTUF,21.416666,-158.16667,LUALUALEI NMD,NYI,15,HI,HAWAII,,NTUF,,,5N,N00011,,,
ENCN,27.816668,-97.4,CORPUS CHRISTI NA,PRT,48,TX,TEXAS,,ENCN,,,3P,N00011,,,
SJRM,41.25,-96,OMAHA,CTY,31,NE,NEBRASKA,,SJRM,,,3V,FFWTK0,,,
PRJY,38.667778,-121.40056,MC CLELLAN AFLD,APT,06,CA,CALIFORNIA,KMCC,PRJY,,,3S,DMABAA,,,
YLDM,41.7,-71.38333,WARWICK,CTY,44,RI,RHODE ISLAND,,YLDM,,,3G,FFWTK0,,,
CPNF,25.916666,-97.5,BROWNSVILLE,CTY,48,TX,TEXAS,,CPNF,,,3P,FFWTK0,,,
MDYA,47.8,-122.6,KEYPORT NTS,AMO,53,WA,WASHINGTON,,MDYA,,,3T,N00011,,,
JLQN,40.664165,-89.69334,GENERAL DOWNING P,JAP,17,IL,ILLINOIS,KPIA,JLQN,,,3W,DMABAA,,,
PVSE,40.216667,-77.01667,MECHANICSBURG ICP,STG,42,PA,PENNSYLVANIA,,PVSE,,,3J,N00011,,,
NTUH,21.366667,-157.96666,LUALUALEI WEST LO,PRT,15,HI,HAWAII,,NTUH,,,5N,N00011,,,
JLSS,40.49139,-80.23278,PITTSBURGH INTL,JAP,42,PA,PENNSYLVANIA,KPIT,JLSS,,,3J,DMABAA,,,
HJUT,31.833334,-81.666664,FT STEWART,CTY,13,GA,GEORGIA,,HJUT,,,3L,FFWTK0,,,
TRAH,21.366667,-157.88333,TRIPLER,HSP,15,HI,HAWAII,,TRAH,,,5N,DKAAAA,,,
SBDZ,36.85,-76.3,NORFOLK,NYI,51,VA,VIRGINIA,,SBDZ,,,3K,N00011,,,
SBDW,36.93778,-76.28917,NORFOLK NS,MAP,51,VA,VIRGINIA,KNGU,SBDW,,,3K,DMABAA,,,
VKNG,34.75,10.716666,SFAX,CTY,TN,TUNSA,TUNISIA,,VKNG,,,7S,FFWTK0,,,
GXTN,47.633335,-117.65,FOUR LAKES,COM,53,WA,WASHINGTON,,GXTN,,,3T,FFWTK0,,,
HFMZ,39.983334,-82.98333,FT HAYES,AIN,39,OH,OHIO,,HFMZ,,,3W,W0ZUFF,,,
FUQN,34.71639,10.691667,THYNA,IAP,TN,TUNSA,TUNISIA,DTTX,FUQN,,,7S,DMABAA,,,
SBEA,36.91,-76.3275,NORFOLK,PRT,51,VA,VIRGINIA,,SBEA,,,3K,N00011,,,
RPCM,40.216667,-76.833336,NEW CUMBERLAND DP,AIN,42,PA,PENNSYLVANIA,,RPCM,,,3J,W0ZUFF,,,
HJVH,31.033333,-93.183334,FT POLK,AIN,22,LA,LOUISIANA,,HJVH,,,3N,W0ZUFF,,,
HBFB,39.175278,-76.668335,BALTIMORE WASHING,CAP,24,MD,MARYLAND,KBWI,HBFB,,,3J,DMABAA,,,
HJVJ,31.066668,-93.2,FT POLK,STG,22,LA,LOUISIANA,,HJVJ,,,3N,1A1AAA,,,
TVJD,35.083332,129.08223,PUSAN MILITARY TE,PRT,KR,SKORE,"KOREA, REP OF",,TVJD,,,5H,DLAAAA,,,
SBEQ,36.933334,-76.28333,NORFOLK T2,PRT,51,VA,VIRGINIA,,SBEQ,,,,,,,
MQUK,30.2,-82.61667,LAKE CITY,CTY,12,FL,FLORIDA,,MQUK,,,3L,FFWTK0,,,
PRNG,34.013054,-84.59695,COBB CO MC COLLUM,APT,13,GA,GEORGIA,KRYY,PRNG,,,3L,FFWTK0,,,
SBEN,36.833332,-76.3,NORFOLK NAVY,ADM,51,VA,VIRGINIA,,SBEN,,,3K,FFWTK0,,,
VKNP,34.733334,10.766666,SFAX,PRT,TN,TUNSA,TUNISIA,,VKNP,,,7S,DLAAAA,,,
NLFL,53.416668,-3,LIVERPOOL,PRT,GB,UK,UNITED KINGDOM,,NLFL,,,4L,DLAAAA,,,
MQST,30.133333,-93.2,LAKE CHARLES,CTY,22,LA,LOUISIANA,,MQST,,,3N,FFWTK0,,,
FUPD,36.9,8.433333,EL KALA,PRT,DZ,ALGER,ALGERIA,,FUPD,,,7R,DLAAAA,,,
LRXY,32.333332,-90.183334,JACKSON,CTY,28,MS,MISSISSIPPI,,LRXU,,,3M,FFWTK0,,,
AJJY,13.583889,144.93,ANDERSEN AFB,MAP,GU,GUAM,GUAM,PGUA,AJJY,,,5G,DMABAA,,,
SBDD,36.85,-76.28333,NORFOLK GSA FAC,DEP,51,VA,VIRGINIA,,SBDD,,,3K,W0ZUFF,,,
SWMT,41.25,-81.78333,PARMA,CTY,39,OH,OHIO,,SWMT,,,3W,FFWTK0,,,
NTWF,33.583332,-101.85,LUBBOCK,CTY,48,TX,TEXAS,,NTWF,,,3P,FFWTK0,,,
UHJK,32.633335,-83.6,ROBINS,STG,13,GA,GEORGIA,,UHJK,,,3L,FFWTK0,,,
SBDJ,36.833332,-76.3,NORFOLK,CTY,51,VA,VIRGINIA,,SBDJ,,,3K,FFWTK0,,,
GKZK,39.5,-80.2,FAIRMONT,CTY,54,WV,WEST VIRGINIA,,GKZK,,,3J,FFWTK0,,,
SBDG,36.933334,-76.28333,NORFOLK       NSC,STG,51,VA,VIRGINIA,,SBDG,,,3K,N00011,,,
NTWM,33.663612,-101.82056,LUBBOCK PRESTON S,CAP,48,TX,TEXAS,KLBB,NTWM,,,3P,DMABAA,,,
SBDQ,36.894722,-76.20111,NORFOLK INTL,CAP,51,VA,VIRGINIA,KORF,SBDQ,,,3K,DMABAA,,,
SBDP,36.933334,-76.28333,NORFOLK NST,STG,51,VA,VIRGINIA,,SBDP,,,3K,N00011,,,
BQUG,42.1,-75.916664,BINGHAMTON,CTY,36,NY,NEW YORK,,BQUG,,,3H,FFWTK0,,,
JLSN,40.452778,-79.775,PITTSBURGH MONROE,AFD,42,PA,PENNSYLVANIA,K4G0,JLSN,,,3J,FFWTK0,,,
BQWA,24.766666,67.333336,MUHAMMAD QASIM,PRT,PK,PAKIS,PAKISTAN,,BQWA,,,1Y,DLAAAA,,,
YLHU,38.883335,-77.03333,WASHINGTON,NAV,11,DC,DI OF COLUMBIA,,YLHU,,,3K,FFWTK0,,,
FMCH,32.516666,-82.9,DUBLIN,CTY,13,GA,GEORGIA,,FMCH,,,3L,FFWTK0,,,
YHAJ,42.2,-72.53333,WORCHESTER 01,COM,25,MA,MASSACHUSETTS,,YHAJ,,,3G,FFWTK0,,,
VGHV,23.593056,58.284443,MUSCAT INTL,JAP,OM,OMAN,OMAN,OOMS,VGHV,,,1S,DMABAA,,,
TABN,30.423334,-87.21833,PENSACOLA NAVY,HSP,12,FL,FLORIDA,,TABN,,,3L,FFWTK0,,,
FUTD,31.766666,-106.46667,EL PASO,CTY,48,TX,TEXAS,,FUTD,,,3P,FFWTK0,,,
LWEV,27,49.666668,JUBAIL PORT,PRT,SA,SAUDI,SAUDI ARABIA,,LWEV,,,1X,DLAAAA,,,
DBRT,39.083332,-74.816666,CAPE MAY,CTY,34,NJ,NEW JERSEY,,DBRT,,,3H,FFWTK0,,,
FMAZ,25.25,55.266666,DUBAI,PRT,AE,UARAB,UNITED ARAB EMI,,FMAZ,,,1S,DLAAAA,,,
TMYB,36.266666,-90.416664,POPLAR BLUFF,CTY,29,MO,MISSOURI,,TMYB,,,3V,FFWTK0,,,
TZRL,41.55,-81.083336,RAVENNA AMMO PLNT,AIN,39,OH,OHIO,,TZRL,,,3W,W0ZUFF,,,
MQUZ,39.1,-94.21667,LAKE CTY AMMO PLT,AIN,29,MO,MISSOURI,,MQUZ,,,3V,W0ZUFF,,,
CHBM,32.8,-79.95,CHARLESTON,ADM,45,SC,SOUTH CAROLINA,,CHBM,,,3L,FFWTK0,,,
QYZH,43.04361,-115.8725,MOUNTAIN HOME AFB,MAP,16,ID,IDAHO,KMUO,QYZH,,,3T,DMABAA,,,
GPEN,51.95,1.3166667,FELIXSTOWE,PRT,GB,UK,UNITED KINGDOM,,GPEN,,,4L,N00011,,,
CYCQ,33.516666,-92.833336,CAMDEN,CTY,05,AR,ARKANSAS,,CYCQ,,,3N,FFWTK0,,,
CHBA,34.906387,-76.9,CHERRY POINT,HSP,37,NC,NORTH CAROLINA,,CHBA,,,3L,N00011,,,
BQWK,34.7525,8.075277,BIR EL ATER,APT,DZ,ALGER,ALGERIA,,BQWK,,,7R,DMABAA,,,
AJND,40.105278,-85.680275,ANDERSON,CTY,18,IN,INDIANA,,AJND,,,3W,FFWTK0,,,
CHCY,53.55,8.55,BREMERHAVEN,PRT,DE,GERMA,GERMANY,,CHCQ,,,4K,DLAAAA,,,
HSKD,32.916668,-96.61667,GARLAND,AGS,48,TX,TEXAS,,HSKD,,,3P,FFWTK0,,,
QMDU,39.433334,-92.433334,MOBERLY,CTY,29,MO,MISSOURI,,QMDU,,,3V,FFWTK0,,,
MZJK,49.466667,0.11666667,LE HAVRE,PRT,FR,FRANC,FRANCE,,MZJK,,,4M,DLAAAA,,,
DKGJ,32.90333,-79.97972,NORTH CHARLESTON,RTC,45,SC,SOUTH CAROLINA,,DKGJ,,,3L,W0ZUFF,,,
DKGK,32.8,-79.96667,CHARLESTON,CTY,45,SC,SOUTH CAROLINA,,DKFX,,,3L,FFWTK0,,,
DKGL,32.77639,-79.93139,CHARLESTON,NYI,45,SC,SOUTH CAROLINA,,DKGL,,,3L,N00072,,,
FMEN,42.500557,-90.664444,DUBUQUE,CTY,19,IA,IOWA,,FMEN,,,3V,FFWTK0,,,
HJZH,61.25,-149.75,FT RICHARDSON,AIN,02,AK,ALASKA,,HJZH,,,35,W0ZUFF,,,
NPTG,33.766666,-118.2,LONG BEACH,CTY,06,CA,CALIFORNIA,,NPTG,,,3R,FFWTK0,,,
HJZJ,61.25,-149.78334,FT RICHARDSON,ADM,02,AK,ALASKA,,HJZJ,,,35,1A1AAA,,,
DKGT,32.9,-80.03333,CHARLESTON    NWS,AMO,45,SC,SOUTH CAROLINA,,DKGT,,,3L,N00011,,,
ZBUL,35.183334,-86.11667,WINCHESTER,CTY,47,TN,TENNESSEE,,ZBUL,,,3M,W0ZUFF,,,
NPTN,33.935276,-118.401665,LONG BEACH CGAS,ANX,06,CA,CALIFORNIA,,NPTN,,,3R,DJ5000,,,
JHPM,34.99111,-78.88028,FAYETTEVILLE RGNL,CAP,37,NC,NORTH CAROLINA,KFAY,JHPM,,,3L,DMABAA,,,
EAQQ,35.533333,-82.916664,CLYDE,CTY,37,NC,NORTH CAROLINA,,EAQQ,,,3L,FFWTK0,,,
NPTM,33.81778,-118.151665,LONG BEACH,CAP,06,CA,CALIFORNIA,KLGB,NPTM,,,3R,DMABAA,,,
WAZX,29.866667,-81.333336,ST AUGUSTINE,CTY,12,FL,FLORIDA,,WAZX,,,3L,FFWTK0,,,
ENID,36.427223,-97.88167,ENID,RTC,40,OK,OKLAHOMA,,ENID,,,3P,W0ZUFF,,,
YLJF,38.916668,-77.066666,WASHINGTON,CTY,11,DC,DI OF COLUMBIA,,YLHT,,,3K,FFWTK0,,,
FUTL,31.807222,-106.37639,EL PASO INTL,CAP,48,TX,TEXAS,KELP,FUTL,,,3P,DMABAA,,,
GPGK,37.1325,-76.60861,FELKER AAF,MAP,51,VA,VIRGINIA,KFAF,GPGK,,,3K,DMABAA,,,
SFPH,36.822777,-76.031944,OCEANA NAS,MAP,51,VA,VIRGINIA,KNTU,SFPH,,,3K,DMABAA,,,
JYPN,53.533333,9.95,HAMBURG,PRT,DE,GERMA,GERMANY,,JYPN,,,4K,DLAAAA,,,
EAPD,34.4,-103.183334,CLOVIS,CTY,35,NM,NEW MEXICO,,EAPD,,,3P,FFWTK0,,,
FQLT,33.666668,-84.45,EAST POINT,CTY,13,GA,GEORGIA,,FQLT,,,3L,DKAACA,,,
PRQE,37.623055,-97.2675,MC CONNELL AFB,MAP,20,KS,KANSAS,KIAB,PRQE,,,3V,DMABAA,,,
SFPM,36.833332,-76.03333,OCEANA,NAV,51,VA,VIRGINIA,,SFPM,,,3K,FFWTK0,,,
DKFX,32.898613,-80.04056,JB CHARLESTON,JAP,45,SC,SOUTH CAROLINA,KCHS,DKFX,,,3L,DMABAA,,,
DKFY,32.783333,-79.916664,CHARLESTON NAVY,AMO,45,SC,SOUTH CAROLINA,,DKFY,,,3L,FFWTK0,,,
CLLH,36.066666,-95.8,BROKEN ARROW,CTY,40,OK,OKLAHOMA,,CLLH,,,3P,FFWTK0,,,
JLWS,39.67861,-75.60667,NEW CASTLE,JAP,10,DE,DELAWARE,KILG,JLWS,,,3J,DMABAA,,,
CYEQ,39.933334,-75.11667,CAMDEN,CTY,34,NJ,NEW JERSEY,,CYEQ,,,3H,FFWTK0,,,
PRQG,37.623055,-97.26722,MCCONNELL     ANG,ANX,20,KS,KANSAS,,PRQE,,,3V,FFWTK0,,,
WFGE,40.783333,-77.86667,STATE COLLEGE,AGS,42,PA,PENNSYLVANIA,,WFGE,,,3J,FFWTK0,,,
XEBA,40.216667,-74.75,TRENTON,CTY,34,NJ,NEW JERSEY,,XEBA,,,3H,FFWTK0,,,
ULYB,39.771946,-94.90972,ROSECRANS MEM,JAP,29,MO,MISSOURI,KSTJ,ULYB,,,3V,DMABAA,,,
CHEX,47.566666,-122.65,BREMERTON SEALAND,PRT,53,WA,WASHINGTON,,CHEX,,,3T,N00011,,,
FDVA,40.283333,-83.05,DELAWARE,CTY,39,OH,OHIO,,FDVA,,,3W,FFWTK0,,,
CHEV,47.566666,-122.65,BREMERTON,NYI,53,WA,WASHINGTON,,CHEV,,,3T,N00011,,,
ZBVU,39.166668,-78.2,WINCHESTER,CTY,51,VA,VIRGINIA,,ZBVU,,,3K,FFWTK0,,,
QMFU,30.683332,-88.05,MOBILE,CTY,01,AL,ALABAMA,,QMFU,,,3M,FFWTK0,,,
SBKE,39.52778,-87.360275,N TERRE HAUTE,CTY,18,IN,INDIANA,,SBKE,,,3W,FFWTK0,,,
JQCS,34.95,-82.21667,GREER,CTY,45,SC,SOUTH CAROLINA,,JQCS,,,3L,FFWTK0,,,
QMFZ,30.683332,-88.11667,MOBILE,PRT,01,AL,ALABAMA,,QMFZ,,,3M,N00011,,,
YLMY,38.816666,-76.86667,WASHINGTON DC,NAV,11,DC,DI OF COLUMBIA,,YLMY,,,3K,DMABAA,,,
VGLZ,42.613888,-82.836945,SELFRIDGE ANGB,MAP,26,MI,MICHIGAN,KMTC,VGLZ,,,3W,DMABAA,,,
LSAU,35.616665,-88.833336,JACKSON,CTY,47,TN,TENNESSEE,,LSAU,,,3M,FFWTK0,,,
SWUM,34.15,-118.166664,PASADENA,CTY,06,CA,CALIFORNIA,,SWUM,,,3R,FFWTK0,,,
NPVL,41.166668,-73,LONG ISLAND,BAY,36,NY,NEW YORK,,NPVL,,,3H,N00011,,,
MEAN,35.356667,-89.87055,MILLINGTON RGNL,APT,47,TN,TENNESSEE,KNQA,MEAN,,,3M,DMABAA,,,
NPTW,33.766666,-118.183334,LONG BEACH    NSY,NYI,06,CA,CALIFORNIA,,NPTW,,,3R,N00011,,,
UYQR,33.166668,129.71666,SASEBO,PRT,JP,JAPAN,JAPAN,,UYQR,,,5H,DJ5000,,,
NPTR,33.75,-118.2,LONG BEACH NSC,PRT,06,CA,CALIFORNIA,,NPTR,,,3R,N00011,,,
MMQR,43.816666,-91.25,LA CROSSE,CTY,55,WI,WISCONSIN,,MMQR,,,3W,FFWTK0,,,
NPTU,33.766666,-118.183334,LONG BEACH,PRT,06,CA,CALIFORNIA,,NPTU,,,3R,N00011,,,
SJZQ,43.883335,-91.21917,ONALASKA,CTY,55,WI,WISCONSIN,,SJZQ,,,3W,W0ZUFF,,,
VKSB,35.5,-119.26667,SHAFTER,ANX,06,CA,CALIFORNIA,,VKSB,,,3R,FFWTK0,,,
KGLC,31.333334,-89.316666,HATTIESBURG,CTY,28,MS,MISSISSIPPI,,KGLC,,,3M,FFWTK0,,,
ASAZ,30.266666,-97.71667,AUSTIN,CTY,48,TX,TEXAS,,ASAZ,,,3P,FFWTK0,,,
FQNZ,38.6,-90.15,E ST LOUIS,CTY,17,IL,ILLINOIS,,FQNZ,,,3W,FFWTK0,,,
DGAB,30.21889,-81.87722,CECIL,MAP,12,FL,FLORIDA,KVQQ,DGAB,,,3L,DMABAA,,,
YLLN,38.816666,-76.86667,WASHINGTON 02,CTY,24,MD,MARYLAND,,YLLN,,,3J,FFWTK0,,,
YLLM,38.916668,-77,WASHINGTON 01,CTY,11,DC,DI OF COLUMBIA,,YLLM,,,3K,FFWTK0,,,
KXPD,44.934723,-93.06028,ST PAUL DOWNTOWN,JAP,27,MN,MINNESOTA,KSTP,KXPD,,,3W,DMABAA,,,
ASCE,44.484722,-88.12972,AUSTIN STRAUBEL I,CAP,55,WI,WISCONSIN,KGRB,ASCE,,,3W,DMABAA,,,
UULX,33.75,-118.25,SAN PEDRO,PRT,06,CA,CALIFORNIA,,UULX,,,3R,N00011,,,
MMUL,45.333332,-118.11667,LA GRANDE,CTY,41,OR,OREGON,,MMUL,,,3T,W0ZUFF,,,
FQQZ,41.85,-72.6,E WINDSOR,CTY,09,CT,CONNECTICUT,,FQQZ,,,3G,FFWTK0,,,
YUAC,32.550835,-114.50528,YUMA AUX 2,AFD,04,AZ,ARIZONA,,YUAC,,,3R,DJJ010,,,
FUZD,33.673332,-117.73,EL TORO MCAS,MAP,06,CA,CALIFORNIA,KNZJ,FUZD,,,3R,DMABAA,,,
ABAA,32.35,-86.3625,ABSTON,AGS,01,AL,ALABAMA,,ABAA,,,3M,FFWTK0,,,
AFKB,33.016666,-81.3,ALLENDALE,CTY,45,SC,SOUTH CAROLINA,,AFKB,,,3L,FFWTK0,,,
HFTZ,31.133333,-97.76667,FT HOOD,AIN,48,TX,TEXAS,,HFTZ,,,3P,W0ZUFF,,,
BVGM,39.25,-84.38333,BLUE ASH,AGS,39,OH,OHIO,,BVGM,,,3W,FFWTK0,,,
PASP,39.183334,-96.57139,MANHATTAN,CTY,20,KS,KANSAS,,PASP,,,3V,FFWTK0,,,
LSBC,29.95,-90,JACKSON BARRACKS,AGS,22,LA,LOUISIANA,,LSBC,,,3N,FFWTK0,,,
QDVL,41.56222,-72.65111,MIDDLETOWN,CTY,09,CT,CONNECTICUT,,QDVL,,,3G,FFWTK0,,,
SBLE,40.116665,-75.35,NORRISTOWN,CTY,42,PA,PENNSYLVANIA,,SBLE,,,3J,FFWTK0,,,
ERUW,39.45,-79.71667,CP DAWSON,AIN,54,WV,WEST VIRGINIA,,ERUW,,,3J,W0ZUFF,,,
UULB,4.733333,-6.616667,SAN PEDRO,PRT,CI,IVYCO,IVORY COAST,,UULB,,,7A,DLAAAA,,,
ANZY,35.383335,-86.083336,ARNOLD,AFS,47,TN,TENNESSEE,,ANZY,,,3M,FFWTK0,,,
UULA,-33.683334,-59.633335,SAN PEDRO,PRT,AR,ARGEN,ARGENTINA,,UULA,,,6E,DLAAAA,,,
TZYR,16.933332,54,SALALAH MINA RAYS,PRT,OM,OMAN,OMAN,,TZYR,,,1S,DLAAAA,,,
GCRR,42.133335,-80.03333,ERIE,PRT,42,PA,PENNSYLVANIA,,GCRR,,,3J,FFWTK0,,,
YLQG,38.883335,-77.03333,WASHINGTON TEMP 8,ADM,11,DC,DI OF COLUMBIA,,YLQG,,,3K,FFWTK0,,,
YLQH,38.822224,-76.03611,WASHINGTON NS,NYI,11,DC,DI OF COLUMBIA,,YLQH,,,3K,N00011,,,
NDAM,39.983334,-77.65,LETTERKENNY DEPOT,AIN,42,PA,PENNSYLVANIA,,NDAM,,,3J,W0ZUFF,,,
GTVP,34.2,-79.73333,FLORENCE,CTY,45,SC,SOUTH CAROLINA,,GTVP,,,3L,FFWTK0,,,
DXFX,37.630833,-81.68305,CLEAR FORK,CTY,54,WV,WEST VIRGINIA,,DXFX,,,3J,FFWTK0,,,
NDAN,39.983334,-77.65,LETTERKENNY DEPOT,AMO,42,PA,PENNSYLVANIA,,NDAN,,,3J,W0ZUFF,,,
LSEK,30.333334,-81.666664,JACKSONVILLE,COM,12,FL,FLORIDA,,LSEK,,,3L,W0ZUFF,,,
FMKT,46.782223,-92.10667,DULUTH,NYI,27,MN,MINNESOTA,,FMKT,,,3W,N00072,,,
PRXK,39.635834,-81.85,MCCONNELSVILLE,CTY,39,OH,OHIO,,PRXK,,,3W,W0ZUFF,,,
WFKY,21.519444,-158.00583,WAHIAWA,COM,15,HI,HAWAII,,WFKY,,,5N,FFWTK0,,,
FMKZ,46.816666,-92.083336,DULUTH,CTY,27,MN,MINNESOTA,,FMKZ,,,3W,FFWTK0,,,
JHVQ,35.16722,-107.90195,GRANTS MILAN MUNI,CAP,35,NM,NEW MEXICO,KGNT,JHVQ,,,3P,DMABAA,,,
QQSN,32.35,-85.333336,MONTGOMERY,CTY,01,AL,ALABAMA,,QQSN,,,3M,FFWTK0,,,
CYJU,34.266666,-80.6,CAMDEN,CTY,45,SC,SOUTH CAROLINA,,CYJU,,,3L,FFWTK0,,,
SWYM,30.35,-88.53333,PASCAGOULA,CTY,28,MS,MISSISSIPPI,,SWYM,,,3M,FFWTK0,,,
MVHZ,41.333332,-105.63333,LARAMIE,CTY,56,WY,WYOMING,,MVHZ,,,3Q,FFWTK0,,,
VCHR,21.483334,-158.08333,SCHOFIELD BRKS,AIN,15,HI,HAWAII,,VCHR,,,5N,W0ZUFF,,,
JYVJ,34.133335,-87.98333,HAMILTON,CTY,01,AL,ALABAMA,,JYVJ,,,3M,FFWTK0,,,
PJFS,33.98611,-86.06389,MARTIN,AGS,01,AL,ALABAMA,,PJFS,,,3M,FFWTK0,,,
HFVZ,31.55,-110.333336,FT HUACHUCA,AIN,04,AZ,ARIZONA,,HFVZ,,,3R,W0ZUFF,,,
SBNB,32.699165,-117.21528,N ISLAND,NYI,06,CA,CALIFORNIA,,SBNB,,,3R,N00011,,,
BRAE,47.594444,-122.69028,BREMERTON,HSP,53,WA,WASHINGTON,,BRAE,,,3T,N00011,,,
FMJN,38.9475,-77.46,WASHINGTON DULLES,IAP,51,VA,VIRGINIA,KIAD,FMJN,,,3K,DMABAA,,,
CHJY,30.15,-96.4,BRENHAM,CTY,48,TX,TEXAS,,CHJY,,,3P,FFWTK0,,,
GLEN,38.833332,-104.833336,SCHRIEVER AFB,ABS,08,CO,COLORADO,,GLEN,,,3Q,FFWTK0,,,
BEGS,29.855,-89.988335,BELLE CHASSE,CTY,22,LA,LOUISIANA,,BEGS,,,3N,FFWTK0,,,
SBNP,32.7,-117.2,N ISLAND NAS,STG,06,CA,CALIFORNIA,,SBNP,,,3R,N00011,,,
LWLZ,44.583332,-89.76667,JUNCTION CITY,CTY,55,WI,WISCONSIN,,LWLZ,,,3W,W0ZUFF,,,
NYJY,33.06778,-96.06528,MAJORS,CAP,48,TX,TEXAS,KGVT,NYJY,,,3P,DMABAA,,,
LSGB,30.233334,-81.683334,JACKSONVILLE,STG,12,FL,FLORIDA,,LSGB,,,3L,1A1AAA,,,
DGGB,42.008335,-91.64389,CEDAR RAPIDS,CTY,19,IA,IOWA,,DGFU,,,3V,FFWTK0,,,
LSGA,30.494167,-81.687775,JACKSONVILLE INTL,JAP,12,FL,FLORIDA,KJAX,LSEK,,,3L,DMABAA,,,
BVJS,37.7,-84.21667,BLUE GRASS DEPOT,AMO,21,KY,KENTUCKY,,BVJS,,,3M,W0ZUFF,,,
SWZZ,46.25,-119.11667,PASCO,CTY,53,WA,WASHINGTON,,SWZZ,,,3T,FFWTK0,,,
LFMS,38.416668,-82.416664,HUNTINGTON,CTY,54,WV,WEST VIRGINIA,,LFMS,,,3J,FFWTK0,,,
PAXM,14.583333,120.96667,MANILA,PRT,PH,PHILI,PHILIPPINES,,PAXM,,,5C,DLAAAA,,,
LSGG,30.5,-81.683334,JACKSONVILLE,ADM,12,FL,FLORIDA,,LSGG,,,3L,FFWTK0,,,
PNQS,32.383057,-86.36584,MAXWELL AFB,MAP,01,AL,ALABAMA,KMXF,PNQS,,,3M,DMABAA,,,
WJUP,41.184444,-73.13361,STRATFORD,CTY,09,CT,CONNECTICUT,,WJUP,,,3G,FFWTK0,,,
LSGE,30.233889,-81.675,JACKSONVILLE NAS,MAP,12,FL,FLORIDA,KNIP,LSEK,,,3L,DMABAA,,,
LSGM,30.333334,-81.666664,JACKSONVILLE,PRT,12,FL,FLORIDA,,LSGE,,,3L,N00011,,,
AFMY,40.6,-75.5,ALLENTOWN,CTY,42,PA,PENNSYLVANIA,,AFMY,,,3J,FFWTK0,,,
VXTM,42.148613,-70.93972,SOUTH WEYMOUTH NA,MAP,25,MA,MASSACHUSETTS,KNZW,VXTM,,,3G,DMABAA,,,
VXTN,42.133335,-70.933334,S WEYMOUTH,STG,25,MA,MASSACHUSETTS,,VXTN,,,3G,N00011,,,
AFMS,40.6525,-75.44055,LEHIGH VALLEY INT,CAP,42,PA,PENNSYLVANIA,KABE,AFMS,,,3J,DMABAA,,,
HFZY,64.833336,-147.58333,FT WAINWRIGHT AAF,MAP,02,AK,ALASKA,,HFZY,,,35,DJJ010,,,
NUEX,33.535,-112.38306,LUKE AFB,MAP,04,AZ,ARIZONA,KLUF,NUEX,,,3R,DMABAA,,,
HFZZ,64.833336,-147.58333,FT WAINWRIGHT,AIN,02,AK,ALASKA,,HFZZ,,,35,W0ZUFF,,,
HFXZ,35.383335,-116.583336,FT IRWIN,AIN,06,CA,CALIFORNIA,,HFXZ,,,3R,W0ZUFF,,,
FMLH,46.842224,-92.19361,DULUTH INTL,JAP,27,MN,MINNESOTA,KDLH,FMLH,,,3W,DMABAA,,,
XZPR,38.733334,-77.666664,VINT HILL FARM,AFS,51,VA,VIRGINIA,,XZPR,,,3K,FFWTK0,,,
HKBN,39.166668,-96.816666,FT RILEY,AIN,20,KS,KANSAS,,HKBN,,,3V,W0ZUFF,,,
FMLT,46.766666,-92.1,DULUTH,PRT,27,MN,MINNESOTA,,FMLT,,,3W,N00011,,,
ASHE,46.031113,12.596389,AVIANO AB,MAP,IT,ITALY,ITALY,LIPA,ASHE,,,4P,DMABAA,,,
YDBR,26.7,-80.083336,W PALM BEACH,CTY,12,FL,FLORIDA,,YDBR,,,3L,W0ZUFF,,,
LSFY,30.35,-81.666664,JACKSONVILLE,CTY,12,FL,FLORIDA,,LSFY,,,3L,FFWTK0,,,
ABFL,26.433332,50.1,AD DAMMAM,PRT,SA,SAUDI,SAUDI ARABIA,,ABFL,,,1X,DLAAAA,,,
PRYV,38.65,-121.38333,MC CLELLAN AFB,STG,06,CA,CALIFORNIA,,PRYV,,,3S,1A1AAA,,,
UUPL,37.95,-122.5,SAN RAFAEL,CTY,06,CA,CALIFORNIA,,UUPL,,,3S,FFWTK0,,,
DGGD,41.966667,-91.66472,CEDAR RAPIDS,NYI,19,IA,IOWA,,DGGD,,,3V,N00072,,,
AJXL,38.810833,-76.867226,ANDREWS AFB,ADM,24,MD,MARYLAND,,AJXL,,,3J,1A1AAA,,,
BACA,24.973612,46.570835,BANBAN,APT,SA,SAUDI,SAUDI ARABIA,,BACA,,,1X,DJJ010,,,
UQJP,44,-83.5,SAGINAW,CTY,26,MI,MICHIGAN,,UQJP,,,3W,FFWTK0,,,
AJXH,38.8,-76.86667,ANDREWS       ANG,ANX,24,MD,MARYLAND,,AJXH,,,3J,FFWTK0,,,
AJXF,38.810833,-76.86667,JOINT BASE ANDREW,MAP,24,MD,MARYLAND,KADW,AJXF,,,3J,DMABAA,,,
PWEL,29.80889,-99.24333,MEDINA,TNG,48,TX,TEXAS,,PWEL,,,3P,FFWTK0,,,
RCXQ,36.583332,-88.3,MURRAY,CTY,21,KY,KENTUCKY,,RCXQ,,,3M,W0ZUFF,,,
TVXA,23.616667,58.55,MINA QABOOS,PRT,OM,OMAN,OMAN,,TVXA,,,1S,DLAAAA,,,
HKEN,32.683334,-117.23333,FT ROSECRANS,AIN,06,CA,CALIFORNIA,,HKEN,,,3R,W0ZUFF,,,
RHAS,36.167778,-86.78861,NASHVILLE,STG,47,TN,TENNESSEE,,RHAS,,,3M,1A1AAA,,,
ZKPY,41.3,-75.833336,WYOMING,CTY,42,PA,PENNSYLVANIA,,ZKPY,,,3J,FFWTK0,,,
XABS,40.533333,-112.3,TOOELE ARMY DEPOT,AIN,49,UT,UTAH,,XABS,,,3Q,W0ZUFF,,,
XABT,40.533333,-112.3,TOOELE ARMY DEPOT,AMO,49,UT,UTAH,,XABT,,,3Q,W0ZUFF,,,
XABX,40.516666,-112.316666,TOOELE,CTY,49,UT,UTAH,,XABX,,,3Q,FFWTK0,,,
EWFK,39.716667,-86.26667,CRANE,NYI,18,IN,INDIANA,,EWFK,,,3W,N00011,,,
EWFL,39.716667,-86.26667,CRANE         AAP,AMO,18,IN,INDIANA,,EWFL,,,3W,N00011,,,
JMCZ,44.516666,-88.01667,GREEN BAY,PRT,55,WI,WISCONSIN,,JMCZ,,,3W,FFWTK0,,,
VTNB,33.434166,-112.011665,PHOENIX SKY HARBO,JAP,04,AZ,ARIZONA,KPHX,VTNB,,,3R,DMABAA,,,
LWRC,46.35361,-87.39555,K I SAWYER AFB,MAP,26,MI,MICHIGAN,,LWRC,,,3W,DMABAA,,,
FMNJ,38.983334,-77.416664,DULLES,COM,51,VA,VIRGINIA,,FMNJ,,,3K,FFWTK0,,,
CYPV,34.116665,-92.03333,CP J T ROBINSON,AIN,05,AR,ARKANSAS,,CYPV,,,3N,DKAAAA,,,
NYNF,21.333334,-157.95,JBPH-H MAKALAPA,NBA,15,HI,HAWAII,,NYNF,,,5N,FFWTK0,,,
VXTS,35.833332,10.633333,SOUSSE,CTY,TN,TUNSA,TUNISIA,,VXTS,,,7S,FFWTK0,,,
MAAU,40.766666,-74.15,KEARNY,PRT,34,NJ,NEW JERSEY,,MAAU,,,3H,FFWTK0,,,
VXTY,35.833332,10.633333,SOUSSE,PRT,TN,TUNSA,TUNISIA,,VXTY,,,7S,DLAAAA,,,
EAZP,32.69278,-83.64917,MIDDLE GEORGIA RG,CAP,13,GA,GEORGIA,KMCN,EAZP,,,3L,DMABAA,,,
MVKR,27.516666,-99.5,LAREDO,CTY,48,TX,TEXAS,,MVKR,,,3P,FFWTK0,,,
HSUG,41.593334,-87.34639,GARY,CTY,18,IN,INDIANA,,HSUG,,,3W,FFWTK0,,,
PJMS,39.325554,-76.41389,MARTIN STATE,JAP,24,MD,MARYLAND,KMTN,PJMS,,,3J,DMABAA,,,
HSWP,35.233334,-81.2,GASTONIA,CTY,37,NC,NORTH CAROLINA,,HSWP,,,3L,FFWTK0,,,
TVYY,38.5,-77.3,QUANTICO,MGI,51,VA,VIRGINIA,,TVYY,,,3K,M54000,,,
TVYX,38.5,-77.3,QUANTICO,CTY,51,VA,VIRGINIA,,TVYX,,,3K,FFWTK0,,,
HKGN,21.266666,-157.81667,FT RUGER,AIN,15,HI,HAWAII,,HKGN,,,5N,W0ZUFF,,,
DKTB,32.763332,-79.93,CHARLESTON NAVY,HSP,45,SC,SOUTH CAROLINA,,DKTB,,,3L,FFWTK0,,,
FQZF,40.016666,-74.6,EARLE NWS,PRT,34,NJ,NEW JERSEY,,FQZF,,,3H,N00011,,,
UMEL,41.995277,-87.884445,ROSEMONT,CTY,17,IL,ILLINOIS,,UMEL,,,3W,FFWTK0,,,
WWSD,31.45,-83.5,TIFTON,CTY,13,GA,GEORGIA,,WWSD,,,3L,FFWTK0,,,
FQZJ,40.016666,-74.6,EARLE NWS,AMO,34,NJ,NEW JERSEY,,FQZJ,,,3H,W0ZUFF,,,
BELL,27.921112,-82.81722,BELLEAIR BLUFFS,CTY,12,FL,FLORIDA,,BELL,,,3L,FFWTK0,,,
VXXK,42.466667,-83.26667,SOUTHFIELD,CTY,26,MI,MICHIGAN,,VXXK,,,3W,FFWTK0,,,
TEWJ,33.5,-112.05,PHOENIX,CTY,04,AZ,ARIZONA,,TEWJ,,,3R,FFWTK0,,,
HKFN,31.316668,-85.73333,FT RUCKER,AIN,01,AL,ALABAMA,,HKFN,,,3M,W0ZUFF,,,
RCYT,23.616667,58.6,MUSCAT,PRT,OM,OMAN,OMAN,,RCYT,,,1S,DLAAAA,,,
TVYC,38.5,-77.3,QUANTICO BASE  CA,STG,51,VA,VIRGINIA,,TVYC,,,3K,N00011,,,
BAEY,39.136112,-121.43667,BEALE AFB,MAP,06,CA,CALIFORNIA,KBAB,BAEY,,,3S,DMABAA,,,
RCYQ,23.616667,58.633335,MUSCAT,CTY,OM,OMAN,OMAN,,RCYQ,,,1S,FFWTK0,,,
MADG,39.2,-76.75,KEEDYSVILLE,CTY,24,MD,MARYLAND,,MADG,,,3J,FFWTK0,,,
VXWQ,41.480835,-87.63778,S CHICAGO HTS,CTY,17,IL,ILLINOIS,,VXWQ,,,3W,FFWTK0,,,
XVMN,45.433334,12.333333,VENICE,CTY,IT,ITALY,ITALY,,XVMN,,,4P,FFWTK0,,,
DKSD,32.783333,-79.916664,CHARLESTON,PRT,45,SC,SOUTH CAROLINA,,DKSD,,,3L,N00011,,,
JQMA,42.932777,-71.43584,MANCHESTER,CAP,33,NH,NEW HAMPSHIRE,KMHT,JQMA,,,3G,DMABAA,,,
CLXR,40.833332,-73.86667,BRONX,CTY,36,NY,NEW YORK,,CLXR,,,3H,FFWTK0,,,
MAFU,42.916668,-72.28333,KEENE,CTY,33,NH,NEW HAMPSHIRE,,MAFU,,,3G,FFWTK0,,,
EFHH,39.976387,-82.905556,COLUMBUS,ADM,39,OH,OHIO,,EFHH,,,3W,1A1AAA,,,
SKHU,34.483334,-77.23333,ONSLOW BAY,ADM,37,NC,NORTH CAROLINA,,SKHU,,,3L,N00011,,,
NLZG,39.81389,-82.92778,RICKENBACKER INTL,MAP,39,OH,OHIO,KLCK,NLZG,,,3W,FFWTK0,,,
QMSN,37.41611,-122.049164,MOFFETT FEDERAL A,MAP,06,CA,CALIFORNIA,KNUQ,QMSN,,,3R,DMABAA,,,
NLZL,39.814167,-82.93222,RICKENBACKER  ANG,ANX,39,OH,OHIO,,NLZG,,,3W,FFWTK0,,,
AWUB,32.501945,-93.6625,BARKSDALE AFB,MAP,22,LA,LOUISIANA,KBAD,AWUB,,,3N,DMABAA,,,
DKVL,32.9,-80.03333,CHARLESTON NAV YD,NYI,45,SC,SOUTH CAROLINA,,DKVL,,,3L,N00011,,,
PSAX,28.429445,-81.30889,ORLANDO INTL,CAP,12,FL,FLORIDA,KMCO,PSAX,,,3L,DMABAA,,,
LSLG,30.35,-81.23333,JACKSONVILLE JCT,CTY,12,FL,FLORIDA,,LSLG,,,3L,FFWTK0,,,
EFGH,39.816666,-82.933334,COLUMBUS,ADM,39,OH,OHIO,,EFGH,,,3W,FFWTK0,,,
CYTW,21.319166,-157.92944,CAMP H M SMITH,ADM,15,HI,HAWAII,,CYTW,,,5N,1A1AAA,,,
DKTT,38.35,-81.76667,CHARLESTON,NAV,54,WV,WEST VIRGINIA,,DKTT,,,3J,FFWTK0,,,
HKHN,29.45,-98.45,FT SAM HOUSTON,AIN,48,TX,TEXAS,,HKHN,,,3P,W0ZUFF,,,
DKTX,38.366665,-81.63333,CHARLESTON,CTY,54,WV,WEST VIRGINIA,,DKTX,,,3J,FFWTK0,,,
LFSF,34.7,-86.583336,HUNTSVILLE,CTY,01,AL,ALABAMA,,LFSF,,,3M,FFWTK0,,,
EFGV,39.966667,-83,COLUMBUS,CTY,39,OH,OHIO,,EFGV,,,3W,FFWTK0,,,
HSYA,36.6,-82.583336,GATE CITY,CTY,51,VA,VIRGINIA,,HSYA,,,3K,W0ZUFF,,,
EFGX,39.983334,-82.916664,COLUMBUS ARMY DEP,STG,39,OH,OHIO,,EFGX,,,3W,FFWTK0,,,
RHEL,36.166668,-86.8,NASHVILLE,CTY,47,TN,TENNESSEE,,RHEL,,,3M,FFWTK0,,,
MZXD,39.31111,-94.922226,LEAVENWORTH,CTY,20,KS,KANSAS,,MZXD,,,3V,FFWTK0,,,
LFSU,34.637222,-86.775,HUNTSVILLE INTL C,CAP,01,AL,ALABAMA,KHSV,LFSU,,,3M,DMABAA,,,
RUAD,41.5,-71.333336,NEWPORT,NYI,44,RI,RHODE ISLAND,,RUAD,,,3G,N00011,,,
SGBP,41.119446,-95.90861,OFFUTT AFB,MAP,31,NE,NEBRASKA,KOFF,SGBP,,,3V,DMABAA,,,
QEDS,41.533333,-71.28333,MIDDLETOWN,CTY,44,RI,RHODE ISLAND,,QEDS,,,3G,FFWTK0,,,
SKKA,34.05611,-117.60111,ONTARIO INTL,JAP,06,CA,CALIFORNIA,KONT,SKKA,,,3R,DMABAA,,,
RUAM,41.5,-71.333336,NEWPORT,PRT,44,RI,RHODE ISLAND,,RUAM,,,3G,N00011,,,
UMHZ,45.0175,-93.1525,ROSEVILLE,CTY,27,MN,MINNESOTA,,UMHZ,,,3W,FFWTK0,,,
DCFT,39.844166,-89.678055,ABRAHAM LINCOLN C,JAP,17,IL,ILLINOIS,KSPI,DCFT,,,3W,DMABAA,,,
OPA1,34.283333,9.6,FWD BASE,OPA,TN,TUNSA,TUNISIA,,OPA1,,,,,,,
CHSY,35.266666,-82.75,BREVARD,CTY,37,NC,NORTH CAROLINA,,CHSY,,,3L,FFWTK0,,,
RUAQ,41.5,-71.333336,NEWPORT T2,PRT,44,RI,RHODE ISLAND,,RUAQ,,,,,,,
OPA2,34.083332,9.433333,FWD BASE 2ND,OPA,TN,TUNSA,TUNISIA,,OPA2,,,,,,,
XAHR,39.048332,-95.67778,TOPEKA,CTY,20,KS,KANSAS,,XAHR,,,3V,FFWTK0,,,
ESBW,42.55,-94.183334,CP DODGE,AIN,19,IA,IOWA,,ESBW,,,3V,W0ZUFF,,,
PSBE,43.958332,-90.73778,SPARTA FORT MC CO,JAP,55,WI,WISCONSIN,KCMY,PSBE,,,3W,DMABAA,,,
YLZT,41.299168,-91.69278,WASHINGTON,CTY,19,IA,IOWA,,YLZT,,,3V,FFWTK0,,,
HXCZ,32.8875,-112.72,GILA BEND AF AUX,MAP,04,AZ,ARIZONA,KGXF,HXCZ,,,3R,DMABAA,,,
HKJN,21.3,-157.88333,FT SHAFTER,AIN,15,HI,HAWAII,,HKJN,,,5N,W0ZUFF,,,
BRKR,33.56389,-86.75222,BIRMINGHAM SHUTTL,JAP,01,AL,ALABAMA,KBHM,BRKR,,,3M,DMABAA,,,
BRKM,33.516666,-86.816666,BIRMINGHAM,CTY,01,AL,ALABAMA,,BRKM,,,3M,FFWTK0,,,
ASPQ,27.650555,-81.34944,MACDILL AFB AUX F,MAP,12,FL,FLORIDA,KAGR,ASPQ,,,3L,DMABAA,,,
RPWO,41.269444,-72.903336,NEW HAVEN,NYI,09,CT,CONNECTICUT,,RPWO,,,3G,N00072,,,
MAHG,30.410555,-88.924446,KEESLER AFB,MAP,28,MS,MISSISSIPPI,KBIX,MAHG,,,3M,DMABAA,,,
FEDX,32.466667,-87.416664,DEMOPOLIS,CTY,01,AL,ALABAMA,,FEDX,,,3M,FFWTK0,,,
RPWN,41.308056,-72.92861,NEW HAVEN,CTY,09,CT,CONNECTICUT,,RPWN,,,3G,FFWTK0,,,
HGBZ,34.05,-80.933334,FT JACKSON,AIN,45,SC,SOUTH CAROLINA,,HGBZ,,,3L,W0ZUFF,,,
MEPJ,35.180557,128.93805,GIMHAE INTL,JAP,KR,SKORE,"KOREA, REP OF",RKPK,MEPJ,,,5H,DMABAA,,,
UMHK,38.766666,-121.28333,ROSEVILLE,CTY,06,CA,CALIFORNIA,,UMHK,,,3S,W0ZUFF,,,
TWAC,34.296112,-116.162224,TWENTYNINE PALMS,MAP,06,CA,CALIFORNIA,KNXP,TWAC,,,3R,DMABAA,,,
WSPX,41.9,-71.1,TAUNTON,CTY,25,MA,MASSACHUSETTS,,WSPX,,,3G,FFWTK0,,,
GLRZ,39.417778,-118.69861,FALLON NAS,MAP,32,NV,NEVADA,KNFL,GLRZ,,,3S,DMABAA,,,
PBDH,44.083332,-87.65,MANITOWOC,CTY,55,WI,WISCONSIN,,PBDH,,,3W,FFWTK0,,,
NDNK,38.76389,-75.13639,LEWES,NYI,10,DE,DELAWARE,,NDNK,,,3J,N00011,,,
WWYK,35.414722,-97.386665,TINKER AFB,MAP,40,OK,OKLAHOMA,KTIK,WWYK,,,3P,DMABAA,,,
CYWF,36.66861,-87.49611,CAMPBELL AAF,MAP,21,KY,KENTUCKY,KHOP,CYWF,,,3M,DMABAA,,,
RPYA,41.3,-72.916664,NEW HAVEN MAP,APT,09,CT,CONNECTICUT,,RPYA,,,3G,FFWTK0,,,
EJSP,35.066666,-92.416664,CONWAY,CTY,05,AR,ARKANSAS,,EJSP,,,3N,FFWTK0,,,
HKLN,42.216667,-87.8,FT SHERIDAN,AIN,17,IL,ILLINOIS,,HKLN,,,3W,W0ZUFF,,,
LFWC,46.45,-90.2,HURLEY,CTY,55,WI,WISCONSIN,,LFWC,,,3W,FFWTK0,,,
MRKT,36.25,-115.03333,LAKE MEAD BASE,AIN,32,NV,NEVADA,,MRKT,,,3S,W0ZUFF,,,
XVRV,19.2,-96.13333,VERACRUZ,PRT,MX,MEXIC,MEXICO,,XVRV,,,3F,DLAAAA,,,
PFKS,37.733334,-88.933334,MARION,CTY,17,IL,ILLINOIS,,PFKS,,,3W,FFWTK0,,,
GHLN,41.133335,-104.867226,FRANCIS E WARREN,MHP,56,WY,WYOMING,KFEW,GHLN,,,3Q,FFWTK0,,,
WSSB,42.218056,-83.266945,TAYLOR,CTY,26,MI,MICHIGAN,,WSSB,,,3W,FFWTK0,,,
00A1,40,-66,NW ATLANTIC,OCN,1A,NATL,N ATLANTIC OCN,,00A1,,,37,N00011,,,
YUPT,32.533333,-86.21667,WETUMPKA,CTY,01,AL,ALABAMA,,YUPT,,,3M,W0ZUFF,,,
LKCM,37.224167,-95.70805,INDEPENDENCE,CTY,20,KS,KANSAS,,LKCM,,,3V,FFWTK0,,,
TAXW,30.4,-87.21667,PENSACOLA,PRT,12,FL,FLORIDA,,TAXW,,,3L,N00011,,,
TAXU,30.352777,-87.26806,PENSACOLA NAS CHE,ANX,12,FL,FLORIDA,,TAXU,,,3L,DMABAA,,,
TAXT,30.416666,-87.2,PENSACOLA,CTY,12,FL,FLORIDA,,TAXT,,,3L,FFWTK0,,,
ESHH,36.93722,-76.28972,CP ELMORE,MGI,51,VA,VIRGINIA,,ESHH,,,3K,M54000,,,
PJVS,39.45,-77.96667,MARTINSBURG,CTY,54,WV,WEST VIRGINIA,,PJVS,,,3J,FFWTK0,,,
TRZP,38.716667,-27.05,PRAIA DE VITORIA,PRT,PT,PORTU,PORTUGAL,,TRZP,,,4C,DLAAAA,,,
YMAG,39.818054,-97.05055,WASHINGTON,CTY,20,KS,KANSAS,,YMAG,,,3V,W0ZUFF,,,
SXHT,28.235,-80.61,PATRICK AFB,MAP,12,FL,FLORIDA,KCOF,SXHT,,,3L,DMABAA,,,
PJVY,39.401943,-77.984726,EASTERN WV RGNL S,JAP,54,WV,WEST VIRGINIA,KMRB,PJVY,,,3J,DMABAA,,,
DPEV,41.133335,-104.833336,CHEYENNE,CTY,56,WY,WYOMING,,DPEV,,,3Q,FFWTK0,,,
HKNN,34.65,-98.4,FT SILL,AIN,40,OK,OKLAHOMA,,HKNN,,,3P,W0ZUFF,,,
GUDX,40.716667,-73.833336,FLUSHING,CTY,36,NY,NEW YORK,,GUDX,,,3H,FFWTK0,,,
CURZ,44.471943,-73.153336,BURLINGTON INTL,IAP,50,VT,VERMONT,KBTV,CURZ,,,3G,DMABAA,,,
CQJP,31.15,-81.5,BRUNSWICK,CTY,13,GA,GEORGIA,,CQJP,,,3L,FFWTK0,,,
QRAW,31.493055,9.809722,MONTESSEUR,APT,TN,TUNSA,TUNISIA,,QRAW,,,7S,DMABAA,,,
HGFW,37.916668,-85.96667,FT KNOX,STG,21,KY,KENTUCKY,,HGFW,,,3M,1A1AAA,,,
HGFZ,37.9,-85.98333,FT KNOX,AIN,21,KY,KENTUCKY,,HGFZ,,,3M,W0ZUFF,,,
UMLH,40.8,-73.63333,ROSLYN,AGS,36,NY,NEW YORK,,UMLH,,,3H,FFWTK0,,,
ESGM,44.05,-75.73333,FT DRUM,AIN,36,NY,NEW YORK,,ESGM,,,3H,W0ZUFF,,,
GLTD,38.9,-77.183334,FALLS CHURCH,CTY,51,VA,VIRGINIA,,GLTD,,,3K,FFWTK0,,,
TNQV,41.5,-82.95,PORT CLINTON,CTY,39,OH,OHIO,,TNQV,,,3W,FFWTK0,,,
SKNU,32.633335,-85.416664,OPELIKA,AIN,01,AL,ALABAMA,,SKNU,,,3M,W0ZUFF,,,
VHAW,42.883335,-76.76667,SENECA ARMY DEPOT,AMO,36,NY,NEW YORK,,VHAW,,,3H,W0ZUFF,,,
TWEH,42.25,-71.01667,QUINCY,NYI,25,MA,MASSACHUSETTS,,TWEH,,,3G,N00072,,,
TWEG,42.25,-71.01667,QUINCY,CTY,25,MA,MASSACHUSETTS,,TWEG,,,3G,FFWTK0,,,
VPRF,35.004166,138.49945,SHIMIZU,PRT,JP,JAPAN,JAPAN,,VPRF,,,5H,DLAAAA,,,
VHAV,42.883335,-76.76667,SENECA ARMY DEPOT,AIN,36,NY,NEW YORK,,VHAV,,,3H,W0ZUFF,,,
LKEV,39.066666,-94.45,INDEPENDENCE,CTY,29,MO,MISSOURI,,LKEV,,,3V,FFWTK0,,,
GYPS,38.216667,-84.833336,FRANKFORT,CTY,21,KY,KENTUCKY,,GYPS,,,3M,FFWTK0,,,
GUHN,39.883335,-75.3,FOLSOM,CTY,42,PA,PENNSYLVANIA,,GUHN,,,3J,FFWTK0,,,
FVMT,40.65,-74.183334,ELIZABETHPORT,PRT,34,NJ,NEW JERSEY,,FVMT,,,3H,N00011,,,
KLKD,40.7,-73.61667,HEMPSTEAD,CTY,36,NY,NEW YORK,,KLKD,,,3H,FFWTK0,,,
DPEZ,41.155556,-104.810555,CHEYENNE RGNL JER,JAP,56,WY,WYOMING,KCYS,DPEZ,,,3Q,DMABAA,,,
CQLW,43.8925,-69.93889,BRUNSWICK EXECUTI,CAP,23,ME,MAINE,KBXM,CQLW,,,3G,DMABAA,,,
TAYZ,38.866665,-77.05,PENTAGON,ADM,51,VA,VIRGINIA,,TAYZ,,,3K,FFWTK0,,,
YMBF,35.55,-77.066666,WASHINGTON,CTY,37,NC,NORTH CAROLINA,,YMBF,,,3L,FFWTK0,,,
DPFM,38.816666,-104.71667,CHEYENNE MT CMPLX,CTY,08,CO,COLORADO,,DPFM,,,3Q,FFWTK0,,,
ABTW,39,-76.95,ADELPHI,COM,24,MD,MARYLAND,,ABTW,,,3J,FFWTK0,,,
JEAH,33.875557,10.777223,DJERBA,IAP,TN,TUNSA,TUNISIA,DTTJ,JEAH,,,7S,DJJ010,,,
XEXW,45.65,13.766666,TRIESTE,PRT,IT,ITALY,ITALY,,XEXW,,,4P,DLAAAA,,,
STDF,47.908333,-122.28139,PAINE,AGS,53,WA,WASHINGTON,,STDF,,,3T,FFWTK0,,,
HKSZ,44.9,-93.2,FT SNELLING,AIN,27,MN,MINNESOTA,,HKSZ,,,3W,W0ZUFF,,,
ESLM,41.533333,-70.61667,CP EDWARDS,AIN,25,MA,MASSACHUSETTS,,ESLM,,,3G,W0ZUFF,,,
DLAL,35.233334,-80.833336,CHARLOTTE,CTY,37,NC,NORTH CAROLINA,,DLAL,,,3L,FFWTK0,,,
HGLC,47.65,-122.4,FT LAWTON,AIN,53,WA,WASHINGTON,,HGLC,,,3T,W0ZUFF,,,
GYRZ,50.033333,8.570556,FRANKFURT MAIN,IAP,DE,GERMA,GERMANY,EDDF,GYRZ,,,4K,DMABAA,,,
TNVX,26.1,-80.11667,PORT EVERGLADES,PRT,12,FL,FLORIDA,,TNVX,,,3L,N00011,,,
VLLM,37.833332,-121.26667,SHARPE ARMY DEPOT,AIN,06,CA,CALIFORNIA,,VLLM,,,3S,W0ZUFF,,,
WSVC,35.431667,8.122222,CHEIKH LARBI TEBE,CAP,DZ,ALGER,ALGERIA,DABS,WSVC,,,7R,DMABAA,,,
HKRV,35.366665,-94.45,FT SMITH,CTY,05,AR,ARKANSAS,,HKRV,,,3N,FFWTK0,,,
HKRZ,35.336666,-94.3675,FORT SMITH RGNL,JAP,05,AR,ARKANSAS,KFSM,HKRZ,,,3N,DMABAA,,,
DGXC,32.933334,-87.13333,CENTERVILLE,AIN,01,AL,ALABAMA,,DGXC,,,3M,W0ZUFF,,,
MJAT,35.339443,-89.84611,MILLINGTON,HSP,47,TN,TENNESSEE,,MJAT,,,3M,N00011,,,
QVNC,35.8,-78.833336,MORRISVILLE,CTY,37,NC,NORTH CAROLINA,,QVNC,,,3L,W0ZUFF,,,
PFTE,40.616665,-83.11667,MARION,CTY,39,OH,OHIO,,PFTE,,,3W,FFWTK0,,,
MJDH,28.289722,-81.437225,KISSIMMEE GATEWAY,CAP,12,FL,FLORIDA,KISM,MJDH,,,3L,DMABAA,,,
TFHD,33.833332,-118.083336,PICO RIVERA,CTY,06,CA,CALIFORNIA,,TFHD,,,3R,M54000,,,
HKUZ,31.85,-81.6,FT STEWART,AIN,13,GA,GEORGIA,,HKUZ,,,3L,W0ZUFF,,,
ABXK,38.8975,-77.00916,ADELPHI,NYI,24,MD,MARYLAND,,ABXK,,,3J,N00072,,,
KHFQ,21,-157,HAWAII,MSL,15,HI,HAWAII,,KHFQ,,,5N,FFWTK0,,,
XJCS,36.85,10.233334,TUNIS,PRT,TN,TUNSA,TUNISIA,,XJCS,,,7S,DLAAAA,,,
YMFW,38.9,-76.95,WASHINGTON,MGI,11,DC,DI OF COLUMBIA,,YMFW,,,3K,M54000,,,
RYSW,32.9,-80.03333,NO CHARLESTON,FHG,45,SC,SOUTH CAROLINA,,RYSW,,,3L,FFWTK0,,,
BASD,39.133335,-121.433334,BEALE,ANX,06,CA,CALIFORNIA,,BASD,,,3S,FFWTK0,,,
UZLZ,46.483334,-84.333336,SAULT ST MARIE,CTY,26,MI,MICHIGAN,,UZLZ,,,3W,FFWTK0,,,
HGNC,39.35,-94.916664,FT LEAVENWORTH,AIN,20,KS,KANSAS,,HGNC,,,3V,W0ZUFF,,,
YMGC,38.852222,-77.03778,RONALD REAGAN WAS,JAP,51,VA,VIRGINIA,KDCA,YMGC,,,3K,DMABAA,,,
NZAS,47.504723,-111.187225,MALMSTROM AFB HEL,MHP,30,MT,MONTANA,KGFA,NZAS,,,3Q,DMABAA,,,
RYTJ,32.883335,-79.98333,NO CHARLESTON,CTY,45,SC,SOUTH CAROLINA,,RYTJ,,,3L,FFWTK0,,,
FAFL,33.466667,-117.71667,DANA POINT,PRT,06,CA,CALIFORNIA,,FAFL,,,3R,N00011,,,
VYFJ,29.508333,-95.05139,HOUSTON GULF,APT,48,TX,TEXAS,,VYFJ,,,3P,DMABAA,,,
XJCM,36.916668,10.25,TUNIS,CTY,TN,TUNSA,TUNISIA,,XJCM,,,7S,FFWTK0,,,
CMHF,44.316666,-96.78333,BROOKINGS,CTY,46,SD,SOUTH DAKOTA,,CMHF,,,3Q,FFWTK0,,,
LGAA,44.351665,-98.7175,HURON,AIN,46,SD,SOUTH DAKOTA,,LGAA,,,3Q,W0ZUFF,,,
GLZN,33.383335,-117.25,FALLBROOK,NYI,06,CA,CALIFORNIA,,GLZN,,,3R,N00011,,,
UEBP,38.833332,-94.55,RICHARDS GEBAUR,RTC,29,MO,MISSOURI,,UEBP,,,3V,FFWTK0,,,
UEBL,38.850834,-94.558334,KANSAS CITY SOUTH,CAP,29,MO,MISSOURI,,UEBL,,,3V,DMABAA,,,
XRSP,61.136112,-146.24973,OLD VALDEZ,PRT,02,AK,ALASKA,,XRSP,,,35,DJ5000,,,
DPMA,42.083332,-87.816666,CHICAGO,STG,17,IL,ILLINOIS,,DPMA,,,3W,FFWTK0,,,
RHTC,42.283333,-71.35,NATICK LABORATORY,AIN,25,MA,MASSACHUSETTS,,RHTC,,,3G,W0ZUFF,,,
DPMD,41.833332,-87.75,CHICAGO,PRT,17,IL,ILLINOIS,,DPMD,,,3W,N00011,,,
XATX,43.95,-69.98333,TOPSHAM,COM,23,ME,MAINE,,XATX,,,3G,FFWTK0,,,
XRVJ,39.45,-0.31666666,VALENCIA,PRT,ES,SPAIN,SPAIN,,XRVJ,,,4N,DLAAAA,,,
XAUD,43.95,-69.98333,TOPSHAM,CTY,23,ME,MAINE,,XAUD,,,3G,FFWTK0,,,
ESPS,44.666668,-84.666664,CP GRAYLING,AIN,26,MI,MICHIGAN,,ESPS,,,3W,W0ZUFF,,,
TNZV,34.15,-119.21667,PORT HUENEME,NYI,06,CA,CALIFORNIA,,TNZV,,,3R,N00011,,,
KYJL,25.488056,-80.38389,HOMESTEAD AFB,MAP,12,FL,FLORIDA,,KYJL,,,3L,DMABAA,,,
TNZQ,34.15,-119.21667,PORT HUENEME  CBC,STG,06,CA,CALIFORNIA,,TNZQ,,,3R,N00011,,,
TNZP,34.216667,-119.083336,PORT HUENEME,CTY,06,CA,CALIFORNIA,,TNZP,,,3R,FFWTK0,,,
RQFF,41.355556,-72.1,NEW LONDON,NYI,09,CT,CONNECTICUT,,RQFF,,,3G,N00011,,,
DPMZ,41.981667,-87.90667,CHICAGO OHARE INT,JAP,17,IL,ILLINOIS,KORD,DPMZ,,,3W,DMABAA,,,
RQFA,41.355556,-72.1,NEW LONDON,CTY,09,CT,CONNECTICUT,,RQFA,,,3G,FFWTK0,,,
DTVB,39.04889,-84.66778,CINCINNATI NORTHE,CAP,21,KY,KENTUCKY,KCVG,DTVB,,,3M,DMABAA,,,
HCHL,38.683334,-77.13333,FT BELVOIR,AIN,51,VA,VIRGINIA,,HCHL,,,3K,W0ZUFF,,,
TNZY,34.15,-119.2,PORT HUENEME NCBC,PRT,06,CA,CALIFORNIA,,TNZY,,,3R,N00011,,,
FERR,39.765278,-104.87945,DENVER,NAV,08,CO,COLORADO,,FERR,,,3Q,FFWTK0,,,
SCEY,34.095276,-117.235,SAN BERNARDINO IN,MAP,06,CA,CALIFORNIA,KSBD,SCEY,,,3R,DMABAA,,,
HKVZ,36.933334,-76.03333,FT STORY,AIN,51,VA,VIRGINIA,,HKVZ,,,3K,W0ZUFF,,,
RULV,37,-76.4,NEWPORT NEWS,PRT,51,VA,VIRGINIA,,RULV,,,3K,N00011,,,
RDKD,35.7,-95.36667,MUSKOGEE,CTY,40,OK,OKLAHOMA,,RDKD,,,3P,FFWTK0,,,
RULQ,37,-76.416664,NEWPORT NEWS,CTY,51,VA,VIRGINIA,,RULQ,,,3K,FFWTK0,,,
VYHK,49.976665,6.6986113,SPANGDAHLEM AB,MAP,DE,GERMA,GERMANY,ETAD,VYHJ,,,4K,DMABAA,,,
YQPQ,35.559723,-95.173615,WEBBERS FALLS OK,ADM,40,OK,OKLAHOMA,,YQPQ,,,3P,W0ZUFF,,,
00IO,-15,75,INDIAN OCEAN,OCN,6A,INDOC,INDIAN OCEAN,,00IO,,,5S,N00011,,,
WKJP,34.5,-91.53333,STUTTGART,CTY,05,AR,ARKANSAS,,WKJP,,,3N,FFWTK0,,,
QEPR,30.011667,-83.07889,MIDWAY,CTY,12,FL,FLORIDA,,QEPR,,,3L,FFWTK0,,,
DPLX,41.883335,-87.6,CHICAGO,CTY,17,IL,ILLINOIS,,DPLG,,,3W,FFWTK0,,,
SGNV,41.233334,-111.98333,OGDEN,STG,49,UT,UTAH,,SGNV,,,3Q,1A1AAA,,,
FEQM,39.739166,-104.98417,DENVER,CTY,08,CO,COLORADO,,FEQM,,,3Q,FFWTK0,,,
BJHZ,30.194445,-97.67,AUSTIN BERGSTROM,JAP,48,TX,TEXAS,KAUS,BJHZ,,,3P,DMABAA,,,
HKYZ,40.55,-73.916664,FT TILDEN,DEP,36,NY,NEW YORK,,HKYZ,,,3H,FFWTK0,,,
JEGW,43.566666,-116.23333,GOWEN FIELD,AIN,16,ID,IDAHO,,JEGW,,,3T,FFWTK0,,,
FAKZ,32.300556,-86.39389,MONTGOMERY RGNL,JAP,01,AL,ALABAMA,KMGM,FAKZ,,,3M,DMABAA,,,
SPBN,41.65917,-70.52278,CAPE COD CGAS,MAP,25,MA,MASSACHUSETTS,KFMH,SPBN,,,3G,DMABAA,,,
JZQS,39.416668,-84.6,HAMILTON,CTY,39,OH,OHIO,,JZQS,,,3W,FFWTK0,,,
KLSD,36.016666,-115,HENDERSON,CTY,32,NV,NEVADA,,KLSD,,,3S,FFWTK0,,,
SGQM,41.233334,-111.98333,OGDEN,CTY,49,UT,UTAH,,SGQM,,,3Q,FFWTK0,,,
DPNB,41.978054,-87.90611,OHARE,RTC,17,IL,ILLINOIS,,DPNB,,,3W,FFWTK0,,,
RQFK,41.355556,-72.1,NEW LONDON,PRT,09,CT,CONNECTICUT,,RQFK,,,3G,N00011,,,
LXEZ,26.355556,127.76778,KADENA AB,MAP,JP,JAPAN,JAPAN,RODN,LXEZ,,,5H,DMABAA,,,
SGPA,41.195557,-112.013054,OGDEN HINCKLEY,CAP,49,UT,UTAH,KOGD,SGPA,,,3Q,DMABAA,,,
HKXZ,39.066666,-84.4,FT THOMAS,AIN,21,KY,KENTUCKY,,HKXZ,,,3M,W0ZUFF,,,
FERX,39.861668,-104.67306,DENVER INTL,IAP,08,CO,COLORADO,KDEN,FERX,,,3Q,DMABAA,,,
TSDG,43.050835,-91.13556,PRAIRIE DU CHIEN,AIN,55,WI,WISCONSIN,,TSDG,,,3W,W0ZUFF,,,
TBBT,40.683334,-89.61667,PEORIA,CTY,17,IL,ILLINOIS,,TBBT,,,3W,FFWTK0,,,
EWYN,41.75,-124.333336,CRESCENT CITY,CTY,06,CA,CALIFORNIA,,EWYN,,,3S,FFWTK0,,,
LKLW,40.433334,-76.583336,FT INDIANTOWN GAP,AGS,42,PA,PENNSYLVANIA,,LKLW,,,3J,FFWTK0,,,
DTVP,39.1,-84.5,CINCINNATI,CTY,39,OH,OHIO,,DTVP,,,3W,FFWTK0,,,
SKXJ,41.933334,-72.683334,ORANGE,COM,09,CT,CONNECTICUT,,SKXJ,,,3G,FFWTK0,,,
HPBF,34.426388,8.828055,GAFSA,APT,TN,TUNSA,TUNISIA,DTTF,HPBF,,,7S,DMABAA,,,
TWLR,41.59722,-71.412224,QUONSET STATE,JAP,44,RI,RHODE ISLAND,KOQU,TWLR,,,3G,DMABAA,,,
HGQC,37.216667,-77.38333,FT LEE,ASN,51,VA,VIRGINIA,,HGQC,,,3K,W0ZUFF,,,
SGPN,41.15,-112,OGDEN ORD PLANT,AIN,49,UT,UTAH,,SGPN,,,3Q,W0ZUFF,,,
DPNV,41.70139,-87.77917,CHICAGO RIDGE,CTY,17,IL,ILLINOIS,,DPNV,,,3W,FFWTK0,,,
HGQH,37.216667,-77.333336,FT LEE,AIN,51,VA,VIRGINIA,,HGQH,,,3K,W0ZUFF,,,
BWBU,38.036667,-84.60861,BLUE GRASS,CAP,21,KY,KENTUCKY,KLEX,BWBU,,,3M,DMABAA,,,
FRLV,39.75,-84.63333,EATON,CTY,39,OH,OHIO,,FRLV,,,3W,W0ZUFF,,,
DTWB,39.433334,-84.5,CINCINNATI,DFP,39,OH,OHIO,,DTWB,,,3W,FFWTK0,,,
PWYL,28.083334,-80.6,MELBOURNE,CTY,12,FL,FLORIDA,,PWYL,,,3L,FFWTK0,,,
UMVV,33.383335,-104.51667,ROSWELL,CTY,35,NM,NEW MEXICO,,UMVV,,,3P,FFWTK0,,,
JAAK,30.208334,-81.700554,JACKSONVILLE,HSP,12,FL,FLORIDA,,JAAK,,,3L,N00011,,,
XJJD,36.851112,10.226944,CARTHAGE,IAP,TN,TUNSA,TUNISIA,DTTA,XJJD,,,7S,DMABAA,,,
JZSU,47.05,-119.666664,MCCHORD,TNG,53,WA,WASHINGTON,,JZSU,,,3T,FFWTK0,,,
PSTE,33.920834,-80.80111,MC ENTIRE JNGB,MAP,45,SC,SOUTH CAROLINA,KMMT,PSTE,,,3L,DMABAA,,,
AGGN,34.66639,-99.26806,ALTUS AFB,MAP,40,OK,OKLAHOMA,KLTS,AGGN,,,3P,DMABAA,,,
KLUK,35.433334,-88.65,HENDERSON,CTY,47,TN,TENNESSEE,,KLUK,,,3M,W0ZUFF,,,
LKPF,48.083332,-122.7,INDIAN ISLAND ORD,AMO,53,WA,WASHINGTON,,LKPF,,,3T,N00011,,,
LKPE,48.075,-122.75,INDIAN ISLAND,PRT,53,WA,WASHINGTON,,LKPE,,,3T,N00011,,,
YMMK,61.25,-149.78334,WASILLA,COM,02,AK,ALASKA,,YMMK,,,35,FFWTK0,,,
CMMC,40.666668,-73.96667,BROOKLYN,CTY,36,NY,NEW YORK,,CMLY,,,3H,FFWTK0,,,
HKZZ,40.783333,-73.76667,FT TOTTEN,AIN,36,NY,NEW YORK,,HKZZ,,,3H,W0ZUFF,,,
HKZY,40.78389,-73.7675,FLUSHING,RTC,36,NY,NEW YORK,,HKZY,,,3H,DKAACA,,,
GUQE,38.950832,-95.66361,FORBES FLD,JAP,20,KS,KANSAS,KFOE,GUQE,,,3V,DMABAA,,,
UMXB,36.64528,-6.3494444,ROTA NS,MAP,ES,SPAIN,SPAIN,LERT,UMXA,,,4N,DMABAA,,,
UMXA,36.64639,-6.349167,ROTA,PRT,ES,SPAIN,SPAIN,,UMXA,,,4N,N00011,,,
QALE,32.35,-88.7,MERIDIAN,CTY,28,MS,MISSISSIPPI,,QALE,,,3M,FFWTK0,,,
VLSB,33.97278,-80.47056,SHAW AFB,MAP,45,SC,SOUTH CAROLINA,KSSC,VLSB,,,3L,DMABAA,,,
QALG,32.55361,-88.555275,MERIDIAN NAS,MAP,28,MS,MISSISSIPPI,KNMM,QALG,,,3M,DMABAA,,,
HGSH,37.733334,-92.11667,FT LEONARD WOOD,AIN,29,MO,MISSOURI,,HGSH,,,3V,W0ZUFF,,,
YZEU,35.393055,-97.60083,WILL ROGERS WORLD,JAP,40,OK,OKLAHOMA,KOKC,YZEU,,,3P,DMABAA,,,
HCKL,39.85,-85.98333,FT BEN HARRISON,RTC,18,IN,INDIANA,,HCKL,,,3W,W0ZUFF,,,
TFMT,44.38278,-100.28611,PIERRE RGNL,CAP,46,SD,SOUTH DAKOTA,KPIR,TFMT,,,3Q,DMABAA,,,
LXHY,21.575,-158.29167,KAENA POINT,MSL,15,HI,HAWAII,,LXHY,,,5N,FFWTK0,,,
RDRD,33.67972,-78.92834,MYRTLE BEACH INTL,JAP,45,SC,SOUTH CAROLINA,KMYR,RDRD,,,3L,DMABAA,,,
UABY,40.378613,-75.96528,READING RGNL CARL,CAP,42,PA,PENNSYLVANIA,KRDG,UABY,,,3J,DMABAA,,,
VUGV,36.016666,-86.51667,SMYRNA,CTY,47,TN,TENNESSEE,,VUGV,,,3M,FFWTK0,,,
DYDV,35.15,-84.88333,CLEVELAND,CTY,47,TN,TENNESSEE,,DYDV,,,3M,W0ZUFF,,,
KUHK,41.532223,-87.255,HOBART,CTY,18,IN,INDIANA,,KUHK,,,3W,FFWTK0,,,
ZLJS,46.933334,-120.5,YAKIMA,CTY,53,WA,WASHINGTON,,ZLJS,,,3T,FFWTK0,,,
ZLJP,46.568054,-120.54417,YAKIMA AIR TERMIN,CAP,53,WA,WASHINGTON,KYKM,ZLJP,,,3T,DMABAA,,,
ZHBP,41.633335,-79.666664,WORCESTER,CTY,42,PA,PENNSYLVANIA,,ZHBP,,,3J,FFWTK0,,,
ZLJW,46.583332,-120.5,JBLM YAKIMA FIRIN,AIN,53,WA,WASHINGTON,,ZLJW,,,3T,W0ZUFF,,,
RQLH,29.991112,-90.25139,NEW ORLEANS NAS,ANX,22,LA,LOUISIANA,,RQLH,,,3N,FFWTK0,,,
JREZ,43.23389,-75.406944,GRIFFISS INTL,APT,36,NY,NEW YORK,KRME,JREZ,,,3H,DMABAA,,,
FRRD,40.433334,-78.75,EBENSBURG,CTY,42,PA,PENNSYLVANIA,,FRRD,,,3J,FFWTK0,,,
FRPD,44.8,-91.5,EAU CLAIRE,CTY,55,WI,WISCONSIN,,FRPD,,,3W,FFWTK0,,,
VYNX,43.95,-90.8,SPARTA,CTY,55,WI,WISCONSIN,,VYNX,,,3W,FFWTK0,,,
DYCS,41.409443,-81.855,CLEVELAND HOPKINS,CAP,39,OH,OHIO,KCLE,DYCS,,,3W,DMABAA,,,
CZJF,48.483334,-99.2,CANDO,CTY,38,ND,NORTH DAKOTA,,CZJF,,,3Q,W0ZUFF,,,
DYCZ,41.5,-81.7,CLEVELAND NAVY,ADM,39,OH,OHIO,,DYCZ,,,3W,FFWTK0,,,
HGUH,47.083332,-122.6,JBLM LEWIS,AIN,53,WA,WASHINGTON,,HGUH,,,3T,W0ZUFF,,,
ZHAP,42.283333,-71.8,WORCESTER,CTY,25,MA,MASSACHUSETTS,,ZHAP,,,3G,FFWTK0,,,
KDFD,26.2,-97.71667,HARLINGEN,CTY,48,TX,TEXAS,,KDFD,,,3P,FFWTK0,,,
GHZO,41.2,-104.833336,F E WARREN AFB,STG,56,WY,WYOMING,,GHZO,,,3Q,1A1AAA,,,
XNSM,36.416668,-89.066666,UNION CITY,AFS,47,TN,TENNESSEE,,XNSM,,,3M,FFWTK0,,,
UABS,40.333332,-75.916664,READING,CTY,42,PA,PENNSYLVANIA,,UABS,,,3J,FFWTK0,,,
HCML,32.383335,-84.88333,FT BENNING,AIN,13,GA,GEORGIA,,HCML,,,3L,W0ZUFF,,,
ZHAH,42.2,-72.53333,WORCESTER,AGS,25,MA,MASSACHUSETTS,,ZHAH,,,3G,FFWTK0,,,
